Institution,School Name,Main,Classification,Longitude,Latitude,Physical Address,Oral Pills (contraception),Injectables,IUDs  (contraception),Implants (contraception),Female Sterilization (contraception),Male Sterilization (contraception),Male Medical Circumcision (MMC),TB,Maternal Health,Mental Health,Child Health,Oral health services,Rehabilitation Services,Minor Ailments,HIV Testing,HIV Treatment (ART),Oral PrEP,Termination of Pregnancy - 1st Trimester,Termination of Pregnancy - 2nd Trimester,Sexuality Transmitted Infections Screenings
University of Fort Hare,BHISHO,,University,27.42111,-32.85117,,,,,,,,,,,,,,,,,,,,,
University of Fort Hare,EAST LONDON CAMPUS,,University,27.9069,-33.236,,,,,,,,,,,,,,,,,,,,,
University of Fort Hare,MAIN CAMPUS - ALICE,Yes,University,26.83114,-34.7833,,,,,,,,,,,,,,,,,,,,,
Nelson Mandela Metropolitan University,BIRD STREET CAMPUS,,University,33.95152,-25.627,,,,,,,,,,,,,,,,,,,,,
Nelson Mandela Metropolitan University,GEORGE CAMPUS,,University,33.9752,-22.5312,,,,,,,,,,,,,,,,,,,,,
Nelson Mandela Metropolitan University,MISSIONVALE CAMPUS,,University,33.8741,-25.5524,,,,,,,,,,,,,,,,,,,,,
Nelson Mandela Metropolitan University,SECOND AVENUE CAMPUS,,University,33.9837,-25.6583,,,,,,,,,,,,,,,,,,,,,
Nelson Mandela Metropolitan University,SUMMERSTRAND CAMPUS NORTH,,University,33.98153,-25.6755,,,,,,,,,,,,,,,,,,,,,
Nelson Mandela Metropolitan University,SUMMERSTRAND CAMPUS SOUTH,Yes,University,33.053,-25.6731,,,,,,,,,,,,,,,,,,,,,
Rhodes University,GRAHAMSTOWN CAMPUS,Yes,University,26.5238,-33.30134,,,,,,,,,,,,,,,,,,,,,
University of South Africa (EC),East London,Yes,University,27.88137,-33.21,,,,,,,,,,,,,,,,,,,,,
University of South Africa (EC),Mbizana ,,University,30.184,-31.7112,,,,,,,,,,,,,,,,,,,,,
University of South Africa (EC),Mthatha,,University,28.7853,-31.5882,,,,,,,,,,,,,,,,,,,,,
University of South Africa (EC),Port Elizabeth,,University,25.55122,-33.93157,,,,,,,,,,,,,,,,,,,,,
Walter Sisulu University,Cambridge Street-Buffalo City,Yes,University,27.90164,-33.855,,,,,,,,,,,,,,,,,,,,,
Walter Sisulu University,Chiselhurst-Buffalo City,,University,28.95164,-31.8367,,,,,,,,,,,,,,,,,,,,,
Walter Sisulu University,College Street-Buffalo City,,University,27.90164,-33.33164,,,,,,,,,,,,,,,,,,,,,
Walter Sisulu University,General Hospita-Mthatha Campus,,University,27.90164,-32.33164,,,,,,,,,,,,,,,,,,,,,
Walter Sisulu University,Grey Street -Queenstown Campus,,University,28.5886,-32.4714,,,,,,,,,,,,,,,,,,,,,
Walter Sisulu University,Heritage Site - Buffalo City,,University,27.88164,-32.98164,,,,,,,,,,,,,,,,,,,,,
Walter Sisulu University,Ibika-Butterworth Campus,,University,28.27147,-32.3081,,,,,,,,,,,,,,,,,,,,,
Walter Sisulu University,Nmd Campus- Mthatha Campus,,University,28.73108,-31.6014,,,,,,,,,,,,,,,,,,,,,
Walter Sisulu University,Ntlambo Site-Mthatha Campus,,University,28.83122,-31.5889,,,,,,,,,,,,,,,,,,,,,
Walter Sisulu University,Potsdam-Buffalo City,,University,27.90114,-33.5336,,,,,,,,,,,,,,,,,,,,,
Walter Sisulu University,River Park-Buffalo City ,,University,27.9047,-33.4833,,,,,,,,,,,,,,,,,,,,,
Walter Sisulu University,Vuli-Valley-Ibika Campus,,University,26.8747,-31.8892,,,,,,,,,,,,,,,,,,,,,
Walter Sisulu University,Whittleasea -Queenstown Campus,,University,29.15164,-30.9256,,,,,,,,,,,,,,,,,,,,,
Walter Sisulu University,Zamukulungisa Site-Mthatha,,University,28.73164,-31.62164,,,,,,,,,,,,,,,,,,,,,
Port Elizabeth TVET College,Port Elizabeth TVET College - Central Office,Yes,Technical and vocational education and training,25.61273,-33.957279,Richmond Park Richmond Hill Port Elizabeth 6001,,,,,,,,,,,,,,,,,,,,
Eastcape Midlands TVET College,Eastcape Midlands TVET College - Central Office,Yes,Technical and vocational education and training,25.39142,-33.766548,Corner of Durban & Cuyler Street UITENHAGE UITENHAGE 6230,,,,,,,,,,,,,,,,,,,,
Buffalo City TVET College,Buffalo City TVET College - Central Office,Yes,Technical and vocational education and training,27.89806,-32.996181,CNR LUKIN AND KING STREET EAST LONDON  5200,,,,,,,,,,,,,,,,,,,,
Lovedale TVET College,Lovedale TVET College - Central Office,Yes,Technical and vocational education and training,27.39081,-32.87233,Amatola Row Buffalo CIty Municipality King Williams Town 5600,,,,,,,,,,,,,,,,,,,,
King Sabata Dalindyebo TVET College,King Sabata Dalindyebo TVET College - Central Office,Yes,Technical and vocational education and training,28.77927,-31.58529,R61 Queenstown Road Mthatha  5099,,,,,,,,,,,,,,,,,,,,
Ingwe TVET College,Ingwe TVET College - Central Office,Yes,Technical and vocational education and training,28.977611,-30.901844,PO BOX 92491 CANCELE ROAD MOUNT FRERE 5605,,,,,,,,,,,,,,,,,,,,
Ikhala TVET College,Ikhala TVET College - Central Office,Yes,Technical and vocational education and training,26.96489,-31.90074,2020 ZONE D GWADANA DRIVE ZONE D GWADANA DRIVE EZIBELENI 5326,,,,,,,,,,,,,,,,,,,,
King Hintsa TVET College,King Hintsa TVET College - Central Office,Yes,Technical and vocational education and training,28.814955,-31.601405,218 Mthatha Rd IBIKA Private Bag X3018 Butterworth 4960,,,,,,,,,,,,,,,,,,,,
Ikhala TVET College,Ikhala TVET College - Ezibeleni Engineering Campus,,Technical and vocational education and training,26.96489,-31.90074,2020 ZONE D GWADANA DRIVE ZONE D GWADANA DRIVE EZIBELENI 5326,,,,,,,,,,,,,,,,,,,,
King Hintsa TVET College,King Hintsa TVET College - H.B. Tsengwa Willowvale Campus,,Technical and vocational education and training,28.14605,-32.33213,PRIVATE BAG X3018 BUTTERWORTH  4960,,,,,,,,,,,,,,,,,,,,
Port Elizabeth TVET College,Port Elizabeth TVET College - Iqhayiya Campus,,Technical and vocational education and training,25.57409,-33.89069,Struan Way Struandale Port Elizabeth 6001,,,,,,,,,,,,,,,,,,,,
Buffalo City TVET College,Buffalo City TVET College - John Knox Bokwe Campus,,Technical and vocational education and training,27.74344,-32.93749,MFAXA STREET NU1 MDANTSANE 5200,,,,,,,,,,,,,,,,,,,,
King Sabata Dalindyebo TVET College,King Sabata Dalindyebo TVET College - Mapuzi Campus,,Technical and vocational education and training,29.15086,-31.98197,Coffee Bay Road Mqanduli Private Bag X579 5080,,,,,,,,,,,,,,,,,,,,
Ingwe TVET College,Ingwe TVET College - Ngqungqushe Campus,,Technical and vocational education and training,29.583295,-31.375849,PRIVATE BAG X1011 MAGWA ROAD LUSIKISIKI 5605,,,,,,,,,,,,,,,,,,,,
Ingwe TVET College,Ingwe TVET College - Siteto Campus,,Technical and vocational education and training,29.37453,-31.58879,PRIVATE BAG X600 BIZANA  5605,,,,,,,,,,,,,,,,,,,,
Ikhala TVET College,Ikhala TVET College - Sterkspruit Campus,,Technical and vocational education and training,27.397913,-30.521666,"295 EMFUNDISWENI STREET, ZWELITSHA EMFUNDISWENI STREET, ZWELITSHA STERKSPRUIT 9762",,,,,,,,,,,,,,,,,,,,
King Hintsa TVET College,King Hintsa TVET College - Teko Campus,,Technical and vocational education and training,28.14605,-32.33213,PRIVATE BAG X3018 BUTTERWORTH  4960,,,,,,,,,,,,,,,,,,,,
King Sabata Dalindyebo TVET College,King Sabata Dalindyebo TVET College - Mthatha Campus,,Technical and vocational education and training,28.7789,-31.591619,Private Bag X5011 Mthatha  5099,,,,,,,,,,,,,,,,,,,,
Lovedale TVET College,Lovedale TVET College - Zwelitsha Campus,,Technical and vocational education and training,27.38399,-32.85989,Gert Goosen Drive Drive King Williams Town Drive King Williams Town 5600,,,,,,,,,,,,,,,,,,,,
King Sabata Dalindyebo TVET College,King Sabata Dalindyebo TVET College - Libode Campus,,Technical and vocational education and training,29.51476,-31.59559,R61 Port St Johns Road Libode  5160,,,,,,,,,,,,,,,,,,,,
King Sabata Dalindyebo TVET College,King Sabata Dalindyebo TVET College - Ntabozuko Campus,,Technical and vocational education and training,28.68419,-31.9682,C/O Madwaleni Gusi A/A Elliotdale  5070,,,,,,,,,,,,,,,,,,,,
King Sabata Dalindyebo TVET College,King Sabata Dalindyebo TVET College - Mngazi Campus,,Technical and vocational education and training,29.01793,-31.54243,Mgwenyana A/A Libode  5160,,,,,,,,,,,,,,,,,,,,
Ingwe TVET College,Ingwe TVET College - Maluti Campus,,Technical and vocational education and training,28.81014,-30.34013,PO BOX 619 MATATIELE  5605,,,,,,,,,,,,,,,,,,,,
Eastcape Midlands TVET College,Eastcape Midlands TVET College - Park  Avenue Campus,,Technical and vocational education and training,25.39919,-33.76222,4 BARKLY STREET UITENHAGE UITENHAGE 6230,,,,,,,,,,,,,,,,,,,,
Ikhala TVET College,Ikhala TVET College - Nonesi Campus,,Technical and vocational education and training,27.23618,-31.70144,GQEBENYA LOCATION GQEBENYA LOCATION LADY FRERE 5410,,,,,,,,,,,,,,,,,,,,
Buffalo City TVET College,Buffalo City TVET College - St Marks Campus,,Technical and vocational education and training,27.90267,-32.99841,ST MARKS ROAD EAST LONDON  5200,,,,,,,,,,,,,,,,,,,,
Eastcape Midlands TVET College,Eastcape Midlands TVET College - Charles Goodyear Campus,,Technical and vocational education and training,25.39564,-33.75191,CNR MELBROOKS & WATT STREET UITENHAGE UITENHAGE 6229,,,,,,,,,,,,,,,,,,,,
Ikhala TVET College,Ikhala TVET College - Aliwal North Campus,,Technical and vocational education and training,26.70889,-30.69569,248 SOMERSET STREET SOMERSET STREET ALIWAL NORTH 9750,,,,,,,,,,,,,,,,,,,,
Port Elizabeth TVET College,Port Elizabeth TVET College - Bethelsdorp Campus,,Technical and vocational education and training,25.5228903,-33.8831663,Rensburg Street West End Port Elizabeth 6059,,,,,,,,,,,,,,,,,,,,
Buffalo City TVET College,Buffalo City TVET College - East London Campus,,Technical and vocational education and training,27.9042779,-33.013671,East London Building East London  5200,,,,,,,,,,,,,,,,,,,,
Eastcape Midlands TVET College,Eastcape Midlands TVET College - Grahamstown Campus,,Technical and vocational education and training,26.5195908,-33.3038864,16 ST AIDANS AVENUE GRAHAMSTOWN GRAHAMSTOWN 6140,,,,,,,,,,,,,,,,,,,,
Ikhala TVET College,Ikhala TVET College - Queenstown Campus,,Technical and vocational education and training,26.8706862,-31.8937538,440 CNR ROBINSON & ZEILER STREET CNR ROBINSON & ZEILER STREET QUEENSTOWN 5319,,,,,,,,,,,,,,,,,,,,
Port Elizabeth TVET College,Port Elizabeth TVET College - Russell Road Campus,,Technical and vocational education and training,25.61021,-33.9614199,139 Russell Rd Central Port Elizabeth 6001,,,,,,,,,,,,,,,,,,,,
Eastcape Midlands TVET College,Eastcape Midlands TVET College - High Street Campus,,Technical and vocational education and training,25.4012916,-33.758713,4 HIGH STREET UITENHAGE UITENHAGE 6229,,,,,,,,,,,,,,,,,,,,
King Sabata Dalindyebo TVET College,King Sabata Dalindyebo TVET College - Ngcobo Campus,,Technical and vocational education and training,28.771396,-31.5809846,Queenstown Road Idutywa Junction Ngcobo 5050,,,,,,,,,,,,,,,,,,,,
King Hintsa TVET College,King Hintsa TVET College - Centane Campus,,Technical and vocational education and training,28.1446262,-32.3323496,PRIVATE BAG X3018 BUTTERWORTH  4960,,,,,,,,,,,,,,,,,,,,
Ingwe TVET College,Ingwe TVET College - Mt Frere Campus,,Technical and vocational education and training,28.9819731,-30.8918332,PRIVATE BAG X1247 MOUNT FRERE  5605,,,,,,,,,,,,,,,,,,,,
Ingwe TVET College,Ingwe TVET College - Mt Fletcher Campus,,Technical and vocational education and training,28.5051382,-30.6914475,PRIVATE BAG X1247 MOUNT FLETCHER  5605,,,,,,,,,,,,,,,,,,,,
Lovedale TVET College,Lovedale TVET College - Alice Campus,,Technical and vocational education and training,26.8276203,-32.7851776,Victoria Street Alice Alice 5700,,,,,,,,,,,,,,,,,,,,
Ikhala TVET College,Ikhala TVET College - Iqhayiya-Cradock Campus,,Technical and vocational education and training,25.630668,-32.180473,CNR OF SIKULU and LUHABE STREET CRADOCK  5880,,,,,,,,,,,,,,,,,,,,
Eastcape Midlands TVET College,Eastcape Midlands TVET College - Graaff-reinet Campus,,Technical and vocational education and training,24.5296671,-32.2561767,22 MIDDLE STREET GRAAFF-REINET GRAAFF-REINET 6280,,,,,,,,,,,,,,,,,,,,
Eastcape Midlands TVET College,Eastcape Midlands TVET College - Brickfields Road Campus,,Technical and vocational education and training,25.4044533,-33.7840066,BRICKFIELDS ROAD UITENHAGE UITENHAGE 6230,,,,,,,,,,,,,,,,,,,,
Eastcape Midlands TVET College,Eastcape Midlands TVET College - Thanduxolo Campus,,Technical and vocational education and training,25.3724422,-33.8064814,24150 BANTOM ROAD KWANOBUHLE UITENHAGE 6242,,,,,,,,,,,,,,,,,,,,
Eastcape Midlands TVET College,Eastcape Midlands TVET College - Heath Park Campus,,Technical and vocational education and training,25.492578,-33.877639,c/o STANDFORD ROAD AND LAURENCE ERASMUS DRIVE BETHELSDORP PORT ELIZABETH 6020,,,,,,,,,,,,,,,,,,,,
King Hintsa TVET College,King Hintsa TVET College - Dutywa Campus,,Technical and vocational education and training,28.3144142,-32.1097156,PRIVATE BAG X3018 BUTTERWORTH  4960,,,,,,,,,,,,,,,,,,,,
Lovedale TVET College,Lovedale TVET College - King Campus,,Technical and vocational education and training,27.3950098,-32.8702766,Amatola Row King Williams Town King Williams Town 5600,,,,,,,,,,,,,,,,,,,,
Eastcape Midlands TVET College,Eastcape Midlands TVET College - Kwa Nobuhle Campus,,Technical and vocational education and training,25.414969,-33.784075,CHARLES GOODYEAR STREET   6229,,,,,,,,,,,,,,,,,,,,
Buffalo City TVET College,Buffalo City TVET College - East London Campus,,Technical and vocational education and training,27.854587,-33.029158,PRIVATE BAG 9016 EAST LONDON  5200,,,,,,,,,,,,,,,,,,,,
"Central University of Technology, Free State",BLOEMFONTEIN CAMPUS,Yes,University,29.127,-26.20147,,,,,,,,,,,,,,,,,,,,,
"Central University of Technology, Free State",WELKOM,,University,27.93163,-26.77164,,,,,,,,,,,,,,,,,,,,,
"Central University of Technology, Free State",WELKOM (EX VISTA),,University,27.93163,-26.77164,,,,,,,,,,,,,,,,,,,,,
University of the Free State,MAIN CAMPUS,Yes,University,26.1891,-29.10108,,,,,,,,,,,,,,,,,,,,,
University of the Free State,QWA QWA CAMPUS,,University,28.8269,-28.4826,,,,,,,,,,,,,,,,,,,,,
University of the Free State,SUIDKAMPUS,,University,26.20148,-29.17162,,,,,,,,,,,,,,,,,,,,,
University of South Africa (FS),Bloemfontein,,University,26.2067,-29.10105,,,,,,,,,,,,,,,,,,,,,
University of South Africa (FS),Kroonstad,,University,27.238,-27.65134,,,,,,,,,,,,,,,,,,,,,
Motheo TVET College,Motheo TVET College - Hillside View Campus,,Technical and vocational education and training,26.228206,-29.175042,KHOMO STREET BLOEMFONTEIN BLOEMFONTEIN 9300,,,,,,,,,,,,,,,,,,,,
Maluti TVET College,Maluti TVET College - Itemoheleng Campus,,Technical and vocational education and training,28.8228852,-28.5163708,ITEMOHELENG CAMPUS MAMPOI STREET PHUTHADITJHABA 9866,,,,,,,,,,,,,,,,,,,,
Goldfields TVET College,Goldfields TVET College - Tosa Campus,,Technical and vocational education and training,26.801775,-27.952233,14107 NDAKI ROAD THABONG WELKOM 9463,,,,,,,,,,,,,,,,,,,,
Maluti TVET College,Maluti TVET College - Sefikeng Campus,,Technical and vocational education and training,28.817182,-28.526073,BONAMELO CAMPUS SEFIKENG CAMPUS MAFUBE STREET 9866,,,,,,,,,,,,,,,,,,,,
Flavius Mareka TVET College,Flavius Mareka TVET College - Mphohadi Campus,,Technical and vocational education and training,27.1919426,-27.6447902,TANG STREET TANG STREET KROONSTAD 9500,,,,,,,,,,,,,,,,,,,,
Maluti TVET College,Maluti TVET College - Bonamelo Campus,,Technical and vocational education and training,28.817182,-28.526073,CNR MOHLOMI & MOEKO STREET PHUTHADITJHABA PHUTHADITJHABA 9866,,,,,,,,,,,,,,,,,,,,
Maluti TVET College,Maluti TVET College - Maluti Main Campus,,Technical and vocational education and training,28.8081675,-28.5281977,MALUTI TVET COLLEGE ( MAIN CAMPUS) PRIVATE BAG X807 WITSIESHOEK 9870,,,,,,,,,,,,,,,,,,,,
Motheo TVET College,Motheo TVET College - Bethulie Campus,,Technical and vocational education and training,25.977471,-30.506572,1047 JIM FOUCHE STREET BETHULIE  9992,,,,,,,,,,,,,,,,,,,,
Motheo TVET College,Motheo TVET College - Botshabelo Campus,,Technical and vocational education and training,26.2179499,-29.120025,C/O ST. GEORGE & GREEN STREET BLOEMFONTEIN BLOEMFONTEIN 9301,,,,,,,,,,,,,,,,,,,,
Motheo TVET College,Motheo TVET College - Jacobsdal Secondary Agricultural School,,Technical and vocational education and training,24.797398,-29.133293,PLOT RB36 JACOBSDAL  8710,,,,,,,,,,,,,,,,,,,,
Motheo TVET College,Motheo TVET College - Bloemfontein Campus,,Technical and vocational education and training,26.2179499,-29.120025,C/O ST. GEORGE & CHURCH STREET BLOEMFONTEIN BLOEMFONTEIN 9301,,,,,,,,,,,,,,,,,,,,
Flavius Mareka TVET College,Flavius Mareka TVET College - Kroonstad Campus,,Technical and vocational education and training,27.2451981,-27.659897,BUKES STREET BUKES STREET KROONSTAD 9500,,,,,,,,,,,,,,,,,,,,
Flavius Mareka TVET College,Flavius Mareka TVET College - Sasolburg Campus,,Technical and vocational education and training,27.8401266,-26.8174774,CNR HERTZOG AND FRAZER ST CNR HERTZOG AND FRAZER ST SASOLBURG 1947,,,,,,,,,,,,,,,,,,,,
Goldfields TVET College,Goldfields TVET College - Welkom Campus,,Technical and vocational education and training,26.7348604,-27.9895239,CNR TORONTO and PETRUS BOSCH STREET JAN CILLIERS PARK WELKOM 9459,,,,,,,,,,,,,,,,,,,,
Maluti TVET College,Maluti TVET College - Lere La Tshepe Campus,,Technical and vocational education and training,28.7707821,-28.5917331,TSEKI VILLAGE NEXT TO MAGISTRATE OFFICES POELONG 9874,,,,,,,,,,,,,,,,,,,,
Goldfields TVET College,Goldfields TVET College - Central Office,Yes,Technical and vocational education and training,26.72535,-27.95477,36 Buren Street FLAMINGO PARK Welkom 9459,,,,,,,,,,,,,,,,,,,,
Motheo TVET College,Motheo TVET College - Central Office,Yes,Technical and vocational education and training,26.2179499,-29.120025,C/O ST GEORGES & ALIWAL STREET BLOEMFONTEIN 9301,,,,,,,,,,,,,,,,,,,,
Maluti TVET College,Maluti TVET College - Central Office,Yes,Technical and vocational education and training,28.30772,-28.23849,28 WESSELSSTREET BETHLEHEM BETHLEHEM 9700,,,,,,,,,,,,,,,,,,,,
Flavius Mareka TVET College,Flavius Mareka TVET College - Central Office,Yes,Technical and vocational education and training,27.8401266,-26.8174774,CNR HERTZOG AND FRAZER STR CNR HERTZOG AND FRAZER STR SASOLBURG 1947,,,,,,,,,,,,,,,,,,,,
Maluti TVET College,Maluti TVET College - Kwetlisong Campus,,Technical and vocational education and training,28.81498,-28.543626,RIVER SIDE WITSIESHOEK P/BAG X 837 9870,,,,,,,,,,,,,,,,,,,,
Motheo TVET College,Motheo TVET College - Thaba'nchu Campus,,Technical and vocational education and training,26.8107776,-29.185171,BULTFONTEIN ROAD THABA NCHU THABA NCHU 9780,,,,,,,,,,,,,,,,,,,,
Maluti TVET College,Maluti TVET College - Bethlehem Campus,,Technical and vocational education and training,28.8081891,-28.5276818,28  WESSELS STREET BETHLEHEM BETHLEHEM 9700,,,,,,,,,,,,,,,,,,,,
Maluti TVET College,Maluti TVET College - Harrismith Campus,,Technical and vocational education and training,29.1097796,-28.2619577,EXTENSION 4751 ITABAZWE CORRIDOR HARRISMITH 9880,,,,,,,,,,,,,,,,,,,,
University of Johannesburg,APB Auckland Park Bunting,,University,28.215,-26.1866,,,,,,,,,,,,,,,,,,,,,
University of Johannesburg,APK Auckland Park Kingsway,Yes,University,27.98158,-26.17158,,,,,,,,,,,,,,,,,,,,,
University of Johannesburg,DFC Doornfontein Campus,,University,28.577,-26.189,,,,,,,,,,,,,,,,,,,,,
University of Johannesburg,RAU ISLAND,,University,28.174,-26.8585,,,,,,,,,,,,,,,,,,,,,
University of Johannesburg,SIYABUSWA,,University,29.774,-25.12117,,,,,,,,,,,,,,,,,,,,,
University of Johannesburg,SWC Soweto Campus,,University,27.9273,-26.2597,,,,,,,,,,,,,,,,,,,,,
University of Johannesburg,UNIVERSITY OF JOHANNESBURG,,University,27.98158,-26.17158,,,,,,,,,,,,,,,,,,,,,
University of Pretoria,ANTON VAN WOUW,,University,28.2383,-25.7763,,,,,,,,,,,,,,,,,,,,,
University of Pretoria,CSIR ,,University,28.2784,-25.7537,,,,,,,,,,,,,,,,,,,,,
University of Pretoria,DASPOORT,,University,28.12155,-25.70136,,,,,,,,,,,,,,,,,,,,,
University of Pretoria,EXPERIMENTAL FARM,,University,28.2514,-25.7524,,,,,,,,,,,,,,,,,,,,,
University of Pretoria,GIBS,,University,28.3129,-26.12114,,,,,,,,,,,,,,,,,,,,,
University of Pretoria,GROENKLOOF CAMPUS,,University,28.2094,-25.7728,,,,,,,,,,,,,,,,,,,,,
University of Pretoria,HAMMANSKRAAL CAMPUS,,University,28.25128,-25.4079,,,,,,,,,,,,,,,,,,,,,
University of Pretoria,HATFIELD CAMPUS,,University,28.22142,-25.7558,,,,,,,,,,,,,,,,,,,,,
University of Pretoria,HATFIELD CAMPUS EAST,,University,28.22162,-25.7522,,,,,,,,,,,,,,,,,,,,,
University of Pretoria,HATFIELD CAMPUS SOUTH,Yes,University,28.233,-25.7564,,,,,,,,,,,,,,,,,,,,,
University of Pretoria,HILLCREST RESIDENCES,,University,28.2311,-25.7577,,,,,,,,,,,,,,,,,,,,,
University of Pretoria,HIPPOKRATES ,,University,28.2081,-25.72154,,,,,,,,,,,,,,,,,,,,,
University of Pretoria,KALAFONG,,University,28.85,-25.75135,,,,,,,,,,,,,,,,,,,,,
University of Pretoria,KOLLEGE FARM,,University,28.4839,-26.95117,,,,,,,,,,,,,,,,,,,,,
University of Pretoria,LC DE VILLIERS SPORTS CAMPUS,,University,28.23127,-25.7528,,,,,,,,,,,,,,,,,,,,,
University of Pretoria,MAMELODI CAMPUS,,University,28.38155,-25.7261,,,,,,,,,,,,,,,,,,,,,
University of Pretoria,MEDICAL CAMPUS (ACADEMIC HOSPITAL),,University,28.2028,-25.72158,,,,,,,,,,,,,,,,,,,,,
University of Pretoria,MEDICAL CAMPUS (PRINSHOF),,University,28.2028,-25.736,,,,,,,,,,,,,,,,,,,,,
University of Pretoria,MIERTJIE LE ROUX,,University,28.552,-25.77158,,,,,,,,,,,,,,,,,,,,,
University of Pretoria,OTHER,,University,28.3767,-25.7537,,,,,,,,,,,,,,,,,,,,,
University of Pretoria,PERSEQUOR PARK,,University,28.276,-25.73146,,,,,,,,,,,,,,,,,,,,,
University of Pretoria,SOUTH CAMPUS ,,University,28.2285,-25.7564,,,,,,,,,,,,,,,,,,,,,
University of Pretoria,VETERINARY SCIENCES CAMPUS,,University,28.17154,-25.63144,,,,,,,,,,,,,,,,,,,,,
University of Pretoria,WITBANK CAMPUS,,University,29.2212,-25.8788,,,,,,,,,,,,,,,,,,,,,
University of South Africa (GT),Daveyton,,University,28.38142,-26.13111,,,,,,,,,,,,,,,,,,,,,
University of South Africa (GT),Florida,,University,27.9025,-26.1585,,,,,,,,,,,,,,,,,,,,,
University of South Africa (GT),Irene ,,University,28.2273,-25.8886,,,,,,,,,,,,,,,,,,,,,
University of South Africa (GT),Johannesburg,Yes,University,28.322,-26.2037,,,,,,,,,,,,,,,,,,,,,
University of South Africa (GT),Lenasia,,University,27.83102,-26.3249,,,,,,,,,,,,,,,,,,,,,
University of South Africa (GT),Midrand,,University,28.1248,-25.987,,,,,,,,,,,,,,,,,,,,,
University of South Africa (GT),Muckleneuk,,University,28.18137,-25.75149,,,,,,,,,,,,,,,,,,,,,
University of South Africa (GT),Ormonde,,University,27.98125,-26.259,,,,,,,,,,,,,,,,,,,,,
University of South Africa (GT),Pretoria Central,,University,28.18102,-25.759,,,,,,,,,,,,,,,,,,,,,
University of South Africa (GT),Pretoria Dwellings,,University,28.207,-25.75142,,,,,,,,,,,,,,,,,,,,,
University of South Africa (GT),Sunnyside,,University,28.18151,-25.758,,,,,,,,,,,,,,,,,,,,,
University of South Africa (GT),Vereeniging ,,University,27.831,-26.6891,,,,,,,,,,,,,,,,,,,,,
Tshwane University of Technology,Alma and Du Toit Pretoria,,University,28.201,-25.7593,,,,,,,,,,,,,,,,,,,,,
Tshwane University of Technology,Arcadia Campus Pretoria,,University,28.2,-25.73116,,,,,,,,,,,,,,,,,,,,,
Tshwane University of Technology,Arts Campus Pretoria,,University,28.18131,-25.7375,,,,,,,,,,,,,,,,,,,,,
Tshwane University of Technology,Baobab Manor Residence,,University,29.43147,-23.87128,,,,,,,,,,,,,,,,,,,,,
Tshwane University of Technology,Breytenbach Theatre Pretoria,,University,28.18153,-25.7541,,,,,,,,,,,,,,,,,,,,,
Tshwane University of Technology,Building and Estates Pretoria ,,University,28.1761,-25.7387,,,,,,,,,,,,,,,,,,,,,
Tshwane University of Technology,Cape Town Bellville Campus,,University,18.62113,-33.88158,,,,,,,,,,,,,,,,,,,,,
Tshwane University of Technology,CSIR: Polymer Technology PTA,,University,28.2784,-25.7537,,,,,,,,,,,,,,,,,,,,,
Tshwane University of Technology,EKHAYA JUNCTION RESIDENCE,,University,28.2769,-25.1273,,,,,,,,,,,,,,,,,,,,,
Tshwane University of Technology,eMalahleni Campus,,University,29.2334,-25.87112,,,,,,,,,,,,,,,,,,,,,
Tshwane University of Technology,Experiential Learning Farm Cam,,University,28.225,-25.602,,,,,,,,,,,,,,,,,,,,,
Tshwane University of Technology,Ga-Rankuwa Campus,,University,28.027,-25.60155,,,,,,,,,,,,,,,,,,,,,
Tshwane University of Technology,Heidehof Residence Pretoria,,University,28.18146,-25.7381,,,,,,,,,,,,,,,,,,,,,
Tshwane University of Technology,Kollegehof Residence Pretoria,,University,28.2054,-25.72135,,,,,,,,,,,,,,,,,,,,,
Tshwane University of Technology,Kosmos Guesthouse Pretoria ,,University,28.1816,-25.7559,,,,,,,,,,,,,,,,,,,,,
Tshwane University of Technology,Legae Residence Pretoria,,University,28.17162,-25.7578,,,,,,,,,,,,,,,,,,,,,
Tshwane University of Technology,Leseding Campus Pretoria,,University,28.18161,-25.73125,,,,,,,,,,,,,,,,,,,,,
Tshwane University of Technology,Mabaleng Residence eMalahleni,,University,29.22128,-25.8827,,,,,,,,,,,,,,,,,,,,,
Tshwane University of Technology,Mbombela Campus,,University,30.9541,-25.503,,,,,,,,,,,,,,,,,,,,,
Tshwane University of Technology,Mebala Residence Mbombela,,University,30.95138,-25.472,,,,,,,,,,,,,,,,,,,,,
Tshwane University of Technology,METRO SKINNER Pretoria,,University,28.1832,-25.7511,,,,,,,,,,,,,,,,,,,,,
Tshwane University of Technology,Momentum House Durban Campus,,University,31.2145,-29.8513,,,,,,,,,,,,,,,,,,,,,
Tshwane University of Technology,Monitor Residence Pretoria,,University,28.17139,-25.7266,,,,,,,,,,,,,,,,,,,,,
Tshwane University of Technology,Nzasm Guesthouse Pretoria ,,University,28.18154,-25.7549,,,,,,,,,,,,,,,,,,,,,
Tshwane University of Technology,Old Mutual Industrial Park PTA,,University,28.179,-25.723,,,,,,,,,,,,,,,,,,,,,
Tshwane University of Technology,PREMOS: Arts - Pretoria,,University,28.15143,-25.7348,,,,,,,,,,,,,,,,,,,,,
Tshwane University of Technology,Pretoria Campus,Yes,University,28.1592,-25.7352,,,,,,,,,,,,,,,,,,,,,
Tshwane University of Technology,Soshanguve (North) Campus,,University,28.10131,-25.5235,,,,,,,,,,,,,,,,,,,,,
Tshwane University of Technology,Soshanguve (South) Campus,,University,28.8133,-25.53107,,,,,,,,,,,,,,,,,,,,,
Tshwane University of Technology,Telkom Residence Soshanguve,,University,28.10113,-25.5298,,,,,,,,,,,,,,,,,,,,,
Tshwane University of Technology,Tempo Residence Pretoria,,University,28.205,-25.7557,,,,,,,,,,,,,,,,,,,,,
Tshwane University of Technology,Toppieshoek Recreation Campus ,,University,27.8799,-25.7724,,,,,,,,,,,,,,,,,,,,,
Tshwane University of Technology,Urban Cove Residence Mbombela,,University,30.9762,-25.4786,,,,,,,,,,,,,,,,,,,,,
Tshwane University of Technology,West City Residence Pretoria,,University,28.1027,-25.7553,,,,,,,,,,,,,,,,,,,,,
Tshwane University of Technology,Zaragosapark Flats Pretoria,,University,28.2032,-25.6815,,,,,,,,,,,,,,,,,,,,,
Tshwane University of Technology,Zethushof Flats Pretoria,,University,28.20106,-25.73158,,,,,,,,,,,,,,,,,,,,,
Vaal University of Technology,EAST RAND DAVEYTON CAMPUS,,University,28.38142,-26.1311,,,,,,,,,,,,,,,,,,,,,
Vaal University of Technology,EDUCITY Science Park,,University,27.8318,-26.60135,,,,,,,,,,,,,,,,,,,,,
Vaal University of Technology,SECUNDA,,University,29.223,-26.48121,,,,,,,,,,,,,,,,,,,,,
Vaal University of Technology,UPINGTON ,,University,21.23135,-28.4549,,,,,,,,,,,,,,,,,,,,,
Vaal University of Technology,VANDERBIJLPARK,Yes,University,27.85122,-26.701,,,,,,,,,,,,,,,,,,,,,
University of Witwatersrand,BARAGWANETH HOSPITAL,,University,27.9372,-26.25115,,,,,,,,,,,,,,,,,,,,,
University of Witwatersrand,CORONATION HOSPITAL,,University,27.9766,-26.1851,,,,,,,,,,,,,,,,,,,,,
University of Witwatersrand,DONALD GORDON HOSPITAL,,University,28.311,-26.17125,,,,,,,,,,,,,,,,,,,,,
University of Witwatersrand,EAST CAMPUS,,University,28.2136,-26.1882,,,,,,,,,,,,,,,,,,,,,
University of Witwatersrand,FRANKENWALD (SCIENCE PARK),,University,28.1063,-26.767,,,,,,,,,,,,,,,,,,,,,
University of Witwatersrand,HELEN JOSEPH HOSPITAL,,University,27.986,-26.1821,,,,,,,,,,,,,,,,,,,,,
University of Witwatersrand,JOHANNESBURG HOSPITAL,,University,28.3124,-26.1789,,,,,,,,,,,,,,,,,,,,,
University of Witwatersrand,MANAGEMENT CAMPUS,,University,28.326,-26.17149,,,,,,,,,,,,,,,,,,,,,
University of Witwatersrand,MEDICAL SCHOOL,,University,28.3119,-26.1798,,,,,,,,,,,,,,,,,,,,,
University of Witwatersrand,MULDERSDRIFT CLINIC,,University,27.7559,-26.2157,,,,,,,,,,,,,,,,,,,,,
University of Witwatersrand,PULLEN FARM,,University,31.17147,-25.5753,,,,,,,,,,,,,,,,,,,,,
University of Witwatersrand,STERKFONTAIN CAVES,,University,27.72161,-26.28,,,,,,,,,,,,,,,,,,,,,
University of Witwatersrand,STURROCK PARK,,University,28.265,-26.1897,,,,,,,,,,,,,,,,,,,,,
University of Witwatersrand,WEST CAMPUS,,University,28.294,-26.1869,,,,,,,,,,,,,,,,,,,,,
University of Witwatersrand,WITS EDUCATION CAMPUS ,Yes,University,28.393,-26.17147,,,,,,,,,,,,,,,,,,,,,
University of Witwatersrand,WITS RURAL,,University,31.8156,-24.53127,,,,,,,,,,,,,,,,,,,,,
Sefako Makgatho Health Science University,MAIN CAMPUS,Yes,University,25.6015,-28.0164,,,,,,,,,,,,,,,,,,,,,
Tshwane South TVET College,Tshwane South TVET College - Central Office,Yes,Technical and vocational education and training,28.182466,-25.750131,85 FRANCIS BAARD STREET PRETORIA GAUTENG 0002,,,,,,,,,,,,,,,,,,,,
Tshwane North TVET College,Tshwane North TVET College - Central Office,Yes,Technical and vocational education and training,28.1804078,-25.7431064,52 POTGEITER STREET PRETORIA  0001,,,,,,,,,,,,,,,,,,,,
Ekurhuleni West TVET College,Ekurhuleni West TVET College - Central Office,Yes,Technical and vocational education and training,28.157257,-26.2096209,Cnr Sol and Driehoek Road Germiston  1401,,,,,,,,,,,,,,,,,,,,
Ekurhuleni East TVET College,Ekurhuleni East TVET College - Central Office,Yes,Technical and vocational education and training,28.404232,-26.289882,SAM NGEMA RD KWA-THEMBA SPRINGS 1560,,,,,,,,,,,,,,,,,,,,
South West Gauteng TVET College,South West Gauteng TVET College - Central Office,Yes,Technical and vocational education and training,27.8604407,-26.266943,1822A MOLELE STREET CNR KOMA ROAD SOWETO 1801,,,,,,,,,,,,,,,,,,,,
Central Johannesburg TVET College,Central Johannesburg TVET College - Central Office,Yes,Technical and vocational education and training,28.0489005,-26.1754862,"CENTRAL OFFICE 1 5 Ubla Road (Off Princess of Wales Terrace) PARKTOWN,Johannesburg 2193",,,,,,,,,,,,,,,,,,,,
Western TVET College,Western TVET College - Central Office,Yes,Technical and vocational education and training,27.7094809,-26.1701779,42 JOHNSTONE STREET HOMELAKE RANDFONTEIN 1759,,,,,,,,,,,,,,,,,,,,
Sedibeng TVET College,Sedibeng TVET College - Central Office,Yes,Technical and vocational education and training,27.9307178,-26.6782807,37 Voortrekker Str Vereeniging  1983,,,,,,,,,,,,,,,,,,,,
Western TVET College,Western - College TVET College - Carletonville Impala Platinum,,Technical and vocational education and training,27.397346,-26.350044,C/O ANNAN ROAD and SOUTH STREET CARLETONVILLE  2499,,,,,,,,,,,,,,,,,,,,
Western TVET College,Western - College TVET College - Carletonville New Vaal Colleries,,Technical and vocational education and training,27.397346,-26.350044,C/O ANNAN ROAD and SOUTH STREET CARLETONVILLE  2499,,,,,,,,,,,,,,,,,,,,
Western TVET College,Western - College TVET College - Randfontein Tshikondeni,,Technical and vocational education and training,27.664019,-26.183194,"Droogeheuvlei 251-Io, Randfontein",,,,,,,,,,,,,,,,,,,,
Western TVET College,Western - College TVET College - Randfontein Modikwa,,Technical and vocational education and training,27.678685,-26.19915,RANDFONTEIN  HENDRISLAAS MODIKWA PLATINUM 1129,,,,,,,,,,,,,,,,,,,,
Western TVET College,Western - College TVET College - Randfontein Roodepark,,Technical and vocational education and training,27.89522,-26.16744,50 CLARONDIN ROODEPARK SCHOOL DISCOVERY  1709,,,,,,,,,,,,,,,,,,,,
Western TVET College,Western - College TVET College - Randfontein Pro/Practical,,Technical and vocational education and training,27.748271,-26.102724,273 LUIPAARD ROODEPARK SCHOOL KRUGERSDORP  1739,,,,,,,,,,,,,,,,,,,,
Sedibeng TVET College,Sedibeng TVET College - Selbourne Campus,,Technical and vocational education and training,27.930718,-26.678281,37 VOORTREKKER STREET VEREENIGING  1930,,,,,,,,,,,,,,,,,,,,
Sedibeng TVET College,Sedibeng TVET College - Heidelberg Campus,,Technical and vocational education and training,28.3589193,-26.5042298,1 Frazer Avenue Heidelberg  1438,,,,,,,,,,,,,,,,,,,,
Tshwane North TVET College,Tshwane North TVET College - Rosslyn Campus,,Technical and vocational education and training,28.076704,-25.6271889,Ernest Oppenheimwer Street Rosslyn PRETORIA 0001,,,,,,,,,,,,,,,,,,,,
Tshwane South TVET College,Tshwane South TVET College - Odi Campus,,Technical and vocational education and training,28.0321142,-25.5255946,MOLEFE MAKINTA HIGHWAY OPPOSITE MORULA SUN MABOPANE 0190,,,,,,,,,,,,,,,,,,,,
Western TVET College,Western TVET College - Krugersdorp West Campus,,Technical and vocational education and training,27.7476292,-26.0916839,C/O FLEMMING & FIGULUS STREET KRUGERSDORP KRUGERSDORP 1740,,,,,,,,,,,,,,,,,,,,
Western TVET College,Western TVET College - Thuba Makote Campus,,Technical and vocational education and training,27.5362665,-25.9945912,STAND NO. 2 DR SCHOEMAN STREET GA-MOHALE 1791,,,,,,,,,,,,,,,,,,,,
South West Gauteng TVET College,South West Gauteng TVET College - Roodepoort West Campus,,Technical and vocational education and training,27.86134,-26.15387,1 HINDA & LAWSON STREET ROODEPOORT  1724,,,,,,,,,,,,,,,,,,,,
Ekurhuleni West TVET College,Ekurhuleni West TVET College - Alberton Campus,,Technical and vocational education and training,28.098371,-26.345557,Lake Arthur Street 25 Brackendown  1448,,,,,,,,,,,,,,,,,,,,
Ekurhuleni East TVET College,Ekurhuleni East TVET College - Benoni,,Technical and vocational education and training,28.3217206,-26.162313,50 O'REILLY MERRY ST NORTHMEAD BENONI 1500,,,,,,,,,,,,,,,,,,,,
Ekurhuleni West TVET College,Ekurhuleni West TVET College - Boksburg Campus,,Technical and vocational education and training,28.238703,-26.2179136,North Street 49 Plantation Boksburg 1460,,,,,,,,,,,,,,,,,,,,
Ekurhuleni East TVET College,Ekurhuleni East TVET College - Brakpan,,Technical and vocational education and training,28.3693114,-26.2359259,98 VICTORIA AVE BRAKPAN  1540,,,,,,,,,,,,,,,,,,,,
Western TVET College,Western TVET College - Carletonville Campus,,Technical and vocational education and training,27.396283,-26.3494517,C/O ANNAN AND SOUTH STREET CALLETONVILLE CARLETONVILLE 2500,,,,,,,,,,,,,,,,,,,,
Tshwane North TVET College,Tshwane North TVET College - Pretoria Campus,,Technical and vocational education and training,28.1985402,-25.7457475,420 Helen Joseph Street Pretoria CBD PRETORIA 0001,,,,,,,,,,,,,,,,,,,,
Ekurhuleni West TVET College,Ekurhuleni West TVET College - Germiston Campus,,Technical and vocational education and training,28.153464,-26.211844,Cnr Sol and Driehoek Road Germiston  1401,,,,,,,,,,,,,,,,,,,,
Central Johannesburg TVET College,Central Johannesburg TVET College - Riverlea,,Technical and vocational education and training,27.9805644,-26.2118247,"RIVERLEA CAMPUS 39 Ashburton Street RIVERLEA,Johannesburg 2093",,,,,,,,,,,,,,,,,,,,
Central Johannesburg TVET College,Central Johannesburg TVET College - Ellispark,,Technical and vocational education and training,28.058797,-26.1966853,ELLIS PARK CAMPUS 25 Currey Street DOORNFONTEIN 2094,,,,,,,,,,,,,,,,,,,,
Ekurhuleni West TVET College,Ekurhuleni West TVET College - Kempton Campus,,Technical and vocational education and training,28.2262861,-26.0793213,Cnr Partridge Ave and Pretoria Road KEMPTON PARK  1620,,,,,,,,,,,,,,,,,,,,
Western TVET College,Western TVET College - Krugersdorp Campus,,Technical and vocational education and training,27.7722617,-26.1050476,CNR MARKET AND VON BRANDIS STREETS KRUGERSDORP KRUGERSDORP 1739,,,,,,,,,,,,,,,,,,,,
Central Johannesburg TVET College,Central Johannesburg TVET College - Parktown,,Technical and vocational education and training,28.0489005,-26.1754862,PARKTOWN CAMPUS 5 Ubla Avenue Off Princess of Wales Terrace 2193,,,,,,,,,,,,,,,,,,,,
Tshwane North TVET College,Tshwane North TVET College - Pretoria Part Time Campus,,Technical and vocational education and training,28.1804078,-25.7431064,52 POTGIETER STREET PRETORIA  0001,,,,,,,,,,,,,,,,,,,,
Tshwane South TVET College,Tshwane South TVET College - Pretoria West Campus,,Technical and vocational education and training,28.1360405,-25.7616594,150 INDUSTRIAL ROAD PRETORIA WEST GAUTENG 0183,,,,,,,,,,,,,,,,,,,,
Western TVET College,Western TVET College - Randfontein Campus,,Technical and vocational education and training,27.6783805,-26.1846942,KIEWIET STREET HELIKONPARK  1759,,,,,,,,,,,,,,,,,,,,
South West Gauteng TVET College,South West Gauteng TVET College - Roodepoort Campus,,Technical and vocational education and training,27.8663846,-26.1435655,WEBBER STREET HORIZON VIEW ROODEPOORT 1724,,,,,,,,,,,,,,,,,,,,
Ekurhuleni East TVET College,Ekurhuleni East TVET College - Springs,,Technical and vocational education and training,28.4318158,-26.2586056,PLANTATION ROAD SPRINGS  1560,,,,,,,,,,,,,,,,,,,,
Sedibeng TVET College,Sedibeng TVET College - Vanderbijlpark Campus,,Technical and vocational education and training,27.83433,-26.69127,6 Frikke Meyer Blvd Vanderbijlpark  1911,,,,,,,,,,,,,,,,,,,,
Sedibeng TVET College,Sedibeng TVET College - Vereeniging Campus,,Technical and vocational education and training,27.9310882,-26.6767589,33 Voortrekker Str Vereeniging  1935,,,,,,,,,,,,,,,,,,,,
Tshwane South TVET College,Tshwane South TVET College - Centurion Campus,,Technical and vocational education and training,28.1872856,-25.8103274,COLLEGE AVE TEK BASE LYTTELTON 0142,,,,,,,,,,,,,,,,,,,,
Western TVET College,Western - College TVET College - Carletonville Kloof,,Technical and vocational education and training,27.397346,-26.350044,C/O ANNAN ROAD and SOUTH STREET CARLETONVILLE (GAUTENG)  2499,,,,,,,,,,,,,,,,,,,,
Western TVET College,Western - College TVET College - Carletonville Anglo Platinum,,Technical and vocational education and training,27.397346,-26.350044,C/O ANNAN ROAD and SOUTH STRET CARLETONVILLE (GAUTENG)  2499,,,,,,,,,,,,,,,,,,,,
Tshwane North TVET College,Tshwane North TVET College - Soshanguve North Campus,,Technical and vocational education and training,28.1273454,-25.4844032,1973 Phirima Road Block G SOSHANGUVE 0152,,,,,,,,,,,,,,,,,,,,
Central Johannesburg TVET College,Central Johannesburg TVET College - Alexandra,,Technical and vocational education and training,28.10374,-26.11368,ALEXANDRA CAMPUS Cnr Canning & Ninth Road Kew 2090,,,,,,,,,,,,,,,,,,,,
Tshwane South TVET College,Tshwane South TVET College - Atteridgeville Campus,,Technical and vocational education and training,28.0863417,-25.7627782,5 KHOSA STR ATTERIDGEVILLE PRETORIA 0008,,,,,,,,,,,,,,,,,,,,
Central Johannesburg TVET College,Central Johannesburg TVET College - Eastside Campus,,Technical and vocational education and training,28.038687,-26.181658,5 UBLA AVENUE PARKTOWN JOHANNESBURG  2041,,,,,,,,,,,,,,,,,,,,
South West Gauteng TVET College,South West Gauteng TVET College - George Tabor Campus,,Technical and vocational education and training,27.8929723,-26.2488092,1440 MNCUBE DRIVE DUBE SOWETO 1801,,,,,,,,,,,,,,,,,,,,
Ekurhuleni East TVET College,Ekurhuleni East TVET College - Daveyton,,Technical and vocational education and training,28.4102611,-26.159466,HEALD ST DAVEYTON  1510,,,,,,,,,,,,,,,,,,,,
Ekurhuleni West TVET College,Ekurhuleni West TVET College - Lazarus Nhlapo Campus,,Technical and vocational education and training,28.1861354,-26.0243726,Esiqongweni Section 9 Tembisa  1620,,,,,,,,,,,,,,,,,,,,
Sedibeng TVET College,Sedibeng TVET College - Sebokeng Campus,,Technical and vocational education and training,27.8408424,-26.6087594,4 Samuel Str Sebokeng  1983,,,,,,,,,,,,,,,,,,,,
South West Gauteng TVET College,South West Gauteng TVET College - Dobsonville Campus,,Technical and vocational education and training,27.877861,-26.2143349,5604 VAN ONSELEN RD DOBSONVILLE  1863,,,,,,,,,,,,,,,,,,,,
South West Gauteng TVET College,South West Gauteng TVET College - Molapo Campus,,Technical and vocational education and training,27.8604407,-26.266943,1822B MOLELE STREET CNR KOMA ROAD SOWETO 1801,,,,,,,,,,,,,,,,,,,,
Tshwane North TVET College,Tshwane North TVET College - Soshanguve South Campus,,Technical and vocational education and training,28.0976179,-25.5100448,College Road Block L SOSHANGUVE 0152,,,,,,,,,,,,,,,,,,,,
Tshwane North TVET College,Tshwane North TVET College - Mamelodi Campus,,Technical and vocational education and training,28.3716099,-25.721867,19403 Serapeng Road Mamelodi East MAMELODI EAST Pretoria 0122,,,,,,,,,,,,,,,,,,,,
Ekurhuleni East TVET College,Ekurhuleni East TVET College - Kwa-Thema,,Technical and vocational education and training,28.403806,-26.289972,SAM NGEMA ROAD KWA-THEMA SPRINGS 1560,,,,,,,,,,,,,,,,,,,,
Ekurhuleni West TVET College,Ekurhuleni West TVET College - Usizo Kathorus Campus,,Technical and vocational education and training,28.1612726,-26.3408378,Palime Section 782 Katlehong  1457,,,,,,,,,,,,,,,,,,,,
South West Gauteng TVET College,South West Gauteng TVET College - Technisa Campus,,Technical and vocational education and training,28.016412,-26.10242,CNR HUGUENOT AVENUE & MAIN STREET BORDEAUX RANDBURG 2194,,,,,,,,,,,,,,,,,,,,
Tshwane North TVET College,Tshwane North TVET College - Temba Campus,,Technical and vocational education and training,28.2789735,-25.3770675,Jublilee Road Temba TEMBA 0401,,,,,,,,,,,,,,,,,,,,
Durban University of Technology,DURBAN,Yes,University,31.036,-29.8525,,,,,,,,,,,,,,,,,,,,,
Durban University of Technology,MIDLANDS -RIVERSIDE,,University,30.38122,-29.6061,,,,,,,,,,,,,,,,,,,,,
Durban University of Technology,MIDLANDS-INDUMISO,,University,30.38122,-29.6061,,,,,,,,,,,,,,,,,,,,,
University of KwaZulu-Natal,Africa Centre ,,University,32.20143,-28.4059,,,,,,,,,,,,,,,,,,,,,
University of KwaZulu-Natal,CASME,,University,30.834,-29.829,,,,,,,,,,,,,,,,,,,,,
University of KwaZulu-Natal,Edgewood,,University,30.834,-29.829,,,,,,,,,,,,,,,,,,,,,
University of KwaZulu-Natal,Howard College,,University,30.9772,-29.874,,,,,,,,,,,,,,,,,,,,,
University of KwaZulu-Natal,Medical School,,University,30.9869,-29.8777,,,,,,,,,,,,,,,,,,,,,
University of KwaZulu-Natal,Pietermaritzburg,,University,30.38164,-29.62144,,,,,,,,,,,,,,,,,,,,,
University of KwaZulu-Natal,Westville,Yes,University,30.9394,-29.8212,,,,,,,,,,,,,,,,,,,,,
University of South Africa (KZN),Durban,Yes,University,31.2139,-29.83156,,,,,,,,,,,,,,,,,,,,,
University of South Africa (KZN),Newcastle,,University,29.92151,-27.75101,,,,,,,,,,,,,,,,,,,,,
University of South Africa (KZN),Pietermaritzburg,,University,30.374,-29.60105,,,,,,,,,,,,,,,,,,,,,
University of South Africa (KZN),Richards Bay,,University,32.3105,-28.7547,,,,,,,,,,,,,,,,,,,,,
University of Zululand,MAIN CAMPUS,Yes,University,31.8395,-28.8574,,,,,,,,,,,,,,,,,,,,,
University of Zululand,RICHARDS BAY CAMPUS,,University,32.3155,-28.7575,,,,,,,,,,,,,,,,,,,,,
University of Zululand,UMLAZI CAMPUS,,University,30.9,-29.97,,,,,,,,,,,,,,,,,,,,,
Mangosuthu University of Technology,MANGOSUTHU ,Yes,University,30.9036,-29.977,,,,,,,,,,,,,,,,,,,,,
Mthashana TVET College,Mthashana TVET College - Central Office,Yes,Technical and vocational education and training,30.8101939,-27.7739577,266 SOUTH STREET VRYHEID VRYHEID 3100,,,,,,,,,,,,,,,,,,,,
Umfolozi TVET College,Umfolozi TVET College - Central Office,Yes,Technical and vocational education and training,32.0754416,-28.7651018,NABOOMNEK STREET ARBORETUM RICHARDS BAY 3900,,,,,,,,,,,,,,,,,,,,
Majuba TVET College,Majuba TVET College - Central Office,Yes,Technical and vocational education and training,29.9410324,-27.7628289,83 ALLAN STREET NEWCASTLE NEWCASTLE 2940,,,,,,,,,,,,,,,,,,,,
Mnambithi TVET College,Mnambithi TVET College - Central Office,,Technical and vocational education and training,29.77808,-28.56271,77 MURCHISON STREET LADYSMITH LADYSMITH 3370,,,,,,,,,,,,,,,,,,,,
Elangeni TVET College - Central,Elangeni TVET College - Central,Yes,Technical and vocational education and training,30.8699751,-29.8231483,15 PORTSMOUTH ROAD PINETOWN PINETOWN 3610,,,,,,,,,,,,,,,,,,,,
Coastal TVET College,Coastal TVET College - Central Office,Yes,Technical and vocational education and training,30.878436,-30.027743,50051 OLD MAIN ROAD KWAMAKHUTHA KWAMAKHUTHA 4126,,,,,,,,,,,,,,,,,,,,
Thekwini TVET College,Thekwini TVET College - Central Office,Yes,Technical and vocational education and training,30.98774,-29.826419,262 D'AINTREE AVENUE ASHERVILLE ASHERVILLE 4091,,,,,,,,,,,,,,,,,,,,
Umgungundlovu TVET College,Umgungundlovu TVET College - Central Office,Yes,Technical and vocational education and training,30.3738345,-29.6122703,44 BURGER STREET PIETERMARITZBURG PM BURG 3201,,,,,,,,,,,,,,,,,,,,
Esayidi TVET College,Esayidi TVET College - Central Office,Yes,Technical and vocational education and training,30.452853,-30.7370746,"LOT 462 No 3 Shooters Hill, Nelson Mandela Port Shepstone 4240",,,,,,,,,,,,,,,,,,,,
Umgungundlovu TVET College,Umgungundlovu TVET College - Edendale Campus,,Technical and vocational education and training,30.2945362,-29.6509625,WATERFALL STREET PMB PMB 3200,,,,,,,,,,,,,,,,,,,,
Esayidi TVET College,Esayidi TVET College - Enyenyezi Campus,,Technical and vocational education and training,30.4237786,-30.7520738,Off Main Harding Road Boboyi Township Port Shepstone 4240,,,,,,,,,,,,,,,,,,,,
Mnambithi TVET College,Mnambithi TVET College - Ezakheni Campus,,Technical and vocational education and training,29.8795134,-28.6301045,MANQAWASHE STREET EZAKHENI E SECTION EZAKHENI 3381,,,,,,,,,,,,,,,,,,,,
Majuba TVET College,Majuba TVET College - Majuba Technology Centre Campus,,Technical and vocational education and training,30.0369112,-27.7488856,NKOSI ALBERT LUTHULI SECTION 5 MADADENI 2951,,,,,,,,,,,,,,,,,,,,
Mthashana TVET College,Mthashana TVET College - Nongoma Campus,,Technical and vocational education and training,31.6480534,-27.9056643,22A NONGOMA MAIN STREET NONGOMA NONGOMA 3950,,,,,,,,,,,,,,,,,,,,
Elangeni TVET College - Central,Elangeni TVET College - Ntuzuma Campus,,Technical and vocational education and training,30.943904,-29.723506,384 ITHENDELE DRIVE NTUZUMA NTUZUMA 4359,,,,,,,,,,,,,,,,,,,,
Umgungundlovu TVET College,Umgungundlovu TVET College - Plessislaer Campus,,Technical and vocational education and training,30.3477383,-29.6538024,FJ SITHOLE ROAD IMBALI PMB 3200,,,,,,,,,,,,,,,,,,,,
Elangeni TVET College - Central,Elangeni TVET College - Kwamashu Tvet Campus,,Technical and vocational education and training,30.9884021,-29.745557,F5 MALANDELA DRIVE PINETOWN KWAMASHU 4360,,,,,,,,,,,,,,,,,,,,
Coastal TVET College,Coastal TVET College - Swinton Road Campus,,Technical and vocational education and training,30.9515086,-29.9465514,SWINTON ROAD MOBENI DURBAN 4060,,,,,,,,,,,,,,,,,,,,
Coastal TVET College,Coastal TVET College - Umlazi-v Campus,,Technical and vocational education and training,30.9262005,-29.9654788,V1294 Spinal Road UMLAZI V SECTION UMLAZI V SECTION 4110,,,,,,,,,,,,,,,,,,,,
Thekwini TVET College,Thekwini TVET College - Asherville Campus,,Technical and vocational education and training,30.98774,-29.826419,262 DAINTREE AVENUE ASHERVILLE DURBAN 4015,,,,,,,,,,,,,,,,,,,,
Umfolozi TVET College,Umfolozi TVET College - Mandeni Campus,,Technical and vocational education and training,31.41123,-29.1525,END ANDERSON ROAD LOT 47 MANDENI TOWNSHIP MANDENI 4490,,,,,,,,,,,,,,,,,,,,
Umfolozi TVET College,Umfolozi TVET College - Eshowe Campus,,Technical and vocational education and training,31.4964858,-28.8885565,KING DINIZULU ROAD ESHOWE ESHOWE 3815,,,,,,,,,,,,,,,,,,,,
Coastal TVET College,Coastal TVET College - Umlazi-bb Campus,,Technical and vocational education and training,30.856179,-29.9783206,1258 Nandi Drive Umlazi BB Umlazi BB 4126,,,,,,,,,,,,,,,,,,,,
Coastal TVET College,Coastal TVET College - Umbumbulu Campus,,Technical and vocational education and training,30.878436,-30.027743,50051 OLD MAIN ROAD KWAMAKHUTHA KWAMAKHUTHA 4126,,,,,,,,,,,,,,,,,,,,
Majuba TVET College,Majuba TVET College - Centre For People Development Campus,,Technical and vocational education and training,30.0369112,-27.7488856,DR NELSON MANDELA DRIVE SECTION 2 MADADENI 2951,,,,,,,,,,,,,,,,,,,,
Coastal TVET College,Coastal TVET College - Assalaam Campus,,Technical and vocational education and training,30.5595696,-30.3106948,Road D691 BRAEMAR BRAMAER 4202,,,,,,,,,,,,,,,,,,,,
Thekwini TVET College,Thekwini TVET College - Umbilo Campus,,Technical and vocational education and training,30.9969077,-29.8689769,351 UMBILO ROAD UMBILO UMBILO 4000,,,,,,,,,,,,,,,,,,,,
Esayidi TVET College,Esayidi TVET College - Gamalakhe Campus,,Technical and vocational education and training,30.3349024,-30.8061002,52 Veronica Road Gamalakhe Township Port Shepstone 4249,,,,,,,,,,,,,,,,,,,,
Elangeni TVET College - Central,Elangeni TVET College - Mpumalanga Campus,,Technical and vocational education and training,30.6292593,-29.8083693,280 SHEZI MAIN ROAD PINETOWN MPUMALANGA 3700,,,,,,,,,,,,,,,,,,,,
Mthashana TVET College,Mthashana TVET College - Kwa-gqikazi Campus,,Technical and vocational education and training,31.6480534,-27.9056643,22A NONGOMA MAIN ROAD NONGOMA NONGOMA 3950,,,,,,,,,,,,,,,,,,,,
Mthashana TVET College,Mthashana TVET College - Maputa Campus,,Technical and vocational education and training,32.7372348,-26.9859323,NEXT TO SHAINA HIGH SCHOOL FORMER SHAYINA BOAR THANDIZWE 3973,,,,,,,,,,,,,,,,,,,,
Umfolozi TVET College,Umfolozi TVET College - Esikhawini Campus,,Technical and vocational education and training,32.0226548,-28.6636739,648 UQHUME STREET ENSELENI ENSELENI 3880,,,,,,,,,,,,,,,,,,,,
Esayidi TVET College,Esayidi TVET College - Clydesdale Campus,,Technical and vocational education and training,29.9359301,-30.2712908,R56 KOKSTAD ROUTE Clydesdale Umzimkulu 3297,,,,,,,,,,,,,,,,,,,,
Mthashana TVET College,Mthashana TVET College - Emandleni Campus,,Technical and vocational education and training,31.4188356,-28.3597106,VULCAN FARM ULUNDI ULUNDI 3838,,,,,,,,,,,,,,,,,,,,
Elangeni TVET College - Central,Elangeni TVET College - Qadi Campus,,Technical and vocational education and training,30.7397893,-29.7471846,ZULU RESERVE ROAD PINETOWN BOTHA'S HILL 3610,,,,,,,,,,,,,,,,,,,,
Mthashana TVET College,Mthashana TVET College - Mgazi It Centre,,Technical and vocational education and training,30.6681566,-28.2189965,1557 Mangosuthu Drive NQUTU NQUTU 3135,,,,,,,,,,,,,,,,,,,,
Esayidi TVET College,Esayidi TVET College - Ixopo Campus,,Technical and vocational education and training,30.0694123,-30.1531579,,,,,,,,,,,,,,,,,,,,,
Thekwini TVET College,Thekwini TVET College - Springfield Campus,,Technical and vocational education and training,30.98126292,-29.80870413,Cnr  UMGENI & BISASAR ROAD SPRINGFIELD PARK DURBAN 4015,,,,,,,,,,,,,,,,,,,,
Thekwini TVET College,Thekwini TVET College - Centec Campus,,Technical and vocational education and training,31.0043759,-29.8268075,75 EARL HAIG ROAD ROSEGLEN DURBAN 4001,,,,,,,,,,,,,,,,,,,,
Coastal TVET College,Coastal TVET College - Durban Campus,,Technical and vocational education and training,30.9942208,-29.8746239,1 JAMESON CRESCENT CONGELLA CONGELLA 4013,,,,,,,,,,,,,,,,,,,,
Thekwini TVET College,Thekwini TVET College - Melbourne Campus,,Technical and vocational education and training,31.0061456,-29.8642674,47 MELBOURNE ROAD DALBRIDGE DURBAN 4014,,,,,,,,,,,,,,,,,,,,
Mnambithi TVET College,Mnambithi TVET College - Ladysmith Campus,,Technical and vocational education and training,29.82256,-28.58174,12  WALTON STREET LADYSMITH LADYSMITH 3370,,,,,,,,,,,,,,,,,,,,
Majuba TVET College,Majuba TVET College - Newcastle Technology Centre Campus,,Technical and vocational education and training,29.9511293,-27.7368189,FW BEYERS AVENUE BARRY HERTZOG PARK NEWCASTLE 2940,,,,,,,,,,,,,,,,,,,,
Umgungundlovu TVET College,Umgungundlovu TVET College - Msunduzi Campus,,Technical and vocational education and training,30.3726969,-29.6051278,114 Pietermaritz Street Pietermaritzburg KZN 3201,,,,,,,,,,,,,,,,,,,,
Elangeni TVET College - Central,Elangeni TVET College - Pinetown Campus,,Technical and vocational education and training,30.87035,-29.82185,38 BAMBOO LANE PINETOWN PINETOWN 3610,,,,,,,,,,,,,,,,,,,,
Esayidi TVET College,Esayidi TVET College - Port Shepstone Campus,,Technical and vocational education and training,30.4301491,-30.777099,1 Hillside Crescent Oslo Beach Port Shepstone 4240,,,,,,,,,,,,,,,,,,,,
Umfolozi TVET College,Umfolozi TVET College - Richtek Campus,,Technical and vocational education and training,32.0744339,-28.762756,CNR VIA RICHARDIA AND NABOOMNEK ARBORETUM RICHARDS BAY 3900,,,,,,,,,,,,,,,,,,,,
Majuba TVET College,Majuba TVET College - It & Business Campus,,Technical and vocational education and training,29.9471159,-27.7407865,04 TOMMY BOYDEL AVENUE BARRY HERTZOG PARK NEWCASTLE 2940,,,,,,,,,,,,,,,,,,,,
Mthashana TVET College,Mthashana TVET College - Vryheid Campus,,Technical and vocational education and training,30.7820616,-27.768581,92 HLOBANE STREET 9 LANDDROS STREET VRYHEID 3100,,,,,,,,,,,,,,,,,,,,
Thekwini TVET College,Thekwini TVET College - Cato Manor Campus,,Technical and vocational education and training,30.977036,-29.858839,C/O BOOTH & RIDGEVIEW ROAD CATO MANOR CATO MANOR 4091,,,,,,,,,,,,,,,,,,,,
Mnambithi TVET College,Mnambithi TVET College - Estcourt Campus,,Technical and vocational education and training,29.86652,-29.00544,10 SHEPSTONE ROAD ESTCOURT ESTCOURT 3310,,,,,,,,,,,,,,,,,,,,
Mnambithi TVET College,Mnambithi TVET College - Ezakheni A Campus,,Technical and vocational education and training,29.8891832,-28.6370786,ROLIHLAHLA STREET EZAKHENI A SECTION EZAKHENI 3381,,,,,,,,,,,,,,,,,,,,
Elangeni TVET College - Central,Elangeni TVET College - Kwadabeka Campus,,Technical and vocational education and training,30.8939566,-29.7765193,352 WYEBANK ROAD PINETOWN CLERMONT 3610,,,,,,,,,,,,,,,,,,,,
Elangeni TVET College - Central,Elangeni TVET College - Inanda Campus,,Technical and vocational education and training,30.9615298,-29.6979838,131 108812 STREET INANDA INANDA 4310,,,,,,,,,,,,,,,,,,,,
Majuba TVET College,Majuba TVET College - Dundee Technology Centre Campus,,Technical and vocational education and training,30.2346028,-28.1649032,68 VICTORIA STREET OPPOSITE POST OFFICE DUNDEE 3000,,,,,,,,,,,,,,,,,,,,
Coastal TVET College,Coastal TVET College - Appelsbosch Campus,,Technical and vocational education and training,30.9044342,-29.4072008,ROAD D1621 APPPELSBOSCH HOSPITAL ROAD OZWATHINI OZWATHINI 3242,,,,,,,,,,,,,,,,,,,,
Umfolozi TVET College,Umfolozi TVET College - Chief Albert Luthuli Campus,,Technical and vocational education and training,31.2533813,-29.3861916,CNR R102 AND D270 GROUTVILLE (NEAR DUBEVILLAGE STA.) STANGER 4450,,,,,,,,,,,,,,,,,,,,
Elangeni TVET College - Central,Elangeni TVET College - Ndwedwe Campus,,Technical and vocational education and training,30.9311024,-29.5187128,P100 MAIN ROAD NDWEDWE NDWEDWE 4342,,,,,,,,,,,,,,,,,,,,
Esayidi TVET College,Esayidi TVET College - Umzimkulu Campus,,Technical and vocational education and training,29.9306491,-30.263027,113 Mankofu Road Umzimkulu Umzimkulu 3297,,,,,,,,,,,,,,,,,,,,
Majuba TVET College,Majuba TVET College - Dundee Tecnology Centre 2 Campus,,Technical and vocational education and training,30.2153054,-28.1631653,93 KAREL LANDMAN STREET DUNDEE DUNDEE 3000,,,,,,,,,,,,,,,,,,,,
Esayidi TVET College,Esayidi TVET College - Nqamuza Cdc Campus,,Technical and vocational education and training,30.23311,-31.014015,CORNER OF R61 AND NZIMAKWE ROADS Munster Port Edward 4278,,,,,,,,,,,,,,,,,,,,
Esayidi TVET College,Esayidi TVET College - Harding Cdc Campus,,Technical and vocational education and training,29.891208,-30.574136,Corner of Livingstone and Balance Roads Harding Harding 4680,,,,,,,,,,,,,,,,,,,,
Esayidi TVET College,Esayidi TVET College - Umtwalume Cdc Campus,,Technical and vocational education and training,30.59902972,-30.50635892,Ward 19 Umnafu Area Umtwalume 4186,,,,,,,,,,,,,,,,,,,,
Esayidi TVET College,Esayidi TVET College - Inyonemhlophe Cdc Campus,,Technical and vocational education and training,30.7040976,-29.9845879,Ward 1 Umbumbulu Reserve Umdumezulu Area 4105,,,,,,,,,,,,,,,,,,,,
Esayidi TVET College,Esayidi TVET College - Oshabeni Cdc Campus,,Technical and vocational education and training,30.3571991,-30.6263112,Ward 4 St Faith Road Mpakameni Area 4240,,,,,,,,,,,,,,,,,,,,
Umgungundlovu TVET College,Umgungundlovu TVET College - Midlands Campus,,Technical and vocational education and training,30.3669797,-29.6074221,CNR MAYORSWALK & PINE STRT PMB PMB 3201,,,,,,,,,,,,,,,,,,,,
Coastal TVET College,Coastal TVET College - Ubuhlebugo Campus,,Technical and vocational education and training,30,-30,Main Road Ubuhlebugo Umzinto 4000,,,,,,,,,,,,,,,,,,,,
Esayidi TVET College,Esayidi TVET College - Kokstad Campus,,Technical and vocational education and training,29.419411,-30.557868,Old Show Grounds Scott Street Kokstad 4700,,,,,,,,,,,,,,,,,,,,
Umgungundlovu TVET College,Umgungundlovu TVET College - Northdale Campus,,Technical and vocational education and training,30.402066,-29.562485,CNR BALHAMBRA & NEWHOLMES WAY NORTHDALE PMB 3201,,,,,,,,,,,,,,,,,,,,
Umgungundlovu TVET College,Umgungundlovu TVET College - Mawele Campus,,Technical and vocational education and training,30.5682028,-28.7335217,D1269 Road Othame area MSINGA TOP 3010,,,,,,,,,,,,,,,,,,,,
Majuba TVET College,Majuba TVET College - Ncome Campus,,Technical and vocational education and training,30.036885,-27.748915,,,,,,,,,,,,,,,,,,,,,
Majuba TVET College,Majuba TVET College - Ekuseni TVET Campus,,Technical and vocational education and training,29.948365,-27.740571,,,,,,,,,,,,,,,,,,,,,
Majuba TVET College,Majuba TVET College - Westville Prison,,Technical and vocational education and training,29.94445,-27.765073,,,,,,,,,,,,,,,,,,,,,
Majuba TVET College,Majuba TVET College - Waterval Campus,,Technical and vocational education and training,28.980332,-24.152138,,,,,,,,,,,,,,,,,,,,,
University of Limpopo,EDUPARK,,University,29.4753,-23.9283,,,,,,,,,,,,,,,,,,,,,
University of Limpopo,MEDUNSA CAMPUS,,University,25.6015,-28.0164,,,,,,,,,,,,,,,,,,,,,
University of Limpopo,TURFLOOP CAMPUS,Yes,University,29.736,-23.8831,,,,,,,,,,,,,,,,,,,,,
University of South Africa (LP),Giyani,,University,30.681,-23.3086,,,,,,,,,,,,,,,,,,,,,
University of South Africa (LP),Makhado,,University,29.9073,-23.379,,,,,,,,,,,,,,,,,,,,,
University of South Africa (LP),Polokwane,Yes,University,29.4537,-23.9016,,,,,,,,,,,,,,,,,,,,,
Tshwane University of Technology,Polokwane Campus,,University,29.43159,-23.90162,,,,,,,,,,,,,,,,,,,,,
University of Venda,LOUIS TRICHARDT HOUSING,,University,30.2528,-23.1728,,,,,,,,,,,,,,,,,,,,,
University of Venda,MAIN CAMPUS,Yes,University,30.1728,-23.1728,,,,,,,,,,,,,,,,,,,,,
University of Venda,MUTALE,,University,30.1728,-22.1728,,,,,,,,,,,,,,,,,,,,,
University of Venda,SIBASA STAFF HOUSES,,University,30.1728,-22.1728,,,,,,,,,,,,,,,,,,,,,
University of Venda,STAFF HOUSES-T/NDOU BLOCK F,,University,30.1728,-23.1728,,,,,,,,,,,,,,,,,,,,,
University of Venda,THOHOYANDOU BLOCK C ,,University,30.1728,-22.1728,,,,,,,,,,,,,,,,,,,,,
University of Venda,THOHOYANDOU BLOCK D,,University,22.3764,-30.5085,,,,,,,,,,,,,,,,,,,,,
University of Venda,UNIVEN FOUNDATION OFFICES,,University,28.2542,-26.2542,,,,,,,,,,,,,,,,,,,,,
University of Venda,VUWANI,,University,23.3864,-30.5085,,,,,,,,,,,,,,,,,,,,,
Lephalale TVET College,Lephalale TVET College - Central Office,Yes,Technical and vocational education and training,27.6861959,-23.6825283,", ",,,,,,,,,,,,,,,,,,,,
Capricorn TVET College,Capricorn TVET College - Central Office,Yes,Technical and vocational education and training,29.4537285,-23.9175262,16 MARKET STREET POLOKWANE POLOKWANE 0700,,,,,,,,,,,,,,,,,,,,
Waterberg TVET College  Campus,Waterberg TVET College - Central Office Campus,Yes,Technical and vocational education and training,29.0090822,-24.2000296,CNR HOOGE AND TOTIUS STR MOKOPANE MOKOPANE 0601,,,,,,,,,,,,,,,,,,,,
Vhembe TVET College,Vhembe TVET College - Central Office,,Technical and vocational education and training,30.4692373,-22.9467426,SITE 203A SIBASA SIBASA LIMPOPO 0970,,,,,,,,,,,,,,,,,,,,
Mopani South East TVET College,Mopani South East TVET College - Central Office,Yes,Technical and vocational education and training,31.1404314,-23.9419008,CO COMBRETUM & HAARLEMSTR PHALABORWA PHALABORWA 1390,,,,,,,,,,,,,,,,,,,,
Letaba TVET College,Letaba TVET College - Central Office,Yes,Technical and vocational education and training,30.163479,-23.8323108,LETABA TVET COLLEGE - CENTRAL OFFICE 1 CLAUDE WHEATLEY STREET TZANEEN 0850,,,,,,,,,,,,,,,,,,,,
Sekhukhune TVET College,Sekhukhune TVET College - Central Office,Yes,Technical and vocational education and training,29.398692,-25.1673707,STAND NO. 676 MOTETEMA MOTETEMA 0473,,,,,,,,,,,,,,,,,,,,
Letaba TVET College,Letaba TVET College - Giyani Campus,,Technical and vocational education and training,30.7153534,-23.3162563,Letaba College - Giyani SECTION C INDUSTRIAL ROAD 0826,,,,,,,,,,,,,,,,,,,,
Vhembe TVET College,Vhembe TVET College - Mavhoi Campus,,Technical and vocational education and training,30.0453004,-22.8898019,PLOT NO 2769 MAKONGOZA BIABA DZANANI 0920,,,,,,,,,,,,,,,,,,,,
Capricorn TVET College,Capricorn TVET College - Seshego Campus,,Technical and vocational education and training,29.3930966,-23.842124,PRIVATE BAG X 4008 SESHEGO SESHEGO 0742,,,,,,,,,,,,,,,,,,,,
Mopani South East TVET College,Mopani South East TVET College - Sir Val Duncan Campus,,Technical and vocational education and training,31.028437,-23.935701,CNR CALVIN NGOBENI & TAMBO NAMAKGALE NAMAKGALE 1391,,,,,,,,,,,,,,,,,,,,
Vhembe TVET College,Vhembe TVET College - Makwarela Campus,,Technical and vocational education and training,30.4827445,-22.9430708,PORTION 15 OF 278 MPHAPHULI SIBASA  0970,,,,,,,,,,,,,,,,,,,,
Waterberg TVET College  Campus,Waterberg TVET College - Engineering And Skills Training Centre,,Technical and vocational education and training,29.4934795,-24.3048311,ZONE P STAND NO 10G LEBOWAKGOMO 0737,,,,,,,,,,,,,,,,,,,,
Lephalale TVET College,Lephalale TVET College - Modimolle Campus,,Technical and vocational education and training,28.4156555,-24.7107797,Le Grant Building c/o Nelson Mandela and Allen Street MODIMOLLE 0510,,,,,,,,,,,,,,,,,,,,
Waterberg TVET College  Campus,Waterberg TVET College - Thabazimbi Campus,,Technical and vocational education and training,27.3832619,-24.5717306,SKAG 4 RETABILE VILLAGE TIRISANO 0362,,,,,,,,,,,,,,,,,,,,
Sekhukhune TVET College,Sekhukhune TVET College - Cn Phatudi Campus,,Technical and vocational education and training,30.3109863,-24.5849976,STAND NO 2659 PRAKTISEER PRAKTISEER 1150,,,,,,,,,,,,,,,,,,,,
Vhembe TVET College,Vhembe TVET College - Mashamba Campus,,Technical and vocational education and training,30.1242968,-23.2391385,STAND NO 19 MASHAMBA VILLAGE MASHAMBA  0920,,,,,,,,,,,,,,,,,,,,
Waterberg TVET College  Campus,Waterberg TVET College - Business Studies Centre,,Technical and vocational education and training,28.9790056,-24.1525856,C/O TECHNICAL AND LESEDING STREETS MAHWELERENG MAHWELERENG 0626,,,,,,,,,,,,,,,,,,,,
Vhembe TVET College,Vhembe TVET College - Tshisimani Campus,,Technical and vocational education and training,30.3088398,-23.0553523,TSHAKHUMA LUVHALANI STREET TSHAKHUMA VILLAGE  0950,,,,,,,,,,,,,,,,,,,,
Lephalale TVET College,Lephalale TVET College - Lephalale  Campus,,Technical and vocational education and training,27.6882418,-23.6817366,C/O NELSON MANDELA NGOAKO RAMATLHODI ONVERWACHT 0557,,,,,,,,,,,,,,,,,,,,
Capricorn TVET College,Capricorn TVET College - Polokwane Campus,,Technical and vocational education and training,29.461925,-23.8917389,College Avenue POLOKWANE POLOKWANE 0699,,,,,,,,,,,,,,,,,,,,
Waterberg TVET College  Campus,Waterberg TVET College - It And Computer Science Centre,,Technical and vocational education and training,28.987268,-24.1494949,RUFUS SEAKAMELA STREET MAHWELERENG MAHWELERENG 0626,,,,,,,,,,,,,,,,,,,,
Letaba TVET College,Letaba TVET College - Tzaneen Campus,,Technical and vocational education and training,30.163479,-23.8323108,Letaba College - Tzaneen CLAUDE WHEATLEY STREET TZANEEN 0850,,,,,,,,,,,,,,,,,,,,
Sekhukhune TVET College,Sekhukhune TVET College - Cs Barlow Campus,,Technical and vocational education and training,29.398692,-25.1673707,STAND NO 676 MOTETEMA MOTETEMA 0473,,,,,,,,,,,,,,,,,,,,
Letaba TVET College,Letaba TVET College - Maake Campus,,Technical and vocational education and training,30.163482,-23.832272,Letaba College - Maake MAAKE HEADKRAAL TIKEYLINE 0850,,,,,,,,,,,,,,,,,,,,
Capricorn TVET College,Capricorn TVET College - Senwabarwana Campus,,Technical and vocational education and training,29.1325869,-23.28672,SENWABARWANA MAIN STREET SENWANARWANA SENWABARWANA 0790,,,,,,,,,,,,,,,,,,,,
Letaba TVET College,Letaba TVET College - Modjadji Community Campus,,Technical and vocational education and training,30.162745,-23.835692,1 CLAUDE WHEATLEY STREET TZANEEN  0850,,,,,,,,,,,,,,,,,,,,
Vhembe TVET College,Vhembe TVET College - Thengwe Campus,,Technical and vocational education and training,30.5112239,-22.7499287,TSHANDAMA TSHILAMBA STREET TSHILAMBA VILLAGE  0970,,,,,,,,,,,,,,,,,,,,
Mopani South East TVET College,Mopani South East TVET College - Phalaborwa Campus,,Technical and vocational education and training,31.1417499,-23.9430668,CNR COMBRETUM & HAARLEM STREET PHALABORWA PHALABORWA 1390,,,,,,,,,,,,,,,,,,,,
Capricorn TVET College,Capricorn TVET College - Bokoni Campus,,Technical and vocational education and training,29.392088,-23.841879,R37 BURGERSFORT ROAD MASHISHING ATOK 0747,,,,,,,,,,,,,,,,,,,,
Capricorn TVET College,Capricorn TVET College - Ramokgopa Campus,,Technical and vocational education and training,29.8173116,-23.4676029,Next to Mokomene High Ramakgopa Ramokgopa 0811,,,,,,,,,,,,,,,,,,,,
Vhembe TVET College,Vhembe TVET College - Shingwedzi Campus,,Technical and vocational education and training,30.308833,-23.055242,SHINGWEDZI STREET MALAMULELE  0982,,,,,,,,,,,,,,,,,,,,
Mopani South East TVET College,Mopani South East TVET College - Mapulaneng Campus,,Technical and vocational education and training,31.048923,-24.597258,MAIN ROAD_TO MANYELETI NEXT TO ACORNHOEK POLICE STATION  1360,,,,,,,,,,,,,,,,,,,,
University of South Africa (MP),Middelburg,,University,29.4562,-25.75142,,,,,,,,,,,,,,,,,,,,,
University of South Africa (MP),Nelspruit ,Yes,University,30.97114,-25.4746,,,,,,,,,,,,,,,,,,,,,
University of Mpumalanga,Mbombela Campus,Yes,University,30.9715,-25.4342,,,,,,,,,,,,,,,,,,,,,
University of Mpumalanga,Siyabuswa Campus,,University,29.775,-25.12114,,,,,,,,,,,,,,,,,,,,,
Ehlanzeni TVET College,Ehlanzeni TVET College - Central Office,Yes,Technical and vocational education and training,30.9790551,-25.4730192,29 BELL STREET NELSPRUIT  1200,,,,,,,,,,,,,,,,,,,,
Nkangala TVET College,Nkangala TVET College - Central Office,Yes,Technical and vocational education and training,29.2162836,-25.8776815,Cnr Haig and Northey Street WITBANK WITBANK 1035,,,,,,,,,,,,,,,,,,,,
Gert Sibande TVET College,Gert Sibande TVET College - Central Office,Yes,Technical and vocational education and training,29.2427698,-26.9517504,18 A PIET RETIEF STREET STANDERTON STANDERTON 2430,,,,,,,,,,,,,,,,,,,,
Nkangala TVET College,Nkangala TVET College - Waterval Boven Campus,,Technical and vocational education and training,30.33575,-25.64418,1 PRESIDENT STREET WATERVAL BOVEN WATERVAL BOVEN 1195,,,,,,,,,,,,,,,,,,,,
Gert Sibande TVET College,Gert Sibande TVET College - Sibanesetfu Campus,,Technical and vocational education and training,30.8297947,-26.2432327,COMMUNITY ROAD STAND E1368 GLENMORE DUNDONALD 2336,,,,,,,,,,,,,,,,,,,,
Ehlanzeni TVET College,Ehlanzeni TVET College - Barberton Campus,,Technical and vocational education and training,31.0485257,-25.785445,3074 GENERAL STREET BARBERTON  1300,,,,,,,,,,,,,,,,,,,,
Ehlanzeni TVET College,Ehlanzeni TVET College - Mapulaneng Campus,,Technical and vocational education and training,31.0874925,-24.6056556,MAIN ROAD MANYELETI ACORNHOEK  1360,,,,,,,,,,,,,,,,,,,,
Gert Sibande TVET College,Gert Sibande TVET College - Ermelo Campus,,Technical and vocational education and training,29.98599,-26.5424559,MEL MENTZ STREET ERMELO ERMELO 2350,,,,,,,,,,,,,,,,,,,,
Gert Sibande TVET College,Gert Sibande TVET College - Evander Campus,,Technical and vocational education and training,29.108387,-26.468304,37 ROTTERDAM ROAD EVANDER EVANDER 2280,,,,,,,,,,,,,,,,,,,,
Nkangala TVET College,Nkangala TVET College - Middelburg Campus,,Technical and vocational education and training,29.4739165,-25.7626213,1 BRUG STREET MIDDELBURG MIDDELBURG 1050,,,,,,,,,,,,,,,,,,,,
Ehlanzeni TVET College,Ehlanzeni TVET College - Nelspruit Campus,,Technical and vocational education and training,30.9593854,-25.4736083,CNR KAAPSEHOOP RD & KORAALBOOM AVENUE NELSPRUIT 1200,,,,,,,,,,,,,,,,,,,,
Gert Sibande TVET College,Gert Sibande TVET College - Standerton Campus,,Technical and vocational education and training,29.248637,-26.938514,2 KRUGER STREET STANDERTON STANDERTON 2430,,,,,,,,,,,,,,,,,,,,
Ehlanzeni TVET College,Ehlanzeni TVET College - Mthimba Campus,,Technical and vocational education and training,31.1439303,-25.1309251,NUMBI ROAD HAZYVIEW  1242,,,,,,,,,,,,,,,,,,,,
Nkangala TVET College,Nkangala TVET College - Cn Mahlangu,,Technical and vocational education and training,29.0401738,-25.1164852,TRAINING CENTRE ROAD INDUSTRIAL AREA SIYABUSWA 0472,,,,,,,,,,,,,,,,,,,,
Ehlanzeni TVET College,Ehlanzeni TVET College - Mlumati Campus,,Technical and vocational education and training,31.6907555,-25.6683248,TONGA ROAD KAMHLUSHWA TOWNSHIP MALELANE 1320,,,,,,,,,,,,,,,,,,,,
Ehlanzeni TVET College,Ehlanzeni TVET College - KaNyamazane Campus,,Technical and vocational education and training,31.1080244,-25.2234739,LIGOGOTE ROAD KANYAMAZANE  1214,,,,,,,,,,,,,,,,,,,,
Nkangala TVET College,Nkangala TVET College - Witbank Campus,,Technical and vocational education and training,29.213671,-25.8735748,WITBANK COLLEGE CNR SMUTS AND ARRAS STREET WITBANK 1035,,,,,,,,,,,,,,,,,,,,
Gert Sibande TVET College,Gert Sibande TVET College - Perdekop Campus,,Technical and vocational education and training,29.6076299,-27.15988,KOPPIE ALLEN PLOT NO 40 PERDEKOP 2465,,,,,,,,,,,,,,,,,,,,
Gert Sibande TVET College,Gert Sibande TVET College - Balfour Campus,,Technical and vocational education and training,28.5929094,-26.6661014,110 MINNAAR STREET BALFOUR BALFOUR 2410,,,,,,,,,,,,,,,,,,,,
Nkangala TVET College,Nkangala TVET College - Mpondozankomo Campus,,Technical and vocational education and training,29.1655599,-25.8695305,1 SHONLAND DRIVE FERROBANK WITBANK 1039,,,,,,,,,,,,,,,,,,,,
Gert Sibande TVET College,Gert Sibande TVET College - Secunda Mines,,Technical and vocational education and training,29.108387,-26.468304,37 ROTTERDAM ROAD EVANDER  2280,,,,,,,,,,,,,,,,,,,,
Gert Sibande TVET College,Gert Sibande TVET College - Sasol,,Technical and vocational education and training,29.108387,-26.468304,37 ROTTERDAM ROAD EVANDER  2280,,,,,,,,,,,,,,,,,,,,
University of South Africa (NW),Kimberley,Yes,University,24.75167,-28.73118,,,,,,,,,,,,,,,,,,,,,
"Sol Plaatje University, Northern Cape",CENTRAL OFFICE ,Yes,University,24.75163,-28.73118,,,,,,,,,,,,,,,,,,,,,
"Sol Plaatje University, Northern Cape",DIAMOND LODGE STUDENT RESIDENC,,University,24.75163,-28.73118,,,,,,,,,,,,,,,,,,,,,
"Sol Plaatje University, Northern Cape",MAIN CITY CAMPUS,,University,24.75163,-28.73118,,,,,,,,,,,,,,,,,,,,,
"Sol Plaatje University, Northern Cape",VC HOUSE,,University,24.75163,-28.73118,,,,,,,,,,,,,,,,,,,,,
"Sol Plaatje University, Northern Cape",WHITEWAYS - STUDENT RESIDENCE,,University,24.75163,-28.73118,,,,,,,,,,,,,,,,,,,,,
Northern Cape Urban TVET College,Northern Cape Urban TVET College - Moremogolo Campus,,Technical and vocational education and training,24.7137768,-28.7276324,777 Nobengula Str New Park GALESHEWE VILLAGE Kimberley 8345,,,,,,,,,,,,,,,,,,,,
Northern Cape Rural TVET College,Northern Cape Rural TVET College - De Aar Campus,,Technical and vocational education and training,24.0064961,-30.6635071,Van Riebeeck Street De Aar De Aar 7001,,,,,,,,,,,,,,,,,,,,
Northern Cape Rural TVET College,Northern Cape Rural TVET College - Kathu Campus,,Technical and vocational education and training,23.0598151,-27.6980896,Hans Coetzee Avenue Kathu Kathu 8446,,,,,,,,,,,,,,,,,,,,
Northern Cape Rural TVET College,Northern Cape Rural TVET College - Namaqualand Campus,,Technical and vocational education and training,17.8702347,-29.5838721,112  Main Road Okiep Okiep 8270,,,,,,,,,,,,,,,,,,,,
Northern Cape Urban TVET College,Northern Cape Urban TVET College - City Campus,,Technical and vocational education and training,24.768749,-28.744501,Cullinan Crescent KIMBERLEY  8301,,,,,,,,,,,,,,,,,,,,
Northern Cape Rural TVET College,Northern Cape Rural TVET College - Upington Campus,,Technical and vocational education and training,21.257697,-28.439214,Steve Naude Street Upington Upington 8801,,,,,,,,,,,,,,,,,,,,
Northern Cape Urban TVET College,Northern Cape Urban TVET College - Central Office,Yes,Technical and vocational education and training,24.75628,-28.74452,37 Long Street Kimberley  8301,,,,,,,,,,,,,,,,,,,,
Northern Cape Rural TVET College,Northern Cape Rural TVET College - Central Office,,Technical and vocational education and training,21.23931,-28.45974,16 Weideman Street Upington Upington 8801,,,,,,,,,,,,,,,,,,,,
Northern Cape Rural TVET College,Northern Cape Rural TVET College - Kuruman Campus,,Technical and vocational education and training,23.4418175,-27.4775302,9 Voortrekker Street Kuruman Kuruman 8460,,,,,,,,,,,,,,,,,,,,
Northern Cape Rural TVET College,Northern Cape Rural TVET College - Business Unit Campus,,Technical and vocational education and training,21.24562,-28.45081,6 Morant Street Upington Upington 8801,,,,,,,,,,,,,,,,,,,,
North West University,Institutional Office,Yes,University,27.897,-26.681,,,,,,,,,,,,,,,,,,,,,
North West University,Mafikeng Campus,,University,25.6089,-26.82122,,,,,,,,,,,,,,,,,,,,,
North West University,Potchefstroom Campus,,University,27.81,-26.6872,,,,,,,,,,,,,,,,,,,,,
North West University,Vaal Triangle Campus,,University,27.87126,-26.7286,,,,,,,,,,,,,,,,,,,,,
University of South Africa (NW),Mafikeng,Yes,University,25.63116,-25.85143,,,,,,,,,,,,,,,,,,,,,
University of South Africa (NW),Potchefstroom,,University,27.874,-26.705,,,,,,,,,,,,,,,,,,,,,
University of South Africa (NW),Rustenburg,,University,27.23128,-25.6726,,,,,,,,,,,,,,,,,,,,,
Taletso TVET College,Taletso TVET College  - Central Office,Yes,Technical and vocational education and training,25.616304,-25.828953,DR ALBERT LUTHULI 2766 KGORA BUILDING MAFIKENG 2735,,,,,,,,,,,,,,,,,,,,
Vuselela TVET College,Vuselela TVET College - Central Office,Yes,Technical and vocational education and training,26.668254,-26.866532,08 BRAM FISHER STREET KLERKSDORP  2570,,,,,,,,,,,,,,,,,,,,
Orbit TVET College,Orbit TVET College - Central Office,Yes,Technical and vocational education and training,27.249462,-25.674718,C/O FATIMA BHAYAT & BOSCH STR RUSTENBURG  0300,,,,,,,,,,,,,,,,,,,,
Vuselela TVET College,Vuselela TVET College - Jouberton Campus,,Technical and vocational education and training,26.668252,-26.866377,PO BOX Street City 2574,,,,,,,,,,,,,,,,,,,,
Orbit TVET College,Orbit TVET College - Mankwe Campus,,Technical and vocational education and training,27.19772,-25.296065,STAND 230 UNIT 2 MOGWASE 0314,,,,,,,,,,,,,,,,,,,,
Vuselela TVET College,Vuselela TVET College - Matlosana Campus,,Technical and vocational education and training,0,0,NO 2 SHAFT SIMMER AND JACK MINES STILFONTEIN 2575,,,,,,,,,,,,,,,,,,,,
Orbit TVET College,Orbit TVET College - Brits Campus,,Technical and vocational education and training,27.773422,-25.633822,REITZ STREET NORTH BRITS  0250,,,,,,,,,,,,,,,,,,,,
Vuselela TVET College,Vuselela TVET College - Klerksdorp Campus,,Technical and vocational education and training,26.668272,-26.866416,C/O OR TAMBO & JOHN ORR ST KLERKSDORP OUDORP Klerksdorp 2571,,,,,,,,,,,,,,,,,,,,
Taletso TVET College,Taletso TVET College -Lehurutshe Campus,,Technical and vocational education and training,25.616306,-25.828917,TALETSO COLLEGE BETWEEN FIRE STATION AND HOSPITAL  2880,,,,,,,,,,,,,,,,,,,,
Taletso TVET College,Taletso TVET College - Lichtenburg Campus,,Technical and vocational education and training,26.159,-26.138,NO 1 CARROL STREET LICHTENBURG  2740,,,,,,,,,,,,,,,,,,,,
Taletso TVET College,Taletso TVET College - Mafikeng Campus,,Technical and vocational education and training,25.616287,-25.828892,PRIVATE BAG X128 MMABATHO  2735,,,,,,,,,,,,,,,,,,,,
Vuselela TVET College,Vuselela TVET College - Potchefstroom Campus,,Technical and vocational education and training,27.090185,-26.705925,C/O AURET AND RETIEF STREET POTCHEFSTROOM IKAGENG Potchefstroom 2531,,,,,,,,,,,,,,,,,,,,
Orbit TVET College,Orbit TVET College - Rustenburg Campus,,Technical and vocational education and training,27.249466,-25.67478,C/O FATIMA BHAYAT & BOSCH STREET RUSTENBURG  0299,,,,,,,,,,,,,,,,,,,,
Vuselela TVET College,Vuselela TVET College - Taung Campus,,Technical and vocational education and training,26.668255,-26.86651,MAIN ROAD PUDIMOE Klerksdorp 2570,,,,,,,,,,,,,,,,,,,,
Cape Peninsula University of Technology,ATHLONE CAMPUS,,University,18.5515,-33.973,,,,,,,,,,,,,,,,,,,,,
Cape Peninsula University of Technology,BELLVILLE CAMPUS (MAIN),Yes,University,18.6345,-33.92158,,,,,,,,,,,,,,,,,,,,,
Cape Peninsula University of Technology,CAPE TOWN CAMPUS (MAIN),,University,18.42109,-33.92113,,,,,,,,,,,,,,,,,,,,,
Cape Peninsula University of Technology,GEORGE CAMPUS,,University,22.45157,-33.9593,,,,,,,,,,,,,,,,,,,,,
Cape Peninsula University of Technology,GRANGER BAY CAMPUS ,,University,18.40111,-33.88163,,,,,,,,,,,,,,,,,,,,,
Cape Peninsula University of Technology,GROOTE SCHUUR HOSPITAL,,University,18.45116,-33.9378,,,,,,,,,,,,,,,,,,,,,
Cape Peninsula University of Technology,MOWBRAY CAMPUS ,,University,18.4752,-33.93128,,,,,,,,,,,,,,,,,,,,,
Cape Peninsula University of Technology,TYGERBERG:DENTAL & RADIOGRAPHY,,University,18.60118,-33.90111,,,,,,,,,,,,,,,,,,,,,
Cape Peninsula University of Technology,WELLINGTON CAMPUS,,University,19.046,-33.6354,,,,,,,,,,,,,,,,,,,,,
Cape Peninsula University of Technology,WORCESTER CAMPUS,,University,19.4333,-33.6567,,,,,,,,,,,,,,,,,,,,,
University of Cape Town,Field Stations,,University,18.389,-33.7117,,,,,,,,,,,,,,,,,,,,,
University of Cape Town,Groote Schuur Hospitals,,University,18.45121,-33.9381,,,,,,,,,,,,,,,,,,,,,
University of Cape Town,Health Science Campus,,University,18.45163,-33.9393,,,,,,,,,,,,,,,,,,,,,
University of Cape Town,Hiddingh Campus,,University,18.40139,-33.92132,,,,,,,,,,,,,,,,,,,,,
University of Cape Town,Lower Campus,,University,18.4735,-33.9564,,,,,,,,,,,,,,,,,,,,,
University of Cape Town,Middle Campus,Yes,University,18.473,-33.9575,,,,,,,,,,,,,,,,,,,,,
University of Cape Town,Off Campus,,University,18.4736,-33.93136,,,,,,,,,,,,,,,,,,,,,
University of Cape Town,Off Campus 2,,University,18.4715,-33.9853,,,,,,,,,,,,,,,,,,,,,
University of Cape Town,Red Cross Hospital,,University,18.4847,-33.9542,,,,,,,,,,,,,,,,,,,,,
University of Cape Town,Upper Campus,,University,18.45108,-33.9576,,,,,,,,,,,,,,,,,,,,,
University of South Africa (WC),Cape Town ,Yes,University,18.58111,-33.9069,,,,,,,,,,,,,,,,,,,,,
University of South Africa (WC),George,,University,22.4592,-33.95125,,,,,,,,,,,,,,,,,,,,,
University of Stellenbosch,BELLVILLE PARK,,University,18.62101,-33.8813,,,,,,,,,,,,,,,,,,,,,
University of Stellenbosch,STELLENBOSCH,Yes,University,18.85132,-33.934,,,,,,,,,,,,,,,,,,,,,
University of Stellenbosch,TYGERBERG,,University,18.60124,-33.9076,,,,,,,,,,,,,,,,,,,,,
University of Western Cape,Barrington House,,University,18.4747,-33.9347,,,,,,,,,,,,,,,,,,,,,
University of Western Cape,Caltex/patriciahof residence,,University,18.62107,-33.9064,,,,,,,,,,,,,,,,,,,,,
University of Western Cape,Disahof residence,,University,18.60123,-33.90122,,,,,,,,,,,,,,,,,,,,,
University of Western Cape,Gorvalla Residence,,University,18.60123,-33.9012,,,,,,,,,,,,,,,,,,,,,
University of Western Cape,Hector Petersen Residence,,University,18.62158,-33.9297,,,,,,,,,,,,,,,,,,,,,
University of Western Cape,Jan S Marais Hospital,,University,18.62128,-33.9024,,,,,,,,,,,,,,,,,,,,,
University of Western Cape,Kwikbake Residence,,University,18.62108,-33.9064,,,,,,,,,,,,,,,,,,,,,
University of Western Cape,Lentegeur,,University,18.62109,-34.255,,,,,,,,,,,,,,,,,,,,,
University of Western Cape,Mitchells Plein Dental hospital ,,University,18.6214,-34.56,,,,,,,,,,,,,,,,,,,,,
University of Western Cape,Rector's House,,University,18.9817,-34.32,,,,,,,,,,,,,,,,,,,,,
University of Western Cape,Symphony Way Labs,,University,18.63,-33.93,,,,,,,,,,,,,,,,,,,,,
University of Western Cape,Tygerberg Hospital,,University,18.60124,-33.90122,,,,,,,,,,,,,,,,,,,,,
University of Western Cape,UWC Main Campus,Yes,University,18.63,-33.93,,,,,,,,,,,,,,,,,,,,,
College of Cape Town for TVET,College of Cape Town for TVET - City Campus,,Technical and vocational education and training,18.424102,-33.926323,CNR BUITENKANT AND LONGMARKET STREET CAPE TOWN  8001,,,,,,,,,,,,,,,,,,,,
South Cape TVET College,South Cape TVET College - George Campus,,Technical and vocational education and training,22.462752,-33.961317,46 Hibernia Street George  6530,,,,,,,,,,,,,,,,,,,,
Boland TVET College,Boland TVET College - Strand Campus,,Technical and vocational education and training,18.837227,-34.098428,71 AERODROME ROAD AERODROME WEG 71 STRAND 7140,,,,,,,,,,,,,,,,,,,,
South Cape TVET College,South Cape TVET College - Mossel Bay Campus,,Technical and vocational education and training,22.097565,-34.184818,CNR ESSENHOUT & KREUPELHOUT STREET HEIDERAND  6500,,,,,,,,,,,,,,,,,,,,
South Cape TVET College,South Cape TVET College - Oudtshoorn Campus,,Technical and vocational education and training,22.20817,-33.58638,48 ADDERLEY STREET OUDTSHOORN  6620,,,,,,,,,,,,,,,,,,,,
Boland TVET College,Boland TVET College - Paarl Campus,,Technical and vocational education and training,18.967471,-33.72584,PLEINSTRAAT PAARL PAARL 7646,,,,,,,,,,,,,,,,,,,,
Northlink TVET College,Northlink TVET College - Protea Campus,,Technical and vocational education and training,18.638,-33.901,80 VOORTREKKER ROAD BELLVILLE  7530,,,,,,,,,,,,,,,,,,,,
West Coast TVET College,West Coast TVET College - Vredenburg Campus,,Technical and vocational education and training,17.996002,-32.913622,1 AKADEMIE STREET LOUWVILLE VREDENBURG 7380,,,,,,,,,,,,,,,,,,,,
False Bay TVET College,False Bay TVET College - Muizenberg Campus,,Technical and vocational education and training,18.468618,-34.107586,False Bay TVET College - Muizenberg Campus York Road Muizenberg 7945,,,,,,,,,,,,,,,,,,,,
Boland TVET College,Boland TVET College - Stellenbosch Campus,,Technical and vocational education and training,18.872731,-33.936187,VAN RIEBEECKSTRAAT STELLENBOSCH STELLENBOSCH 7600,,,,,,,,,,,,,,,,,,,,
Northlink TVET College,Northlink TVET College - Bellville Campus,,Technical and vocational education and training,18.588,-33.908,SACKSON STREET BELLVILLE SOUTH  7530,,,,,,,,,,,,,,,,,,,,
Northlink TVET College,Northlink TVET College - Tygerberg Campus,,Technical and vocational education and training,18.576132,-33.874056,ROTHCHILD BOULEVARD PANORAMA  7500,,,,,,,,,,,,,,,,,,,,
West Coast TVET College,West Coast TVET College - Vredendal Campus,,Technical and vocational education and training,18.525838,-31.64526,HOERSKOOLWEG VREDENDAL-NOORD VREDENDAL 8160,,,,,,,,,,,,,,,,,,,,
College of Cape Town for TVET,College of Cape Town for TVET - Pinelands Campus,,Technical and vocational education and training,18.505,-33.924,JAN SMUTS PINELANDS THE FIELDS Pinelands 7405,,,,,,,,,,,,,,,,,,,,
False Bay TVET College,False Bay TVET College - Westlake Campus,,Technical and vocational education and training,18.440128,-34.077876,13 STIBITZ STREET WESTLAKE DRIVE WESTLAKE 7945,,,,,,,,,,,,,,,,,,,,
Northlink TVET College,Northlink TVET College - Wingfield Campus,,Technical and vocational education and training,18.537598,-33.909245,SAS NAVEL BASE VANGUARD DRIVE GOODWOOD 7460,,,,,,,,,,,,,,,,,,,,
Boland TVET College,Boland TVET College - Worcester Campus,,Technical and vocational education and training,19.436867,-33.655758,RAINIERSTRAAT WORCESTER WORCESTER 6850,,,,,,,,,,,,,,,,,,,,
College of Cape Town for TVET,College of Cape Town for TVET - Crawford Campus,,Technical and vocational education and training,18.509877,-33.959645,CNR KROMBOOM AND BELGRAVIA ROAD CRAWFORD CRAWFORD 7760,,,,,,,,,,,,,,,,,,,,
West Coast TVET College,West Coast TVET College - Atlantis (Protea) Campus,,Technical and vocational education and training,18.48525,-33.584878,Gerwyn Owen Street  Atlantis Industry 7349,,,,,,,,,,,,,,,,,,,,
False Bay TVET College,False Bay TVET College - Khayelitsha Campus,,Technical and vocational education and training,18.653,-34.049,False Bay TVET College - Khayelitsha Campus Mew Way Khayelitsha 7783,,,,,,,,,,,,,,,,,,,,
West Coast TVET College,West Coast TVET College - Citrusdal Campus,,Technical and vocational education and training,19.012316,-32.587249,101 KERK STREET CITRUSDAL  7340,,,,,,,,,,,,,,,,,,,,
West Coast TVET College,West Coast TVET College  - Central Office,Yes,Technical and vocational education and training,18.729474,-33.465729,2 LOEDOLF STREET MALMESBURY  7300,,,,,,,,,,,,,,,,,,,,
Boland TVET College,Boland TVET College - Central Office,Yes,Technical and vocational education and training,18.856037,-33.926667,BIRDSTRAAT 85 STELLENBOSCH STELLENBOSCH 7600,,,,,,,,,,,,,,,,,,,,
South Cape TVET College,South Cape TVET College - Central Office,Yes,Technical and vocational education and training,22.465,-33.959,125 MITCHELL STREET GEORGE  6530,,,,,,,,,,,,,,,,,,,,
Northlink TVET College,Northlink TVET College - Central Office,Yes,Technical and vocational education and training,18.636732,-33.90224,80 VOORTREKKER ROAD BELLVILLE  7530,,,,,,,,,,,,,,,,,,,,
College of Cape Town for TVET,College of Cape Town for TVET - Central Office,Yes,Technical and vocational education and training,18.457382,-33.92827,334 ALBERT ROAD SALT RIVER  7925,,,,,,,,,,,,,,,,,,,,
False Bay TVET College,False Bay TVET College - Central Office,Yes,Technical and vocational education and training,18.440113,-34.07797,False Bay TVET College 131 Main Road Muizenberg 7945,,,,,,,,,,,,,,,,,,,,
College of Cape Town for TVET,College of Cape Town for TVET - Guguletu Campus,,Technical and vocational education and training,18.562326,-33.976109,CORNER OF NY1 & NGAMBU STREET GUGULRTU GUGULETU 7751,,,,,,,,,,,,,,,,,,,,
Boland TVET College,Boland TVET College - Caledon Campus,,Technical and vocational education and training,19.446,-34.24,KOALISIE STREET BERGSIG CALEDON 7230,,,,,,,,,,,,,,,,,,,,
South Cape TVET College,South Cape TVET College - Beaufort West Campus,,Technical and vocational education and training,22.574322,-32.364791,CNR DE VRIES & VAN SCHALKWYK STREETS BEAUFORT WEST  6970,,,,,,,,,,,,,,,,,,,,
College of Cape Town for TVET,College of Cape Town for TVET - Thornton Campus,,Technical and vocational education and training,18.532645,-33.925698,CORNER CEDAR AND POPLAR ROAD THORNTON THORNTON 7485,,,,,,,,,,,,,,,,,,,,
College of Cape Town for TVET,College of Cape Town for TVET - Wynberg Campus,,Technical and vocational education and training,18.475,-34.003,BROAD ROAD WYNBERG CLAREMONT Cape Town 7735,,,,,,,,,,,,,,,,,,,,
College of Cape Town for TVET,College of Cape Town for TVET - Gardens Campus,,Technical and vocational education and training,18.415,-33.935,BREDA STREET GARDENS Cape Town  8001,,,,,,,,,,,,,,,,,,,,
College of Cape Town for TVET,College of Cape Town for TVET - Athlone Campus,,Technical and vocational education and training,18.509908,-33.959623,CNR PROTEA AND ELAND STREET ATHLONE  7760,,,,,,,,,,,,,,,,,,,,
South Cape TVET College,South Cape TVET College - Bitou Campus,,Technical and vocational education and training,23.317034,-34.04582,N2 KWANOKUTHULA PLETTENBERG BAY  6600,,,,,,,,,,,,,,,,,,,,
False Bay TVET College,False Bay TVET College - Fish Hoek Campus,,Technical and vocational education and training,18.424378,-34.137565,False Bay TVET College - Fish Hoek Campus Corner 7th Avenue & Kommetjie Road Fish Hoek 7975,,,,,,,,,,,,,,,,,,,,
South Cape TVET College,South Cape TVET College - Hessequa Campus,,Technical and vocational education and training,21.25675,-34.100496,VARKEVISSER STREET RIVERSDAL  6670,,,,,,,,,,,,,,,,,,,,
Northlink TVET College,Northlink TVET College - Belhar Campus,,Technical and vocational education and training,18.635272,-33.937336,PROTON ROAD BELHAR  7493,,,,,,,,,,,,,,,,,,,,
Northlink TVET College,Northlink TVET College - Goodwood Campus,,Technical and vocational education and training,18.63525,-33.937342,C/O DIRKIE UYS & MERRIMAN STREET GOODWOOD  7460,,,,,,,,,,,,,,,,,,,,
Boland TVET College,Boland TVET College - Kleinmond Campus,,Technical and vocational education and training,19.019,-34.339,MTHIMKHULU MAIN RD KLEINMOND 7195,,,,,,,,,,,,,,,,,,,,
False Bay TVET College,False Bay TVET College - Mitchells Plain Campus,,Technical and vocational education and training,18.617,-34.054,False Bay TVET College - Mitchell's Plain Campus Spine Road Rocklands 7785,,,,,,,,,,,,,,,,,,,,
West Coast TVET College,West Coast TVET College - Atlantis Campus,,Technical and vocational education and training,18.485224,-33.584897,CNR CHARL UYS DRIVE & NIEL HARE STREET ATLANTIS INDUSTRIA ATLANTIS 7349,,,,,,,,,,,,,,,,,,,,
False Bay TVET College,False Bay TVET College - Pollsmoor Correctional Services Campus,,Technical and vocational education and training,18.433,-34.068,POLLSMOOR CORRECTIONAL CENTRE STEENBERG ROAD  7966,,,,,,,,,,,,,,,,,,,,
Northlink TVET College,Northlink TVET College - Parow Campus,,Technical and vocational education and training,18.585,-33.911,CONNAUGHT ROAD PAROW VALLEY  7503,,,,,,,,,,,,,,,,,,,,
West Coast TVET College,West Coast TVET College - Malmesbury Campus,,Technical and vocational education and training,18.729,-33.465,6 CHURCH STREET MALMESBURY  7300,,,,,,,,,,,,,,,,,,,,
South Cape TVET College,South Cape TVET College - Outeniqua Campus,,Technical and vocational education and training,22.489,-33.996,540 Ntaka Street  Thembalethu 6529,,,,,,,,,,,,,,,,,,,,
