Facility Name,Longitude,Latitude,Organization Unit Rural_Urban_Semi,Organization Unit Type,Physical Address,Oral Pills (contraception),Injectables,IUDs (contraception),Implants (contraception),Female Sterilization (contraception),Male Sterilization (contraception),Male Medical Circumcision (MMC),TB,Maternal Health,Mental Health,Child Health,Oral health services,Rehabilitation Services,Minor Ailments,Sexually Transmitted Infections Screenings,HIV Testing,HIV Treatment (ART),Oral PrEP,Termination of Pregnancy - 1st Trimester,Termination of Pregnancy - 2nd Trimester
Clicks Beacon Bay Pharm,27.931326,-32.955331,Urban,Pharmacy,,,,,,,,,,,,,,,,,,,,,
Clicks Gonubie Pharm,27.994429,-32.936298,Urban,Pharmacy,,,,,,,,,,,,,,,,,,,,,
Clicks Hemingways Pharm,27.897623,-32.970537,Urban,Pharmacy,,,,,,,,,,,,,,,,,,,,,
Clicks KWT Pharm,27.38554,-32.873135,Urban,Pharmacy,,,,,,,,,,,,,,,,,,,,,
Clicks Oxford Str Pharm,27.904808,-33.017151,Urban,Pharmacy,,,,,,,,,,,,,,,,,,,,,
Clicks Vincent Park Pharm,27.90379,-32.9837,Urban,Pharmacy/Clinic,,,,,,,,,,,,,,,,,,,,,
Clicks Nonesi Mall Pharm,26.871993,-31.900675,Urban,Pharmacy,,,,,,,,,,,,,,,,,,,,,
Clicks Despatch Pharm,25.47058,-33.80007,Urban,Pharmacy,,,,,,,,,,,,,,,,,,,,,
Clicks Penford Pharm,25.407683,-33.75933,Urban,Pharmacy/Clinic,,,,,,,,,,,,,,,,,,,,,
Clicks Uitenhage Pharm,25.398165,-33.767246,Urban,Pharmacy/Clinic,,,,,,,,,,,,,,,,,,,,,
Clicks Cleary Park Pharm,25.528506,-33.894462,Urban,Pharmacy/Clinic,,,,,,,,,,,,,,,,,,,,,
Clicks Greenacres Pharm,25.577649,-33.948682,Urban,Pharmacy,,,,,,,,,,,,,,,,,,,,,
Clicks Humewood Pharm,25.63219,-33.971147,Urban,Pharmacy,,,,,,,,,,,,,,,,,,,,,
Clicks Moffet Ret Pharm,25.554574,-33.955474,Urban,Pharmacy,,,,,,,,,,,,,,,,,,,,,
Clicks New Brighton Pharm,25.562972,-33.88502,Urban,Pharmacy,,,,,,,,,,,,,,,,,,,,,
Clicks Sunridge Pharm,25.52668,-33.951723,Urban,Pharmacy,,,,,,,,,,,,,,,,,,,,,
Clicks Walker Drive Pharm,25.502305,-33.958546,Urban,Pharmacy,,,,,,,,,,,,,,,,,,,,,
Clicks Walmer Pharm,25.59667,-33.97955,Urban,Pharmacy,,,,,,,,,,,,,,,,,,,,,
Clicks Mthatha Plaza Phar,28.78755,-31.594288,Urban,Pharmacy,,,,,,,,,,,,,,,,,,,,,
Clicks Gr Reinet Pharm,22.937506,-30.559482,Urban,Pharmacy,,,,,,,,,,,,,,,,,,,,,
Clicks Fountains Pharm,24.897359,-34.031666,Urban,Pharmacy,,,,,,,,,,,,,,,,,,,,,
Clicks Grahamstown Pharm,26.527781,-33.309903,Urban,Pharmacy/Clinic,,,,,,,,,,,,,,,,,,,,,
Clicks Port Alfred Pharm,26.861255,-33.600555,Peri-Urban,Pharmacy,,,,,,,,,,,,,,,,,,,,,
Clicks Sasolburg Pharm,27.825999,-26.818839,Urban,Pharmacy,,,,,,,,,,,,,,,,,,,,,
Clicks Kroonstad Pharm,27.23312,-27.6632,Urban,Pharmacy,,,,,,,,,,,,,,,,,,,,,
Clicks N Kroonstad Pharm,27.23312,-27.6632,Urban,Pharmacy,,,,,,,,,,,,,,,,,,,,,
Clicks Goldfields Pharm,26.73586,-27.976833,Urban,Pharmacy/Clinic,,,,,,,,,,,,,,,,,,,,,
Clicks Liberty Cnt Pharm,30.378082,-29.582634,Urban,Pharmacy/Clinic,,,,,,,,,,,,,,,,,,,,,
Clicks Bayswater Pharm,26.229231,-29.089109,Urban,Pharmacy/Clinic,,,,,,,,,,,,,,,,,,,,,
Clicks Blm Fleur Pharm,26.191248,-29.157737,Urban,Pharmacy,,,,,,,,,,,,,,,,,,,,,
Clicks Bloemfontein Pharm,26.229231,-29.089109,Urban,Pharmacy,,,,,,,,,,,,,,,,,,,,,
Clicks Dihlabeng Pharm,26.22492,-29.118349,Urban,Pharmacy,,,,,,,,,,,,,,,,,,,,,
Clicks Dynarc Walk Pharm,26.16601,-29.09424,Urban,Pharmacy/Clinic,,,,,,,,,,,,,,,,,,,,,
Clicks Fichardt Prk Pharm,26.17959,-29.14441,Urban,Pharmacy/Clinic,,,,,,,,,,,,,,,,,,,,,
Clicks Loch Logan Pharm,26.210723,-29.11314,Urban,Pharmacy/Clinic,,,,,,,,,,,,,,,,,,,,,
Clicks Mimosa Mall Pharm,26.2014,-29.108919,Urban,Pharmacy/Clinic,,,,,,,,,,,,,,,,,,,,,
Clicks Bethlehem Pharm,28.318281,-28.231803,Urban,Pharmacy/Clinic,,,,,,,,,,,,,,,,,,,,,
Clicks Harrismith Pharm,29.12607,-28.27045,Urban,Pharmacy,,,,,,,,,,,,,,,,,,,,,
Clicks Carnival Pharm,28.317029,-26.251059,Urban,Pharmacy/Clinic,,,,,,,,,,,,,,,,,,,,,
Clicks Tsakane Pharm,28.371729,-26.353166,Urban,Pharmacy,,,,,,,,,,,,,,,,,,,,,
Clicks Selcourt Pharm,28.453155,-26.292603,Urban,Pharmacy/Clinic,,,,,,,,,,,,,,,,,,,,,
Clicks Springs Pharm,28.429011,-26.243004,Urban,Pharmacy/Clinic,,,,,,,,,,,,,,,,,,,,,
Clicks The Angelo Pharm,28.457718,-26.422576,Urban,Pharmacy,,,,,,,,,,,,,,,,,,,,,
Clicks Birch Acres Pharm,28.192758,-26.038828,Urban,Pharmacy,,,,,,,,,,,,,,,,,,,,,
Clicks Birchleigh N Pharm,28.228626,-26.069158,Urban,Pharmacy,,,,,,,,,,,,,,,,,,,,,
Clicks Cavendish Pharm,18.464779,-33.980156,Urban,Pharmacy,,,,,,,,,,,,,,,,,,,,,
Clicks Festival Pharm,28.223466,-26.105573,Urban,Pharmacy,,,,,,,,,,,,,,,,,,,,,
Clicks Norkem Mall Pharm,28.2199,-26.06312,Urban,Pharmacy/Clinic,,,,,,,,,,,,,,,,,,,,,
Clicks Woodbridge Pharm,28.246765,-26.079838,Urban,Pharmacy/Clinic,,,,,,,,,,,,,,,,,,,,,
Clicks Atlasville Pharm,28.282117,-26.158848,Urban,Pharmacy,,,,,,,,,,,,,,,,,,,,,
Clicks Bedfordview Pharm,28.118207,-26.180154,Urban,Pharmacy,,,,,,,,,,,,,,,,,,,,,
Clicks Benoni Lake Pharm,28.315054,-26.184916,Urban,Pharmacy/Clinic,,,,,,,,,,,,,,,,,,,,,
Clicks Eastgate Pharm,28.118207,-26.180154,Urban,Pharmacy/Clinic,,,,,,,,,,,,,,,,,,,,,
Clicks Eastrand Pharm,28.24033,-26.181204,Urban,Pharmacy,,,,,,,,,,,,,,,,,,,,,
Clicks Edenmeadow Pharm,28.138849,-26.12079,Urban,Pharmacy/Clinic,,,,,,,,,,,,,,,,,,,,,
Clicks Farrarmere Pharm,28.296322,-26.161866,Urban,Pharmacy,,,,,,,,,,,,,,,,,,,,,
Clicks Greenstone Pharm,28.140572,-26.119572,Urban,Pharmacy,,,,,,,,,,,,,,,,,,,,,
Clicks Northmead Sq Pharm,28.32259,-26.16283,Urban,Pharmacy,,,,,,,,,,,,,,,,,,,,,
Clicks Parkrand Pharm,28.278965,-26.246103,Urban,Pharmacy,,,,,,,,,,,,,,,,,,,,,
Clicks Village View Pharm,28.136072,-26.184442,Urban,Pharmacy/Clinic,,,,,,,,,,,,,,,,,,,,,
Clicks Alberton Pharm,28.122508,-26.26409,Urban,Pharmacy/Clinic,,,,,,,,,,,,,,,,,,,,,
Clicks Brackenhurst Pharm,28.107986,-26.309496,Urban,Pharmacy,,,,,,,,,,,,,,,,,,,,,
Clicks Chris Hani Pharm,28.181692,-26.345492,Urban,Pharmacy,,,,,,,,,,,,,,,,,,,,,
Clicks Elspark Pharm,28.225372,-26.26839,Urban,Pharmacy,,,,,,,,,,,,,,,,,,,,,
Clicks Lambton Pharm,28.180248,-26.248139,Urban,Pharmacy/Clinic,,,,,,,,,,,,,,,,,,,,,
Clicks Lemon Tree Pharm,28.124371,-26.280631,Urban,Pharmacy,,,,,,,,,,,,,,,,,,,,,
Clicks Meyersdal Pharm,28.091699,-26.290877,Urban,Pharmacy,,,,,,,,,,,,,,,,,,,,,
Clicks Rand City Pharm,28.142928,-26.27492,Urban,Pharmacy,,,,,,,,,,,,,,,,,,,,,
Clicks Broadacres Pharm,27.982826,-26.001355,Urban,Pharmacy/Clinic,,,,,,,,,,,,,,,,,,,,,
Clicks Cedar Road Pharm,27.999527,-26.016767,Urban,Pharmacy,,,,,,,,,,,,,,,,,,,,,
Clicks Lonehill Pharm,28.010816,-26.017821,Urban,Pharmacy,,,,,,,,,,,,,,,,,,,,,
Clicks Midrand Pharm,28.126857,-25.996804,Urban,Pharmacy,,,,,,,,,,,,,,,,,,,,,
Clicks Midway Mews Pharm,28.112954,-25.987631,Urban,Pharmacy,,,,,,,,,,,,,,,,,,,,,
Clicks Sanridge Sq Pharm,28.117922,-25.977225,Urban,Pharmacy/Clinic,,,,,,,,,,,,,,,,,,,,,
Clicks Sunninghill Pharm,28.06116,-26.03736,Urban,Pharmacy/Clinic,,,,,,,,,,,,,,,,,,,,,
Clicks Appleton's Pharm,27.985099,-26.094231,Urban,Pharmacy,,,,,,,,,,,,,,,,,,,,,
Clicks Bright Water Pharm,27.990149,-26.101861,Urban,Pharmacy/Clinic,,,,,,,,,,,,,,,,,,,,,
Clicks Campus Sq Pharm,28.004728,-26.181984,Urban,Pharmacy,,,,,,,,,,,,,,,,,,,,,
Clicks Cresta Ctr Pharm,27.974283,-26.130414,Urban,Pharmacy/Clinic,,,,,,,,,,,,,,,,,,,,,
Clicks Fourways Gardens P,28.007269,-26.019128,Urban,Pharmacy,,,,,,,,,,,,,,,,,,,,,
Clicks Heathway Sq Pharm,27.967323,-26.127774,Urban,Pharmacy,,,,,,,,,,,,,,,,,,,,,
Clicks Hyde Park Pharm,28.033295,-26.125403,Urban,Pharmacy,,,,,,,,,,,,,,,,,,,,,
Clicks Rosebank Mew Pharm,28.041668,-26.146436,Urban,Pharmacy/Clinic,,,,,,,,,,,,,,,,,,,,,
Clicks Rosebank Pharm,28.040078,-26.146848,Urban,Pharmacy/Clinic,,,,,,,,,,,,,,,,,,,,,
Clicks Valley Ctr Pharm,28.02248,-26.11505,Urban,Pharmacy,,,,,,,,,,,,,,,,,,,,,
Clicks Bel Air Mall Pharm,27.956916,-26.060795,Urban,Pharmacy,,,,,,,,,,,,,,,,,,,,,
Clicks Clear Water Pharm,27.90435,-26.12684,Urban,Pharmacy/Clinic,,,,,,,,,,,,,,,,,,,,,
Clicks Featherbrook Pharm,27.871727,-26.091339,Urban,Pharmacy/Clinic,,,,,,,,,,,,,,,,,,,,,
Clicks Flora Centre Pharm,27.92725,-26.1671,Urban,Pharmacy,,,,,,,,,,,,,,,,,,,,,
Clicks Honey Crest Pharm,27.940866,-26.093859,Urban,Pharmacy,,,,,,,,,,,,,,,,,,,,,
Clicks Northgate Pharm,27.947096,-26.060077,Urban,Pharmacy/Clinic,,,,,,,,,,,,,,,,,,,,,
Clicks Olivedale Pharm,27.971997,-26.05389,Urban,Pharmacy,,,,,,,,,,,,,,,,,,,,,
Clicks Town Square Pharm,27.918969,-26.13687,Urban,Pharmacy/Clinic,,,,,,,,,,,,,,,,,,,,,
Clicks Village Hor Pharm,18.484248,-33.804623,Urban,Pharmacy,,,,,,,,,,,,,,,,,,,,,
Clicks Diepkloof Pharm,27.94954,-26.24238,Urban,Pharmacy,,,,,,,,,,,,,,,,,,,,,
Clicks Jabulani Pharm,27.858916,-26.250289,Urban,Pharmacy/Clinic,,,,,,,,,,,,,,,,,,,,,
Clicks Maponya Mall Pharm,27.901292,-26.259209,Urban,Pharmacy/Clinic,,,,,,,,,,,,,,,,,,,,,
Clicks Protea Glen Pharm,27.810966,-26.270575,Urban,Pharmacy,,,,,,,,,,,,,,,,,,,,,
Clicks Balfour Park Pharm,28.08742,-26.13613,Urban,Pharmacy/Clinic,,,,,,,,,,,,,,,,,,,,,
Clicks Bryanston Pharm,28.028066,-26.075253,Urban,Pharmacy,,,,,,,,,,,,,,,,,,,,,
Clicks Fourways Cross Pha,28.010816,-26.017821,Urban,Pharmacy,,,,,,,,,,,,,,,,,,,,,
Clicks Killarney Pharm,28.053705,-26.166003,Urban,Pharmacy/Clinic,,,,,,,,,,,,,,,,,,,,,
Clicks Melrose Arch Pharm,28.068912,-26.131605,Urban,Pharmacy/Clinic,,,,,,,,,,,,,,,,,,,,,
Clicks Norwood Mall Pharm,28.080017,-26.148356,Urban,Pharmacy,,,,,,,,,,,,,,,,,,,,,
Clicks Rivonia JHB Pharm,28.061074,-26.058906,Urban,Pharmacy,,,,,,,,,,,,,,,,,,,,,
Clicks Sandton City Pharm,28.051924,-26.107864,Urban,Pharmacy/Clinic,,,,,,,,,,,,,,,,,,,,,
Clicks Carlton Ctr Pharm,28.0467,-26.2056,Urban,Pharmacy/Clinic,,,,,,,,,,,,,,,,,,,,,
Clicks Columbine Sq Pharm,28.029767,-26.27295,Urban,Pharmacy/Clinic,,,,,,,,,,,,,,,,,,,,,
Clicks Comaro View Pharm,28.067076,-26.278813,Urban,Pharmacy,,,,,,,,,,,,,,,,,,,,,
Clicks Glenvista Pharm,28.053624,-26.286631,Urban,Pharmacy,,,,,,,,,,,,,,,,,,,,,
Clicks Southdale Pharm,28.02319,-26.2418,Urban,Pharmacy,,,,,,,,,,,,,,,,,,,,,
Clicks Southgate Pharm,27.982064,-26.266527,Urban,Pharmacy/Clinic,,,,,,,,,,,,,,,,,,,,,
Clicks The Glen Pharm,28.051979,-26.268759,Urban,Pharmacy/Clinic,,,,,,,,,,,,,,,,,,,,,
Clicks Protea Gard Pharm,27.84722,-26.286269,Urban,Pharmacy,,,,,,,,,,,,,,,,,,,,,
Clicks Trade Route Pharm,27.869549,-26.326702,Urban,Pharmacy/Clinic,,,,,,,,,,,,,,,,,,,,,
Clicks River Square Pharm,27.97153,-26.66201,Urban,Pharmacy,,,,,,,,,,,,,,,,,,,,,
Clicks Riverside B Pharm,27.838205,-26.734119,Urban,Pharmacy,,,,,,,,,,,,,,,,,,,,,
Clicks Vaal Mall Pharm,27.82526,-26.70898,Urban,Pharmacy,,,,,,,,,,,,,,,,,,,,,
Clicks Vanderbijl Pharm,27.838205,-26.734119,Urban,Pharmacy,,,,,,,,,,,,,,,,,,,,,
Clicks Meyerton Pharm,28.018461,-26.560276,Urban,Pharmacy,,,,,,,,,,,,,,,,,,,,,
Clicks Mabopane Pharm,28.085423,-25.494959,Urban,Pharmacy,,,,,,,,,,,,,,,,,,,,,
Clicks Northpark Pharm,28.171591,-25.677101,Urban,Pharmacy,,,,,,,,,,,,,,,,,,,,,
Clicks Wonderpark Pharm,28.110383,-25.673661,Urban,Pharmacy/Clinic,,,,,,,,,,,,,,,,,,,,,
Clicks Jubilee Mall Pharm,28.267365,-25.406354,Urban,Pharmacy,,,,,,,,,,,,,,,,,,,,,
Clicks Kolonnade Pharm,28.250861,-25.67996,Urban,Pharmacy/Clinic,,,,,,,,,,,,,,,,,,,,,
Clicks Montana Cros Pharm,28.241146,-25.677659,Urban,Pharmacy,,,,,,,,,,,,,,,,,,,,,
Clicks Wonderboom J Pharm,28.19274,-25.666453,Urban,Pharmacy,,,,,,,,,,,,,,,,,,,,,
Clicks Brooklyn Pharm,28.235051,-25.772003,Urban,Pharmacy/Clinic,,,,,,,,,,,,,,,,,,,,,
Clicks Fedlife Pharm,0,0,Urban,Pharmacy,,,,,,,,,,,,,,,,,,,,,
Clicks Gezina Gall Pharm,28.20736,-25.71921,Urban,Pharmacy/Clinic,,,,,,,,,,,,,,,,,,,,,
Clicks Hatfield Pl Pharm,28.237173,-25.749611,Urban,Pharmacy,,,,,,,,,,,,,,,,,,,,,
Clicks Jacaranda Pharm,28.218938,-25.717746,Urban,Pharmacy,,,,,,,,,,,,,,,,,,,,,
Clicks Mayville Pharm,28.182743,-25.699743,Urban,Pharmacy,,,,,,,,,,,,,,,,,,,,,
Clicks Northvaal Pharm,28.18956,-25.745017,Urban,Pharmacy/Clinic,,,,,,,,,,,,,,,,,,,,,
Clicks Quagga Ctr Pharm,28.147871,-25.747904,Urban,Pharmacy,,,,,,,,,,,,,,,,,,,,,
Clicks Sunnyside Pharm,28.203181,-25.751137,Urban,Pharmacy,,,,,,,,,,,,,,,,,,,,,
Clicks Waverley Pl Pharm,28.240414,-25.703423,Urban,Pharmacy/Clinic,,,,,,,,,,,,,,,,,,,,,
Clicks Centurion L Pharm,28.186846,-25.857608,Urban,Pharmacy,,,,,,,,,,,,,,,,,,,,,
Clicks Centurion Pharm,28.186846,-25.857608,Urban,Pharmacy/Clinic,,,,,,,,,,,,,,,,,,,,,
Clicks Cornwall V Pharm,28.252507,-25.836869,Urban,Pharmacy/Clinic,,,,,,,,,,,,,,,,,,,,,
Clicks Eco Bld Pharm,28.175033,-25.876611,Urban,Pharmacy,,,,,,,,,,,,,,,,,,,,,
Clicks Eldo Square Pharm,28.140084,-25.836056,Urban,Pharmacy,,,,,,,,,,,,,,,,,,,,,
Clicks Forest Hill Pharm,28.096551,-25.89272,Urban,Pharmacy,,,,,,,,,,,,,,,,,,,,,
Clicks Lyttleton Pharm,28.192019,-25.837293,Urban,Pharmacy,,,,,,,,,,,,,,,,,,,,,
Clicks Mall at Reds Pharm,28.136558,-25.871343,Urban,Pharmacy/Clinic,,,,,,,,,,,,,,,,,,,,,
Clicks South Downs Pharm,28.204093,-25.884745,Urban,Pharmacy,,,,,,,,,,,,,,,,,,,,,
Clicks Atterbury Pharm,28.308131,-25.78886,Urban,Pharmacy/Clinic,,,,,,,,,,,,,,,,,,,,,
Clicks Lynridge Pharm,28.298041,-25.765797,Urban,Pharmacy,,,,,,,,,,,,,,,,,,,,,
Clicks Menlyn Ph Pharm,28.275212,-25.783534,Urban,Pharmacy,,,,,,,,,,,,,,,,,,,,,
Clicks Menlyn Ret Pharm,28.276229,-25.78182,Urban,Pharmacy/Clinic,,,,,,,,,,,,,,,,,,,,,
Clicks Silver Oaks Pharm,28.359651,-25.765915,Urban,Pharmacy,,,,,,,,,,,,,,,,,,,,,
Clicks Silverwater Pharm,28.312416,-25.735256,Urban,Pharmacy,,,,,,,,,,,,,,,,,,,,,
Clicks The Grove Pharm,28.324028,-25.766159,Urban,Pharmacy/Clinic,,,,,,,,,,,,,,,,,,,,,
Clicks Village More Pharm,18.484248,-33.804623,Urban,Pharmacy,,,,,,,,,,,,,,,,,,,,,
Clicks Watermeyer Pharm,28.294041,-25.744241,Urban,Pharmacy/Clinic,,,,,,,,,,,,,,,,,,,,,
Clicks Woodhill Pharm,28.312143,-25.822585,Urban,Pharmacy/Clinic,,,,,,,,,,,,,,,,,,,,,
Clicks Bronkhorstspruit Pharm,28.746186,-25.805813,Urban,Pharmacy,,,,,,,,,,,,,,,,,,,,,
Clicks Carletonvill Pharm,27.397893,-26.358281,Urban,Pharmacy,,,,,,,,,,,,,,,,,,,,,
Clicks Fochville Pharm,27.494514,-26.492046,Urban,Pharmacy,,,,,,,,,,,,,,,,,,,,,
Clicks Cradlestone Pharm,27.837724,-26.060235,Peri-Urban,Pharmacy,,,,,,,,,,,,,,,,,,,,,
Clicks Key West Pharm,27.783177,-26.087936,Urban,Pharmacy/Clinic,,,,,,,,,,,,,,,,,,,,,
Clicks Randfontein Pharm,27.70423,-26.17763,Urban,Pharmacy/Clinic,,,,,,,,,,,,,,,,,,,,,
Clicks Amajuba Mall Pharm,30.832294,-29.792141,Urban,Pharmacy/Clinic,,,,,,,,,,,,,,,,,,,,,
Clicks Newcastle Pharm,31.064561,-29.753497,Urban,Pharmacy,,,,,,,,,,,,,,,,,,,,,
Clicks Bluff Pharm,30.999047,-29.848664,Urban,Pharmacy/Clinic,,,,,,,,,,,,,,,,,,,,,
Clicks Bridge City Pharm,30.934999,-29.849288,Urban,Pharmacy,,,,,,,,,,,,,,,,,,,,,
Clicks Chatsworth Pharm,30.858278,-29.811601,Urban,Pharmacy,,,,,,,,,,,,,,,,,,,,,
Clicks Galleria Pharm,31.061181,-29.723634,Peri-Urban,Pharmacy,,,,,,,,,,,,,,,,,,,,,
Clicks Game City Pharm,30.918142,-29.835419,Urban,Pharmacy,,,,,,,,,,,,,,,,,,,,,
Clicks Gateway Pharm,31.019654,-29.832327,Urban,Pharmacy/Clinic,,,,,,,,,,,,,,,,,,,,,
Clicks Kensington S Pharm,31.025307,-29.855854,Urban,Pharmacy,,,,,,,,,,,,,,,,,,,,,
Clicks Kloof Pharm,31.227893,-29.481355,Urban,Pharmacy,,,,,,,,,,,,,,,,,,,,,
Clicks La Lucia Pharm,30.361473,-30.863634,Urban,Pharmacy/Clinic,,,,,,,,,,,,,,,,,,,,,
Clicks Lillies Qrt Pharm,30.405983,-30.797021,Peri-Urban,Pharmacy,,,,,,,,,,,,,,,,,,,,,
Clicks Montclair Pharm,30.378082,-29.582634,Urban,Pharmacy,,,,,,,,,,,,,,,,,,,,,
Clicks Musgrave Pharm,24.806709,-27.753773,Urban,Pharmacy/Clinic,,,,,,,,,,,,,,,,,,,,,
Clicks Pavilion Pharm,24.763782,-28.766702,Urban,Pharmacy/Clinic,,,,,,,,,,,,,,,,,,,,,
Clicks Phoenix Pharm,24.76338,-28.74368,Urban,Pharmacy,,,,,,,,,,,,,,,,,,,,,
Clicks Pinetown Pharm,24.759269,-28.758164,Urban,Pharmacy/Clinic,,,,,,,,,,,,,,,,,,,,,
Clicks Queensburgh Pharm,23.034089,-27.699958,Urban,Pharmacy,,,,,,,,,,,,,,,,,,,,,
Clicks Reservoir Pharm,21.256782,-28.44478,Urban,Pharmacy,,,,,,,,,,,,,,,,,,,,,
Clicks Southway Pharm,21.247666,-28.457074,Urban,Pharmacy/Clinic,,,,,,,,,,,,,,,,,,,,,
Clicks The Crescent Pharm,18.862575,-34.073972,Urban,Pharmacy,,,,,,,,,,,,,,,,,,,,,
Clicks Village Mark Pharm,18.567138,-33.985482,Urban,Pharmacy,,,,,,,,,,,,,,,,,,,,,
Clicks Westguard Pharm,18.5107,-33.933216,Urban,Pharmacy,,,,,,,,,,,,,,,,,,,,,
Clicks Westville Pharm,18.484248,-33.804623,Urban,Pharmacy/Clinic,,,,,,,,,,,,,,,,,,,,,
Clicks Westwood Pharm,17.986598,-32.921537,Urban,Pharmacy,,,,,,,,,,,,,,,,,,,,,
Clicks Windermere Pharm,19.434495,-33.632697,Urban,Pharmacy/Clinic,,,,,,,,,,,,,,,,,,,,,
Clicks Workshop Pharm,18.860161,-33.935853,Urban,Pharmacy,,,,,,,,,,,,,,,,,,,,,
Clicks Kokstad Pharm,23.371796,-34.055947,Urban,Pharmacy,,,,,,,,,,,,,,,,,,,,,
Clicks Ballito Life Pharm,22.504888,-33.985835,Urban,Pharmacy,,,,,,,,,,,,,,,,,,,,,
Clicks Stanger Pharm,22.457014,-33.960724,Urban,Pharmacy,,,,,,,,,,,,,,,,,,,,,
Clicks Umhlali Pharm,23.048718,-34.036202,Urban,Pharmacy,,,,,,,,,,,,,,,,,,,,,
Clicks Hibiscus Pharm,22.103983,-34.148059,Urban,Pharmacy/Clinic,,,,,,,,,,,,,,,,,,,,,
Clicks Shelly Beach Pharm,22.115842,-34.185412,Urban,Pharmacy,,,,,,,,,,,,,,,,,,,,,
Clicks Southcoast Pharm,22.204782,-33.590292,Urban,Pharmacy,,,,,,,,,,,,,,,,,,,,,
Clicks Scottburgh Pharm,19.238547,-34.420138,Peri-Urban,Pharmacy,,,,,,,,,,,,,,,,,,,,,
Clicks Cascades Pharm,23.369316,-34.042526,Urban,Pharmacy,,,,,,,,,,,,,,,,,,,,,
Clicks Hayfields Pharm,28.02355,-32.940718,Urban,Pharmacy/Clinic,,,,,,,,,,,,,,,,,,,,,
Clicks Liberty Mall Pharm,28.155024,-25.754887,Urban,Pharmacy/Clinic,,,,,,,,,,,,,,,,,,,,,
Clicks Nedbank Pl Pharm,28.44709,-26.30376,Urban,Pharmacy,,,,,,,,,,,,,,,,,,,,,
Clicks Pmb Pharm,27.855269,-26.723829,Urban,Pharmacy,,,,,,,,,,,,,,,,,,,,,
Clicks Victoria Rd Pharm,30.370282,-29.59677,Urban,Pharmacy/Clinic,,,,,,,,,,,,,,,,,,,,,
Clicks Howick Pharm,31.061128,-29.763139,Urban,Pharmacy,,,,,,,,,,,,,,,,,,,,,
Clicks Ladysmith Pharm,28.81179,-30.34502,Urban,Pharmacy/Clinic,,,,,,,,,,,,,,,,,,,,,
Clicks Empangeni Pharm,29.34996,-28.72772,Urban,Pharmacy,,,,,,,,,,,,,,,,,,,,,
Clicks Merensee Pharm,31.039237,-29.78454,Urban,Pharmacy/Clinic,,,,,,,,,,,,,,,,,,,,,
Clicks Richards Bay Pharm,31.003572,-29.684302,Urban,Pharmacy/Clinic,,,,,,,,,,,,,,,,,,,,,
Clicks Vryheid Pharm,30.793009,-27.766875,Urban,Pharmacy,,,,,,,,,,,,,,,,,,,,,
Clicks Cycad Pharm,0,0,Urban,Pharmacy/Clinic,,,,,,,,,,,,,,,,,,,,,
Clicks Mall North Pharm,0,0,Urban,Pharmacy/Clinic,,,,,,,,,,,,,,,,,,,,,
Clicks Pietersburg Pharm,0,0,Urban,Pharmacy/Clinic,,,,,,,,,,,,,,,,,,,,,
Clicks Polokwane 2 Pharm,0,0,Urban,Pharmacy/Clinic,,,,,,,,,,,,,,,,,,,,,
Clicks Savannah Pharm,0,0,Urban,Pharmacy,,,,,,,,,,,,,,,,,,,,,
Clicks Thornhill Pharm,0,0,Urban,Pharmacy,,,,,,,,,,,,,,,,,,,,,
Clicks Phalaborwa Pharm,0,0,Urban,Pharmacy,,,,,,,,,,,,,,,,,,,,,
Clicks Tzaneen Pharm,0,0,Urban,Pharmacy,,,,,,,,,,,,,,,,,,,,,
Clicks Tubatse Cros Pharm,28.320045,-25.768334,Rural,Pharmacy,,,,,,,,,,,,,,,,,,,,,
Clicks Makhado Pharm,0,0,Peri-Urban,Pharmacy,,,,,,,,,,,,,,,,,,,,,
Clicks Ellisras Pharm,0,0,Urban,Pharmacy,,,,,,,,,,,,,,,,,,,,,
Clicks Modi Mall Pharm,0,0,Peri-Urban,Pharmacy,,,,,,,,,,,,,,,,,,,,,
Clicks Hazyview Pharm,0,0,Rural,Pharmacy,,,,,,,,,,,,,,,,,,,,,
Clicks I'Langa Mall Pharm,28.107693,-26.189501,Urban,Pharmacy/Clinic,,,,,,,,,,,,,,,,,,,,,
Clicks Riverside Pharm,0,0,Urban,Pharmacy/Clinic,,,,,,,,,,,,,,,,,,,,,
Clicks Secunda Reg Pharm,0,0,Urban,Pharmacy/Clinic,,,,,,,,,,,,,,,,,,,,,
Clicks Standerton Pharm,30.885902,-30.050931,Urban,Pharmacy,,,,,,,,,,,,,,,,,,,,,
Clicks Ermelo Pharm,30.214182,-31.048181,Urban,Pharmacy/Clinic,,,,,,,,,,,,,,,,,,,,,
Clicks Ben Fleur Pharm,0,0,Urban,Pharmacy,,,,,,,,,,,,,,,,,,,,,
Clicks Highland Mew Pharm,0,0,Urban,Pharmacy/Clinic,,,,,,,,,,,,,,,,,,,,,
Clicks Highveld Pharm,29.94275,-27.7355,Urban,Pharmacy/Clinic,,,,,,,,,,,,,,,,,,,,,
Clicks Saveways Pharm,30.695792,-30.38556,Urban,Pharmacy/Clinic,,,,,,,,,,,,,,,,,,,,,
Clicks Middelburg M Pharm,29.461569,-25.768569,Urban,Pharmacy,,,,,,,,,,,,,,,,,,,,,
Clicks Middelburg Pharm,0,0,Urban,Pharmacy,,,,,,,,,,,,,,,,,,,,,
Clicks Midwater Pharm,29.93518,-27.75475,Urban,Pharmacy/Clinic,,,,,,,,,,,,,,,,,,,,,
Clicks Willowbrooke Pharm,0,0,Peri-Urban,Pharmacy,,,,,,,,,,,,,,,,,,,,,
Clicks Brits Mall Pharm,28.207281,-25.739407,Peri-Urban,Pharmacy,,,,,,,,,,,,,,,,,,,,,
Clicks Brits Pharm,30.213304,-31.04871,Urban,Pharmacy,,,,,,,,,,,,,,,,,,,,,
Clicks Hartebeespoort Pha,30.483333,-22.95,Peri-Urban,Pharmacy,,,,,,,,,,,,,,,,,,,,,
Clicks Rustenburg Pharm,0,0,Urban,Pharmacy/Clinic,,,,,,,,,,,,,,,,,,,,,
Clicks Waterfall Pharm,22.45598,-33.960492,Urban,Pharmacy/Clinic,,,,,,,,,,,,,,,,,,,,,
Clicks City Mall Pharm,0,0,Urban,Pharmacy,,,,,,,,,,,,,,,,,,,,,
Clicks Klerksdorp Pharm,0,0,Urban,Pharmacy/Clinic,,,,,,,,,,,,,,,,,,,,,
Clicks Wilkoppies Pharm,0,0,Urban,Pharmacy,,,,,,,,,,,,,,,,,,,,,
Clicks Mooi River Pharm,0,0,Urban,Pharmacy/Clinic,,,,,,,,,,,,,,,,,,,,,
Clicks Potch Pharm,0,0,Urban,Pharmacy/Clinic,,,,,,,,,,,,,,,,,,,,,
Clicks Lichtenburg Pharm,0,0,Urban,Pharmacy,,,,,,,,,,,,,,,,,,,,,
Clicks Mahikeng Cr Pharm,0,0,Urban,Pharmacy,,,,,,,,,,,,,,,,,,,,,
Clicks Mahikeng Pharm,25.643561,-25.859053,Urban,Pharmacy/Clinic,,,,,,,,,,,,,,,,,,,,,
Clicks Zeerust Pharm,0,0,Urban,Pharmacy,,,,,,,,,,,,,,,,,,,,,
Clicks Vryburg Pharm,0,0,Urban,Pharmacy/Clinic,,,,,,,,,,,,,,,,,,,,,
Clicks Hartswater Pharm,18.460871,-34.033993,Urban,Pharmacy,,,,,,,,,,,,,,,,,,,,,
Clicks Diamond Pav Pharm,25.586261,-32.718929,Urban,Pharmacy/Clinic,,,,,,,,,,,,,,,,,,,,,
Clicks Kimberley Pharm,19.44241,-33.649457,Urban,Pharmacy/Clinic,,,,,,,,,,,,,,,,,,,,,
Clicks N Cape Mall Pharm,18.858521,-33.901975,Urban,Pharmacy,,,,,,,,,,,,,,,,,,,,,
Clicks Kathu Pharm,26.665906,-26.866688,Urban,Pharmacy,,,,,,,,,,,,,,,,,,,,,
Clicks Kalahari Pharm,25.88175,-26.08291,Urban,Pharmacy,,,,,,,,,,,,,,,,,,,,,
Clicks Upington Pharm,0,0,Urban,Pharmacy,,,,,,,,,,,,,,,,,,,,,
Clicks Somerset M Pharm,28.12123,-26.26921,Urban,Pharmacy,,,,,,,,,,,,,,,,,,,,,
Clicks Soneike Pharm,27.20523,-25.6819,Urban,Pharmacy,,,,,,,,,,,,,,,,,,,,,
Clicks Vangate Mall Pharm,30.870198,-30.065339,Urban,Pharmacy,,,,,,,,,,,,,,,,,,,,,
Clicks Promenade Pharm,18.615335,-34.038713,Urban,Pharmacy,,,,,,,,,,,,,,,,,,,,,
Clicks Cape Gate Pharm,14.600491,-22.646743,Urban,Pharmacy,,,,,,,,,,,,,,,,,,,,,
Clicks Edgemead Pharm,14.524639,-22.938959,Urban,Pharmacy,,,,,,,,,,,,,,,,,,,,,
Clicks Fairbridge Mall Ph,0,0,Rural,Pharmacy,,,,,,,,,,,,,,,,,,,,,
Clicks Blue Route Pharm,0,0,Urban,Pharmacy,,,,,,,,,,,,,,,,,,,,,
Clicks Cavendish C Pharm,0,0,Urban,Pharmacy,,,,,,,,,,,,,,,,,,,,,
Clicks Constantia Pharm,0,0,Urban,Pharmacy,,,,,,,,,,,,,,,,,,,,,
Clicks Kenilworth C Pharm,30.999698,-29.829434,Urban,Pharmacy,,,,,,,,,,,,,,,,,,,,,
Clicks L/Beach Mall Pharm,0,0,Urban,Pharmacy,,,,,,,,,,,,,,,,,,,,,
Clicks Plumstead Ashers P,30.999176,-29.838178,Urban,Pharmacy,,,,,,,,,,,,,,,,,,,,,
Clicks N1 City Pharm,0,0,Urban,Pharmacy,,,,,,,,,,,,,,,,,,,,,
Clicks Parow Centre Pharm,30.38849,-29.59542,Urban,Pharmacy,,,,,,,,,,,,,,,,,,,,,
Clicks Tygervalley Pharm,30.799372,-30.203947,Urban,Pharmacy,,,,,,,,,,,,,,,,,,,,,
Clicks Bayside Pharm,30.958698,-29.943891,Urban,Pharmacy,,,,,,,,,,,,,,,,,,,,,
Clicks Canal Walk Pharm,30.213542,-31.049414,Urban,Pharmacy,,,,,,,,,,,,,,,,,,,,,
Clicks Century City Pharm,0,0,Urban,Pharmacy,,,,,,,,,,,,,,,,,,,,,
Clicks Gardens Pharm,0,0,Urban,Pharmacy,,,,,,,,,,,,,,,,,,,,,
Clicks Glengariff Pharm,0,0,Urban,Pharmacy,,,,,,,,,,,,,,,,,,,,,
Clicks Golden Acre Pharm,18.862575,-34.073972,Urban,Pharmacy,,,,,,,,,,,,,,,,,,,,,
Clicks Gugulethu Sq Pharm,18.567138,-33.985482,Urban,Pharmacy,,,,,,,,,,,,,,,,,,,,,
Clicks Howard Cnt Pharm,18.5107,-33.933216,Urban,Pharmacy,,,,,,,,,,,,,,,,,,,,,
Clicks Melkbos Pharm,18.448376,-33.978913,Urban,Pharmacy,,,,,,,,,,,,,,,,,,,,,
Clicks W/coast Vill Pharm,18.484248,-33.804623,Rural,Pharmacy,,,,,,,,,,,,,,,,,,,,,
Clicks Weskus Mall Pharm,17.986598,-32.921537,Urban,Pharmacy,,,,,,,,,,,,,,,,,,,,,
Clicks Mount Mill Pharm,19.434495,-33.632697,Rural,Pharmacy,,,,,,,,,,,,,,,,,,,,,
Clicks Stellenbosch Pharm,18.860161,-33.935853,Rural,Pharmacy,,,,,,,,,,,,,,,,,,,,,
Plett Clicks Pharm,23.371796,-34.055947,Urban,Pharmacy,,,,,,,,,,,,,,,,,,,,,
Clicks Garden Route Pharm,22.504888,-33.985835,Rural,Pharmacy,,,,,,,,,,,,,,,,,,,,,
Clicks George Pharm,22.457014,-33.960724,Urban,Pharmacy,,,,,,,,,,,,,,,,,,,,,
Clicks Knysna Pharm,23.048718,-34.036202,Rural,Pharmacy,,,,,,,,,,,,,,,,,,,,,
Clicks Langeberg Pharm,22.103983,-34.148059,Rural,Pharmacy,,,,,,,,,,,,,,,,,,,,,
Clicks Mossel Bay Pharm,22.115842,-34.185412,Rural,Pharmacy,,,,,,,,,,,,,,,,,,,,,
Clicks Oudtshoorn Pharm,22.204782,-33.590292,Rural,Pharmacy,,,,,,,,,,,,,,,,,,,,,
Clicks Hermanus Pharm,19.238547,-34.420138,Rural,Pharmacy,,,,,,,,,,,,,,,,,,,,,
Clicks Market Sq Plett Ph,23.369316,-34.042526,Rural,Pharmacy,,,,,,,,,,,,,,,,,,,,,
The Bedford Pharmacy,31.014615,-29.851819,,Pharmacy,34 Donkin Street,,,,,,,,,,,,,,,,,,,,
P Ochse Pharmacy,30.833177,-29.832541,,Pharmacy,17 Adderley Street,,,,,,,,,,,,,,,,,,,,
Dorans Pharmacy,31.037603,-29.858692,,Pharmacy,48 Somerset Street,,,,,,,,,,,,,,,,,,,,
Tsolo Pharmacy,30.963527,-29.924365,,Pharmacy,178 Thurston Street,,,,,,,,,,,,,,,,,,,,
Berea Pharmacy,30.918829,-29.881529,,Pharmacy,31 Pearce Street,,,,,,,,,,,,,,,,,,,,
Bonnie Doon Pharmacy,31.021906,-29.784898,,Pharmacy,52 Beach Road,,,,,,,,,,,,,,,,,,,,
Cambridge East London Pharmacy,31.01706,-29.855614,,Pharmacy,18 Garcia Street,,,,,,,,,,,,,,,,,,,,
Crossways Pharmacy,30.984911,-29.831473,,Pharmacy,The Village Centre,,,,,,,,,,,,,,,,,,,,
Devro-Kem Pharmacy,28.02355,-32.940718,,Pharmacy,"Shop 10, Main Road",,,,,,,,,,,,,,,,,,,,
Greenfields Pharmacy,31.03549,-29.71552,,Pharmacy,Shop 6 Settlers Way,,,,,,,,,,,,,,,,,,,,
John Forbes Pharmacy,27.900759,-33.005683,,Pharmacy,205A Oxford Street,,,,,,,,,,,,,,,,,,,,
Kirkman and Wessels Pharmacy,30.948378,-29.805698,,Pharmacy,48 Oxford Street,,,,,,,,,,,,,,,,,,,,
Ladens Pharmacy,31.03776,-29.761289,,Pharmacy,8 Cromwell Avenue,,,,,,,,,,,,,,,,,,,,
Mdantsane Pharmacy,27.76189,-32.96142,,Pharmacy,Sandile Road,,,,,,,,,,,,,,,,,,,,
The Retail Pharmacy,30.871961,-29.962221,,Pharmacy,45 St Marks Road,,,,,,,,,,,,,,,,,,,,
Vincent Family Pharmacy,30.985086,-29.834647,,Pharmacy,"Shop L12, Devereux Ave",,,,,,,,,,,,,,,,,,,,
Z-Kem Pharmacy,30.883941,-29.915029,,Pharmacy,80 Windyridge Road,,,,,,,,,,,,,,,,,,,,
Algoa Park Pharmacy,31.017931,-29.860463,,Pharmacy,St Leonards Road,,,,,,,,,,,,,,,,,,,,
Aloe  Pharmacy,30.999344,-29.850469,,Pharmacy,6th Avenue Shopping Centre,,,,,,,,,,,,,,,,,,,,
Anver Ahmed Pharmacy,30.989626,-29.937384,,Pharmacy,127 Durban Road,,,,,,,,,,,,,,,,,,,,
Beach Pharmacy,31.017827,-29.720871,,Pharmacy,"Shop 19, 8th Avenue",,,,,,,,,,,,,,,,,,,,
Charlo Pharmacy,31.013008,-29.697979,,Pharmacy,Beggar Street,,,,,,,,,,,,,,,,,,,,
Constantia PE Pharmacy,31.024548,-29.860785,,Pharmacy,"Pier 14, 444 Govan Mbeki Ave",,,,,,,,,,,,,,,,,,,,
Dijon Medicine Depot Pharmacy,31.0479,-29.643874,,Pharmacy,44 Dijon Road,,,,,,,,,,,,,,,,,,,,
Durban Road Pharmacy,30.922111,-29.910759,,Pharmacy,270 Durban Road,,,,,,,,,,,,,,,,,,,,
Greenways Family Pharmacy,31.014987,-29.85097,,Pharmacy, Cnr Melsetter & Greenways,,,,,,,,,,,,,,,,,,,,
Ian Robertson Pharmacy,25.579548,-33.980856,,Pharmacy,170 Main Road,,,,,,,,,,,,,,,,,,,,
Kempston Road Pharmacy,30.936357,-29.849719,,Pharmacy,"Ground Floor, cnr Kempston & Durban Road",,,,,,,,,,,,,,,,,,,,
Klinicare Belmore Pharmacy,30.917625,-29.834959,,Pharmacy,433 Cape Road,,,,,,,,,,,,,,,,,,,,
Klinicare Bluewater Bay Pharmacy,31.036972,-29.724694,,Pharmacy,Hill Crest Drive,,,,,,,,,,,,,,,,,,,,
Klinicare Lorraine Pharmacy,31.00013,-29.861116,,Pharmacy,Circular Drive,,,,,,,,,,,,,,,,,,,,
Klinicare Mill Park Apteek,25.597916,-33.95917,,Pharmacy,97 Cape Road,,,,,,,,,,,,,,,,,,,,
Klinimed Pharmacy,31.022355,-29.820079,,Pharmacy,32 Newton Street,,,,,,,,,,,,,,,,,,,,
Klinipharm Pharmacy,31.02657,-29.686842,,Pharmacy,349 Cape Road,,,,,,,,,,,,,,,,,,,,
Korsten Pharmacy,30.941586,-29.9191,,Pharmacy,22 Standford Rd,,,,,,,,,,,,,,,,,,,,
Linton Grange Pharmacy,30.883359,-30.056618,,Pharmacy,527 Cape Road,,,,,,,,,,,,,,,,,,,,
Marriot and Powell Pharmacy,31.052433,-29.741021,,Pharmacy,40 Govan Mbeki Ave,,,,,,,,,,,,,,,,,,,,
Motherwell Pharmacy,31.044437,-29.777493,,Pharmacy,"Shop 11, Tyinira Street",,,,,,,,,,,,,,,,,,,,
Provincial Westbourne Pharmacy,31.054333,-29.717107,,Pharmacy,84 Westbourne Road,,,,,,,,,,,,,,,,,,,,
Rink Street Pharmacy,29.425502,-30.553227,,Pharmacy,4 Rink Street,,,,,,,,,,,,,,,,,,,,
Rowallan Park Pharmacy,21.269279,-33.494029,,Pharmacy,"Shop 9,Hunters Retreat, ",,,,,,,,,,,,,,,,,,,,
Sanctor Pharmacy,30.39357,-30.833308,,Pharmacy,48 Marock Road,,,,,,,,,,,,,,,,,,,,
Summerstrand Pharmacy,25.667762,-33.987659,,Pharmacy,Torquary Street,,,,,,,,,,,,,,,,,,,,
The Medicine Chest Pharmacy,30.41443,-29.56667,,Pharmacy,77 Govan Mbeki Ave,,,,,,,,,,,,,,,,,,,,
Trochem Pharmacy,30.379055,-29.60414,,Pharmacy,18 Nojoli Street,,,,,,,,,,,,,,,,,,,,
Troppers Pharmacy,30.40145,-29.567515,,Pharmacy,63 6th Avenue,,,,,,,,,,,,,,,,,,,,
Fort Beaufort Pharmacy,30.321898,-29.647253,,Pharmacy,53 Campbell Street,,,,,,,,,,,,,,,,,,,,
Merino Pharmacy,30.408924,-29.624076,,Pharmacy,52 Church Street,,,,,,,,,,,,,,,,,,,,
Midland Drug Store Pharmacy,30.37275,-29.60782,,Pharmacy,46 Caledon Street,,,,,,,,,,,,,,,,,,,,
Grahamstown Pharmacy,30.40756,-29.57323,,Pharmacy,117 High Street,,,,,,,,,,,,,,,,,,,,
LL Wallace Pharmacy,30.40776,-29.562585,,Pharmacy,African Street,,,,,,,,,,,,,,,,,,,,
Arkade Pharmacy,30.397978,-29.618003,,Pharmacy,38 Main Street,,,,,,,,,,,,,,,,,,,,
Policlinic Pharmacy,30.407904,-29.563525,,Pharmacy,8688 Hanekam Drive,,,,,,,,,,,,,,,,,,,,
Fonteine Park Pharmacy,30.381522,-29.637897,,Pharmacy,115 Da Gama Road,,,,,,,,,,,,,,,,,,,,
Kenton Pharmacy,30.4073,-29.564973,,Pharmacy,40 Kenton Road,,,,,,,,,,,,,,,,,,,,
Beaconhurst Pharmacy,29.8779,-29.00427,,Pharmacy,Shop 1 Major Square Shopping Complex,,,,,,,,,,,,,,,,,,,,
Amathole Valley Pharmacy,30.772079,-29.788885,,Pharmacy,"Shop 15,  139 Alexandra Road",,,,,,,,,,,,,,,,,,,,
Harrisons Pharmacy,30.766122,-29.773914,,Pharmacy,2 Maclean Street,,,,,,,,,,,,,,,,,,,,
Hendricks Pharmacy,30.894359,-29.79547,,Pharmacy,116 Cambridge Road,,,,,,,,,,,,,,,,,,,,
Kirkwood Pharmacy,30.854158,-29.827716,,Pharmacy,"Lot277, Main Street",,,,,,,,,,,,,,,,,,,,
Vallei Pharmacy,27.390248,-32.873893,,Pharmacy,Middel Street,,,,,,,,,,,,,,,,,,,,
Burgersdorp Pharmacy,26.329126,-30.994627,,Pharmacy,22 Taylor St,,,,,,,,,,,,,,,,,,,,
Karroo apteek,25.0072,-31.495778,,Pharmacy,1 Market Street,,,,,,,,,,,,,,,,,,,,
Medikor Pharmacy,25.006518,-31.493944,,Pharmacy,8 Meintjies Street,,,,,,,,,,,,,,,,,,,,
Mthatha Plaza Pharmacy,28.745891,-31.60175,,Pharmacy,"Shop 38, Nelson Mandela Drie",,,,,,,,,,,,,,,,,,,,
Leach Pharmacy,26.883155,-33.590643,,Pharmacy,Masonic Street,,,,,,,,,,,,,,,,,,,,
Medipark Pharmacy,26.878987,-31.895652,,Pharmacy,43 Grey Street,,,,,,,,,,,,,,,,,,,,
Bolzes Pharmacy,26.873141,-31.895216,,Pharmacy,11 Robinson Rd,,,,,,,,,,,,,,,,,,,,
Magers Pharmacy,26.872988,-31.896414,,Pharmacy,73 Cathcart Road,,,,,,,,,,,,,,,,,,,,
Binnehof Pharmacy,25.398116,-33.771212,,Pharmacy,Shop 89,,,,,,,,,,,,,,,,,,,,
Drostdy Pharmacy,25.602242,-33.960837,,Pharmacy,Johan CronjÃ© Square,,,,,,,,,,,,,,,,,,,,
Colletts Pharmacy,27.429392,-32.570133,,Pharmacy,32 Hill Street,,,,,,,,,,,,,,,,,,,,
Oos KaapÂ + Clinic,24.77024,-34.029473,,Pharmacy,54 Main Street,,,,,,,,,,,,,,,,,,,,
Pharmacy at SPAR Rowallan Park,25.491617,-33.939443,,Pharmacy,"HUNTERS RETREAT SHOPPING CN,CAPE RD ROWALLAN PARK PE 6001",,,,,,,,,,,,,,,,,,,,
Provincial Westbourne Pharmacy at SPAR,25.60203,-33.96018,,Pharmacy,"84 Westbourne Road, Port Elizabeth, 6001",,,,,,,,,,,,,,,,,,,,
Deneysville Pharmacy,28.09739,-26.88984,,Pharmacy,11 Main Road,,,,,,,,,,,,,,,,,,,,
Medi-Chem Rose Park Pharmacy,26.17849,-29.1482,,Pharmacy,53 Gustuv Circle,,,,,,,,,,,,,,,,,,,,
Medi-Chem Pellissier  Pharmacy,26.164808,-29.148049,,Pharmacy,Volkspele Rylaan,,,,,,,,,,,,,,,,,,,,
Waverley Pharmacy,26.246557,-29.09624,,Pharmacy,"Shop 4, 130 Andries Pretorius Street",,,,,,,,,,,,,,,,,,,,
Avenue Pharmacy,26.866586,-28.105362,,Pharmacy,Odyssey Building,,,,,,,,,,,,,,,,,,,,
Bahlabani Pharmacy,26.84596,-29.217091,,Pharmacy,30 Jan Van Riebeeck Street,,,,,,,,,,,,,,,,,,,,
Bloemfontein Pharmacy,26.223457,-29.117857,,Pharmacy,32 East Burger Street,,,,,,,,,,,,,,,,,,,,
Bokamoso Pharmacy,27.887806,-28.877043,,Pharmacy,45 Erwee Street,,,,,,,,,,,,,,,,,,,,
Brandfort Pharmacy,26.464704,-28.701645,,Pharmacy,39 Voortrekker Street,,,,,,,,,,,,,,,,,,,,
Chameleon Pharmacy,26.73359,-27.98441,,Pharmacy,329 long Road,,,,,,,,,,,,,,,,,,,,
Dales Pharmacy,29.125885,-28.273151,,Pharmacy,60 Vowe Street,,,,,,,,,,,,,,,,,,,,
Die Hoek Apteek,28.30955,-28.23409,,Pharmacy,32F Louw Street,,,,,,,,,,,,,,,,,,,,
Drommedaris Pharmacy,26.616961,-27.392567,,Pharmacy,21 Botha Street,,,,,,,,,,,,,,,,,,,,
Elizabeth Street Pharmacy,26.73986,-27.98022,,Pharmacy,4 Elizabeth Street,,,,,,,,,,,,,,,,,,,,
ER Meyer Pharmacy,26.68483,-27.87579,,Pharmacy,80 Waterkant Street,,,,,,,,,,,,,,,,,,,,
Flamingo Pharmacy,26.744508,-27.962651,,Pharmacy,27 Pretorius Street,,,,,,,,,,,,,,,,,,,,
Frank Korb Pharmacy,26.805014,-27.936071,,Pharmacy,51B Craib Avenue,,,,,,,,,,,,,,,,,,,,
Geen & Velleman Pharmacy,27.456899,-26.90096,,Pharmacy,44 Middel Street,,,,,,,,,,,,,,,,,,,,
Generaal de Wet Pharmacy,26.19486,-29.15331,,Pharmacy,128 Barry Richter Avenue,,,,,,,,,,,,,,,,,,,,
Heidedal Pharmacy,26.254328,-29.141852,,Pharmacy,Shop 26,,,,,,,,,,,,,,,,,,,,
Henneman Pharmacy,27.023868,-27.971605,,Pharmacy,6 Church Street,,,,,,,,,,,,,,,,,,,,
Hoopstad Apteek,25.903442,-27.835045,,Pharmacy,31 Van Zyl Street,,,,,,,,,,,,,,,,,,,,
Jan Cilliers park Pharmacy,26.74722,-27.99318,,Pharmacy,135 Koppie Alleen Road,,,,,,,,,,,,,,,,,,,,
Kroon Pharmacy,28.309452,-28.232735,,Pharmacy,26B Louw Street,,,,,,,,,,,,,,,,,,,,
Kroonstad Pharmacy,27.23637,-27.66291,,Pharmacy,28 Buitekant Street,,,,,,,,,,,,,,,,,,,,
Makfed Pharmacy,28.816667,-28.533333,,Pharmacy,Shop No 6/7 Setsing Shopping Complex,,,,,,,,,,,,,,,,,,,,
Maluti Pharmacy,28.82848,-28.50638,,Pharmacy,Shop 19,,,,,,,,,,,,,,,,,,,,
Mangaung Pharmacy,26.234476,-29.174343,,Pharmacy,Moshoeshoe Road,,,,,,,,,,,,,,,,,,,,
Medibloem Pharmacy,26.203202,-29.108664,,Pharmacy,Mediclinic Kellner Street,,,,,,,,,,,,,,,,,,,,
Oranje Pharmacy,26.865405,-28.10567,,Pharmacy,22 Bullion Street,,,,,,,,,,,,,,,,,,,,
Palm Gate Pharmacy,27.459872,-26.901662,,Pharmacy,Phillip Street,,,,,,,,,,,,,,,,,,,,
Parys Pharmacy,27.457868,-26.901282,,Pharmacy,49 Dolf Street,,,,,,,,,,,,,,,,,,,,
Paul Lamprecht Pharmacy,26.86721,-28.103054,,Pharmacy,36 Government Ave,,,,,,,,,,,,,,,,,,,,
Preller Square Pharmacy,26.211565,-29.087714,,Pharmacy,"Shop 11,  Graaf Reinet Street",,,,,,,,,,,,,,,,,,,,
President Pharmacy,29.16469,-27.425882,,Pharmacy,Cnr Church & Voortrekker Street,,,,,,,,,,,,,,,,,,,,
Rendezvous Pharmacy,26.738512,-27.982224,,Pharmacy,Mooi Street,,,,,,,,,,,,,,,,,,,,
Riemland Pharmacy,27.96727,-27.284878,,Pharmacy,40 Pierce Street,,,,,,,,,,,,,,,,,,,,
Roodt Pharmacy,27.455772,-26.900017,,Pharmacy,18 Middel Street,,,,,,,,,,,,,,,,,,,,
Roscher Pharmacy,27.23466,-27.67109,,Pharmacy,4 Blignaut Street,,,,,,,,,,,,,,,,,,,,
Senekal Pharmacy,27.622817,-28.325939,,Pharmacy,39 Dreyer Street,,,,,,,,,,,,,,,,,,,,
Sentrum Pharmacy,26.741485,-27.981035,,Pharmacy,"Shop 5, Cnr Arrarat & Stateway",,,,,,,,,,,,,,,,,,,,
Spitskop Pharmacy,26.159232,-29.090934,,Pharmacy,"shop 12, Cnr NP van Wyk Louw & Cecilia Streets",,,,,,,,,,,,,,,,,,,,
Syd Goldstein Pharmacy,27.23296,-27.66265,,Pharmacy,39 Cross Street,,,,,,,,,,,,,,,,,,,,
Thaba Nchu Pharmacy,26.820351,-29.203958,,Pharmacy,No 3 ,,,,,,,,,,,,,,,,,,,,
The Village Pharmacy,27.438019,-28.68809,,Pharmacy,4 Farm,,,,,,,,,,,,,,,,,,,,
Theunissen Pharmacy,26.713182,-28.400282,,Pharmacy,41 Van Heerden Street,,,,,,,,,,,,,,,,,,,,
Village Square Pharmacy,28.317487,-28.2331,,Pharmacy,Cnr Baartman & Eeufees Street,,,,,,,,,,,,,,,,,,,,
Virginia Pharmacy,26.871339,-28.110278,,Pharmacy,Market Street,,,,,,,,,,,,,,,,,,,,
Voortrekker Pharmacy,26.221249,-29.116382,,Pharmacy,"Shop 8, Middestad Centre",,,,,,,,,,,,,,,,,,,,
Vrede Pharmacy,29.162736,-27.426828,,Pharmacy,51 Kerk Street,,,,,,,,,,,,,,,,,,,,
Vredefort Pharmacy,27.366093,-27.005852,,Pharmacy,Oranje Street,,,,,,,,,,,,,,,,,,,,
Warden Pharmacy,28.965356,-27.858203,,Pharmacy,37 Piet Retief Street,,,,,,,,,,,,,,,,,,,,
Wesselsbron Pharmacy,26.773216,-28.004565,,Pharmacy,6 Erwee Street,,,,,,,,,,,,,,,,,,,,
Wilge Pharmacy,28.494041,-27.273706,,Pharmacy,46 JJ Hadebe Street,,,,,,,,,,,,,,,,,,,,
Willows Pharmacy,26.20782,-29.12264,,Pharmacy,11A Ella Street,,,,,,,,,,,,,,,,,,,,
Jacobsdal Pharmacy,24.772993,-29.127574,,Pharmacy,Piet Retief Street,,,,,,,,,,,,,,,,,,,,
Leibbrandt Pharmacy,27.82818,-26.81667,,Pharmacy,Fichardt Square,,,,,,,,,,,,,,,,,,,,
Lethabo Pharmacy,27.84342,-26.772032,,Pharmacy,Van Staden Straat 4,,,,,,,,,,,,,,,,,,,,
Medpark Pharmacy,27.826496,-26.811843,,Pharmacy,NJ Van der Merwe Circle,,,,,,,,,,,,,,,,,,,,
Roodia Pharmacy,27.848414,-26.774325,,Pharmacy,Opperman Str,,,,,,,,,,,,,,,,,,,,
Pharmacy At Spar Heuwelsig,26.196964,-29.07657,,Pharmacy,"SHOP 10, 10 OGILVY STREET, HEUWELSIG, BLOEMFONTEIN, 9301",,,,,,,,,,,,,,,,,,,,
Pestle and Mortar Pharmacy,28.123085,-26.188118,,Independent Community Pharmacy Association(ICPA),126 Bedford Centre,,,,,,,,,,,,,,,,,,,,
Senderwood Pharmacy,28.124309,-26.157787,,ICPA,13 Chaucer Avenue,,,,,,,,,,,,,,,,,,,,
Lab Health and Home Pharmacy,27.39023,-26.3471,,ICPA,54 Van Zyl Smit Street,,,,,,,,,,,,,,,,,,,,
Laudium  Pharmacy,28.103012,-25.788314,,ICPA,290 Tangerine Street,,,,,,,,,,,,,,,,,,,,
Medicare Palm Court Pharmacy,27.931523,-26.125166,,ICPA,Palm Court Shopping Centre,,,,,,,,,,,,,,,,,,,,
Kilburn Pharmacy,27.88615,-26.15661,,ICPA,117 Kilburn Street,,,,,,,,,,,,,,,,,,,,
Barry's Pharmacy,28.091784,-26.294046,,ICPA,Shop 12B,,,,,,,,,,,,,,,,,,,,
Clinicross Pharmacy,28.096069,-26.313187,,ICPA,38 Hennie Alberts Street,,,,,,,,,,,,,,,,,,,,
Benchem Dispensary Pharmacy,28.31704,-26.19097,,ICPA,24 Tom Jones Street,,,,,,,,,,,,,,,,,,,,
Ben-chem Pharmacy,28.32205,-26.19174,,ICPA,44 Harpur Avenue,,,,,,,,,,,,,,,,,,,,
Brentwood Pharmacy,28.296833,-26.144493,,ICPA,28A  Great North Road,,,,,,,,,,,,,,,,,,,,
Falls Pharmacy,28.30908,-26.166776,,ICPA,Cnr Great North Road & Webb Street,,,,,,,,,,,,,,,,,,,,
Farrarcare Pharmacy,28.29737,-26.16168,,ICPA,110 Bayley Street,,,,,,,,,,,,,,,,,,,,
Hira Street Pharmacy,28.29995,-26.21154,,ICPA,757 Singh Street,,,,,,,,,,,,,,,,,,,,
Mackenzie Park Pharmacy,28.33031,-26.19903,,ICPA,19 Heron Street,,,,,,,,,,,,,,,,,,,,
Mediklin Pharmacy,28.330074,-26.17323,,ICPA,Cnr 2nd Street & 6th Avenue,,,,,,,,,,,,,,,,,,,,
Nazeema's Pharmacy,28.300786,-26.213179,,ICPA,1522 Soma Street,,,,,,,,,,,,,,,,,,,,
Quicksilver Dispensary Pharmacy,28.328657,-26.171332,,ICPA,5-9Th Avenue,,,,,,,,,,,,,,,,,,,,
Rynfield Health and Home Pharmacy,28.332459,-26.156642,,ICPA,31 Miles Sharp Street,,,,,,,,,,,,,,,,,,,,
Tlangelani Daveyton Pharmacy,28.400972,-26.162799,,ICPA,"Shop 4, Cnr Heald & Matthewson Street",,,,,,,,,,,,,,,,,,,,
Boksburg Pharmacy,28.253324,-26.223368,,ICPA,286 Commissioner Str,,,,,,,,,,,,,,,,,,,,
Centrum Pharmacy,28.25408,-26.197659,,ICPA,370 Trichardt Street,,,,,,,,,,,,,,,,,,,,
MedLeigh Pharmacy,28.244745,-26.199272,,ICPA,"Shop 10, Rietfontein Road",,,,,,,,,,,,,,,,,,,,
Multikem Pharmacy,28.264315,-26.257577,,ICPA,Kingfisher Ave,,,,,,,,,,,,,,,,,,,,
Rondebult Pharmacy,28.245737,-26.24449,,ICPA,231 Rondebult Road,,,,,,,,,,,,,,,,,,,,
Sunward Park Pharmacy,28.253183,-26.259369,,ICPA,Duiker Road and Kingfisher Ave,,,,,,,,,,,,,,,,,,,,
Westwood Pharmacy,28.280852,-26.185229,,ICPA,"shop 8, Cnr Atlas & Phillip Roads",,,,,,,,,,,,,,,,,,,,
Dalmed  Pharmacy,28.35516,-26.24599,,ICPA,"House 6, 12 Cardigan Street",,,,,,,,,,,,,,,,,,,,
Tsakane Pharmacy,28.372643,-26.352939,,ICPA,"Shop 52, Malandela & Modjajie Road",,,,,,,,,,,,,,,,,,,,
Baker Street Pharmacy,28.180593,-26.13622,,ICPA,Cnr Baker & Harris Street,,,,,,,,,,,,,,,,,,,,
Harmelia Pharmacy,28.18867,-26.14037,,ICPA,"Shop 8, 48 Shelton Avenue",,,,,,,,,,,,,,,,,,,,
Park Medicine Depot Pharmacy,28.155347,-26.145977,,ICPA,38 Van Riebeeck Avenue,,,,,,,,,,,,,,,,,,,,
Rams Pharmacy - Jabulani,27.841159,-26.248633,,ICPA,"Shop 46, Bolani Street",,,,,,,,,,,,,,,,,,,,
Baps Southdale Pharmacy,28.02319,-26.2418,,ICPA,"Shop 10-11, Alamein Road",,,,,,,,,,,,,,,,,,,,
Benns Pharmacy,28.358225,-26.240002,,ICPA,755 Voortrekker Street,,,,,,,,,,,,,,,,,,,,
Fochville Pharmacy,27.494972,-26.48884,,ICPA,42 Vrede Straat,,,,,,,,,,,,,,,,,,,,
Greenways Lambton Pharmacy,28.180263,-26.246717,,ICPA,"Shop1, 138 Webber Road",,,,,,,,,,,,,,,,,,,,
Hanrimed Pharmacy,28.37234,-26.23362,,ICPA,371 Voortrekker Street,,,,,,,,,,,,,,,,,,,,
Healthcare  Pharmacy,28.372492,-26.126134,,ICPA,Cavendish St,,,,,,,,,,,,,,,,,,,,
Heidmed Pharmacy,28.357778,-26.502196,,ICPA,62 Ueckermann Street,,,,,,,,,,,,,,,,,,,,
Kemgate Pharmacy,28.220407,-26.081658,,ICPA,100 Soutpansberg,,,,,,,,,,,,,,,,,,,,
Kgoaredi Pharmacy Centrewalk,28.194104,-25.74604,,ICPA,276 Helen Joseph street,,,,,,,,,,,,,,,,,,,,
Kgoaredi Pharmacy Protea Glen,27.814152,-26.277409,,ICPA,"Shop 35, Cnr Protea Blvd & R558",,,,,,,,,,,,,,,,,,,,
Killarney Riviera Pharmacy,28.054861,-26.166125,,ICPA,"Shop 27, 60 Rivier Road",,,,,,,,,,,,,,,,,,,,
Kingstan Spectrum Pharmacy,28.47093,-26.41878,,ICPA,56 Hendrik Verwoerd Drive,,,,,,,,,,,,,,,,,,,,
Leraala Pharmacy,28.197834,-26.025961,,ICPA,"Shop 22, Esangweni Section",,,,,,,,,,,,,,,,,,,,
Medi Centre Pharmacy,28.232028,-26.107629,,ICPA,14 Central Avenue,,,,,,,,,,,,,,,,,,,,
Pharmacy @ Spar Midrand Pharmacy,28.128848,-25.99493,,ICPA,Cnr Alexandra Ave & Old Pretoria Road,,,,,,,,,,,,,,,,,,,,
Pharmhealth Pharmacy,28.144577,-25.95568,,ICPA,"Shop 3, Olifantsfontein Road, Extention 22",,,,,,,,,,,,,,,,,,,,
Dube Pharmacy,27.901247,-26.237407,,ICPA,Mahlahlafele Drive,,,,,,,,,,,,,,,,,,,,
Randfontein Village Pharmacy,27.704876,-26.178199,,ICPA,57 Main Road,,,,,,,,,,,,,,,,,,,,
Sebokeng Family Pharmacy,27.846913,-26.5947,,ICPA,"Shop 10 , Moshoeshoe Street",,,,,,,,,,,,,,,,,,,,
Sebokeng Pharmacy,27.844694,-26.599447,,ICPA,Moshoeshoe St,,,,,,,,,,,,,,,,,,,,
Springbok Pharmacy,28.122077,-26.271057,,ICPA,Cnr Voortrekker & Helston Road,,,,,,,,,,,,,,,,,,,,
Thabong Good Health  - Sebokeng Pharmacy,27.8458,-26.602,,ICPA,"Shop B24, Moshoeshoe Road",,,,,,,,,,,,,,,,,,,,
Thabong Good Health  - Vosloorus Pharmacy,28.181651,-26.345474,,ICPA,"Shop 66, Cnr Bierman & Brickfield Road",,,,,,,,,,,,,,,,,,,,
Thabong Good Health - Sebokeng Jo2 Pharmacy,27.848603,-26.596669,,ICPA,"Shop B24, Moshoeshoe Road, Zone 10, ext 1",,,,,,,,,,,,,,,,,,,,
Tlangelani - Tembisa Pharmacy,28.196863,-26.02626,,ICPA,Shop 9 ,,,,,,,,,,,,,,,,,,,,
Tlangelani Mayibuye Pharmacy,28.176094,-26.034098,,ICPA,Mayibuye Centre,,,,,,,,,,,,,,,,,,,,
Wendywood Pharmacy,28.085462,-26.082562,,ICPA,Shop 15,,,,,,,,,,,,,,,,,,,,
Windsor Pharmacy,27.976481,-26.12086,,ICPA,Cnr Beatrice & Dutchess Street,,,,,,,,,,,,,,,,,,,,
Ackermans Pharmacy,28.157337,-26.189853,,ICPA,101 Rietfontein Road,,,,,,,,,,,,,,,,,,,,
Albemarle Pharmacy,28.153974,-26.264263,,ICPA,39 Hatfield Avenue,,,,,,,,,,,,,,,,,,,,
Bonnie Pharmacy,28.256621,-26.125424,,ICPA,Louis Botha Rd,,,,,,,,,,,,,,,,,,,,
Anro Pharmacy,28.24095,-25.67963,,ICPA,Cnr Zambezi & Dr Swanepoel Road,,,,,,,,,,,,,,,,,,,,
Civimed Pharmacy,28.30517,-25.704187,,ICPA,"Shop 3, 389 Soutrivier Ave",,,,,,,,,,,,,,,,,,,,
Crest Pharmacy,28.240539,-25.75288,,ICPA,526 Duncan Street,,,,,,,,,,,,,,,,,,,,
Crown Avenue Pharmacy,28.234527,-25.769909,,ICPA,Cherry Lane Shopping Centre,,,,,,,,,,,,,,,,,,,,
Cullinan Health and Home Pharmacy,28.234527,-25.769909,,ICPA,2B Park Street,,,,,,,,,,,,,,,,,,,,
Cullinan Pharmacy,28.520981,-25.672304,,ICPA,"Shop 22, 112 Oak Avenue",,,,,,,,,,,,,,,,,,,,
Danmed Pharmacy,28.520981,-25.672304,,ICPA, Danmed Complex,,,,,,,,,,,,,,,,,,,,
Dely Road Pharmacy,28.269511,-25.794186,,ICPA,Cnr Lois Ave & Dely Rd,,,,,,,,,,,,,,,,,,,,
Derdepoort Pharmacy,28.269511,-25.794186,,ICPA,40 Baviaanspoort Road,,,,,,,,,,,,,,,,,,,,
Erasmia  Pharmacy,28.092042,-25.811904,,ICPA,381 Willem Erasmus Street,,,,,,,,,,,,,,,,,,,,
Faerie Glen Medical Centre Pharmacy,28.092042,-25.811904,,ICPA,Atterbury Road,,,,,,,,,,,,,,,,,,,,
Amberfield Pharmacy,28.138023,-25.872965,,ICPA,"Shp 39, mall@Reds, Rooihuiskraal Rd",,,,,,,,,,,,,,,,,,,,
Ferrum Pharmacy,28.138023,-25.872965,,ICPA,494B Church Street West,,,,,,,,,,,,,,,,,,,,
Glenstantia Pharmacy,28.277955,-25.811308,,ICPA,546 Douglas Scholtz Street,,,,,,,,,,,,,,,,,,,,
Kalapeng Pharmacy,28.277955,-25.811308,,ICPA,Cnr Francis Baard and Lilian Ngoyi Street,,,,,,,,,,,,,,,,,,,,
Kalapeng - Denneboom Pharmacy,28.336841,-25.718913,,ICPA,"B7, Metropolitan Gateway",,,,,,,,,,,,,,,,,,,,
Kalapeng - Station Pharmacy,28.336841,-25.718913,,ICPA,509 Paul Kruger Court & Jacob Mare,,,,,,,,,,,,,,,,,,,,
Kalapeng Mahube Valley Pharmacy,28.421293,-25.700113,,ICPA,"Shop11D, Tsamaya Road, Mahube Valley",,,,,,,,,,,,,,,,,,,,
Kalapeng Mamelodi Crossing Pharmacy,28.334407,-25.714005,,ICPA,"ShopS7, Mamelodi Crossing ",,,,,,,,,,,,,,,,,,,,
Karenpark Pharmacy,28.108443,-25.671004,,ICPA,"Shop 9 Karenpark Crossing, Cnr Angelier & Heinrich Avenue, Karenpark Ext 5, Doreg AH, Akasia, 0182",,,,,,,,,,,,,,,,,,,,
Kem de Beer's  Pharmacy,28.174442,-25.676148,,ICPA,252 Ben Viljoen Street,,,,,,,,,,,,,,,,,,,,
Khutsong Pharmacy,28.374666,-25.714461,,ICPA,Cnr Henderland and Tsamaya Rd,,,,,,,,,,,,,,,,,,,,
Kirkness Park Pharmacy,28.23898,-25.83913,,ICPA,91 Hertzog Avenue,,,,,,,,,,,,,,,,,,,,
Kismet Pharmacy,28.0999,-25.79258,,ICPA,272 - 18th Avenue,,,,,,,,,,,,,,,,,,,,
Kramer's Pharmacy,28.15174,-25.719283,,ICPA,581 Van der Hoff Road,,,,,,,,,,,,,,,,,,,,
Loeriepark Pharmacy,28.32057,-25.73201,,ICPA,894 Loerie Street,,,,,,,,,,,,,,,,,,,,
Makhanana Pharmacy,28.36847,-25.71794,,ICPA,Phumulamcashi Buffer Zone,,,,,,,,,,,,,,,,,,,,
Maymed Pharmacy,28.311645,-25.739167,,ICPA,13 Pienaar Street ,,,,,,,,,,,,,,,,,,,,
Medicare - Highveld Pharmacy,28.195089,-25.880188,,ICPA,Logan Street,,,,,,,,,,,,,,,,,,,,
Medicare Brooklyn Pharmacy,28.235931,-25.769801,,ICPA,158 Olivier St,,,,,,,,,,,,,,,,,,,,
Medicare Mopani Pharmacy,28.233406,-25.801318,,ICPA,73 Skilpad Road,,,,,,,,,,,,,,,,,,,,
Med-value Pharmacy,28.257818,-25.682655,,ICPA,"Zambezi Avenue, Shop 2",,,,,,,,,,,,,,,,,,,,
Menlopark Pharmacy,28.257653,-25.770525,,ICPA,67 - 13th Street,,,,,,,,,,,,,,,,,,,,
Metro Pharmacy,28.155024,-25.754887,,ICPA,451 Michells Street,,,,,,,,,,,,,,,,,,,,
Meyerstreet Pharmacy,28.209804,-25.701694,,ICPA,662 Meyer Street,,,,,,,,,,,,,,,,,,,,
Mid-Chem Pharmacy,28.129905,-25.996682,,ICPA,Health Emporium,,,,,,,,,,,,,,,,,,,,
Mimosa Pharmacy,28.185153,-25.710003,,ICPA,201 Booysen Street,,,,,,,,,,,,,,,,,,,,
Minnaars Pharmacy,28.170545,-25.674695,,ICPA,537 Gerrit Maritz Street,,,,,,,,,,,,,,,,,,,,
Mooikloof Pharmacy,28.326861,-25.841141,,ICPA,Garsfontein Road Shop 15,,,,,,,,,,,,,,,,,,,,
Murrayfield Pharmacy,28.306716,-25.755957,,ICPA,Cnr Rubida & Rossouw Street,,,,,,,,,,,,,,,,,,,,
Osmans Pharmacy,28.151364,-25.819037,,ICPA,40 Hugo Road,,,,,,,,,,,,,,,,,,,,
Pharmacentre Waverley Pharmacy,28.241241,-25.70368,,ICPA,"Shop 55, 116 Hertzog Street",,,,,,,,,,,,,,,,,,,,
Phologo Pharmacy,28.206175,-25.74818,,ICPA,386 Schoeman Street,,,,,,,,,,,,,,,,,,,,
Protea Family Pharmacy,27.835796,-26.27571,,ICPA,Shop 15 & 16 Protea Point Shopping Centre,,,,,,,,,,,,,,,,,,,,
Rietfontein Pharmacy,28.209612,-25.70208,,ICPA,653 Meyer Street,,,,,,,,,,,,,,,,,,,,
Riviera Pharmacy,28.210094,-25.732658,,ICPA,52 Annie Botha Avenue,,,,,,,,,,,,,,,,,,,,
Rooihuiskraal Pharmacy,28.137322,-25.893825,,ICPA,208 Panorama Rd,,,,,,,,,,,,,,,,,,,,
Soshanguve Pharmacy,28.091468,-25.494835,,ICPA,Shop 8,,,,,,,,,,,,,,,,,,,,
Station Square Pharmacy,28.185742,-25.748107,,ICPA,"Shop 16, Cnr Bosman Str & Jacob Mare Str",,,,,,,,,,,,,,,,,,,,
Swaanstraat Pharmacy,28.288153,-25.709721,,ICPA,57 Jan Coetzee Street,,,,,,,,,,,,,,,,,,,,
Tamarisk Pharmacy,28.218183,-25.678994,,ICPA,Sinoville Centre,,,,,,,,,,,,,,,,,,,,
Thato Pharmacy,28.199956,-25.750966,,ICPA,"Shop 6, DTI Campus",,,,,,,,,,,,,,,,,,,,
The Medicine Shop Pharmacy,28.21535,-25.772508,,ICPA,Shop 11,,,,,,,,,,,,,,,,,,,,
Thorntree Pharmacy,28.100563,-25.525355,,ICPA,"Shop 29, Umphasha Road",,,,,,,,,,,,,,,,,,,,
Tileba Pharmacy,28.148168,-25.678372,,ICPA,Grafenheim Street,,,,,,,,,,,,,,,,,,,,
Totiusdal Pharmacy,28.242704,-25.702707,,ICPA,779 Codonia Avenue,,,,,,,,,,,,,,,,,,,,
Trichardt Straat Pharmacy,28.161471,-25.700737,,ICPA,450 Karel Trichardtlaan ,,,,,,,,,,,,,,,,,,,,
Tshepong Pharmacy,28.41526,-25.71397,,ICPA,18881 Tsamaya Road,,,,,,,,,,,,,,,,,,,,
Van Heerden - Hamilton Pharmacy,28.205162,-25.744944,,ICPA,Cnr Church & Hamilton Street,,,,,,,,,,,,,,,,,,,,
Van Heerden - Herfsblaar Pharmacy,28.253625,-25.727426,,ICPA,1244 Webb Street,,,,,,,,,,,,,,,,,,,,
Van Heerden - Lynnridge Mall Pharmacy,28.298296,-25.765379,,ICPA,Cnr Jacobson & Lynnwood Road,,,,,,,,,,,,,,,,,,,,
Van Heerden - Old Farm Pharmacy,28.328113,-25.790374,,ICPA,Cnr Hans Strijdom & Olympus,,,,,,,,,,,,,,,,,,,,
Van Heerden - Parkview Pharmacy,28.303509,-25.818484,,ICPA,Parkview Lifestyle Centre,,,,,,,,,,,,,,,,,,,,
Vistapharm Pharmacy,0,0,,ICPA,135 Gerhard Street,,,,,,,,,,,,,,,,,,,,
Western Pharmacy,28.150566,-25.755631,,ICPA,546 Mitchell Street,,,,,,,,,,,,,,,,,,,,
Wierdachem Pharmacy,28.144052,-25.856709,,ICPA,Willem Botha Road,,,,,,,,,,,,,,,,,,,,
Woolfsons Pharmacy,28.234237,-25.750365,,ICPA,Cnr Zambezi & Dr Swanepoel Road,,,,,,,,,,,,,,,,,,,,
Zambezi Pharmacy,28.305004,-25.704234,,ICPA,"Shop 3, 389 Soutrivier Ave",,,,,,,,,,,,,,,,,,,,
Nikiwe Pharmacy,0,0,,ICPA,527 Duncan Street,,,,,,,,,,,,,,,,,,,,
Corrys Pharmacy,28.234527,-25.769909,,ICPA,Cherry Lane Shopping Centre,,,,,,,,,,,,,,,,,,,,
Khanya Pharmacy,27.870259,-26.222734,,ICPA,2B Park Street,,,,,,,,,,,,,,,,,,,,
Riverside Pharmacy,0,0,,ICPA,"Shop 22, 112 Oak Avenue",,,,,,,,,,,,,,,,,,,,
Coachmans Pharmacy,28.016977,-26.080629,,ICPA, Danmed Complex,,,,,,,,,,,,,,,,,,,,
Compounding Pharmacy,28.269511,-25.794186,,ICPA,Cnr Lois Ave & Dely Rd,,,,,,,,,,,,,,,,,,,,
Gallo Manor Pharmacy,28.074027,-26.068084,,ICPA,41 Baviaanspoort Road,,,,,,,,,,,,,,,,,,,,
Graystone Pharmacy,0,0,,ICPA,382 Willem Erasmus Street,,,,,,,,,,,,,,,,,,,,
Husted's Bryanpark Pharmacy,28.004511,-26.052852,,ICPA,Atterbury Road,,,,,,,,,,,,,,,,,,,,
Morningside Dispensary Pharmacy,28.063894,-26.075181,,ICPA,"Shp 39, mall@Reds, Rooihuiskraal Rd",,,,,,,,,,,,,,,,,,,,
Morningside Pharmacy,28.062518,-26.0782,,ICPA,494B Church Street West,,,,,,,,,,,,,,,,,,,,
Woodmead Pharmacy,28.080078,-26.047415,,ICPA,547 Douglas Scholtz Street,,,,,,,,,,,,,,,,,,,,
Pharmwave Pharmacy,28.193202,-25.749047,,ICPA,Cnr Francis Baard and Lilian Ngoyi Street,,,,,,,,,,,,,,,,,,,,
Eastpark Pharmacy,28.414791,-26.20404,,ICPA,"B7, Metropolitan Gateway",,,,,,,,,,,,,,,,,,,,
Geduld Pharmacy,28.188656,-25.755659,,ICPA,510 Paul Kruger Court & Jacob Mare,,,,,,,,,,,,,,,,,,,,
Hillcrest Pharmacy,28.44709,-26.30376,,ICPA,"Shop11D, Tsamaya Road, Mahube Valley",,,,,,,,,,,,,,,,,,,,
Medika Pharmacy,28.430892,-26.233576,,ICPA,"ShopS7, Mamelodi Crossing ",,,,,,,,,,,,,,,,,,,,
Petersfield Pharmacy,28.108443,-25.671004,,ICPA,"Shop 9 Karenpark Crossing, Cnr Angelier & Heinrich Avenue, Karenpark Ext 5, Doreg AH, Akasia, 0183",,,,,,,,,,,,,,,,,,,,
Strubenvale Pharmacy,28.469452,-26.257766,,ICPA,253 Ben Viljoen Street,,,,,,,,,,,,,,,,,,,,
Koedoe Pharmacy,27.83572,-26.698925,,ICPA,Cnr Henderland and Tsamaya Rd,,,,,,,,,,,,,,,,,,,,
Frik Pretorius Pharmacy,27.815949,-26.703141,,ICPA,92 Hertzog Avenue,,,,,,,,,,,,,,,,,,,,
Hennies Pharmacy,0,0,,ICPA,273 - 18th Avenue,,,,,,,,,,,,,,,,,,,,
Medimark Pharmacy,28.15174,-25.719283,,ICPA,582 Van der Hoff Road,,,,,,,,,,,,,,,,,,,,
Medistop Pharmacy,27.83658,-26.7126,,ICPA,895 Loerie Street,,,,,,,,,,,,,,,,,,,,
Riverview Pharmacy,28.373952,-25.721456,,ICPA,Phumulamcashi Buffer Zone,,,,,,,,,,,,,,,,,,,,
Sussmans Medicine Chest Pharmacy,27.835413,-26.699751,,ICPA,14 Pienaar Street ,,,,,,,,,,,,,,,,,,,,
Top Level Pharmacy,27.855269,-26.723829,,ICPA,Logan Street,,,,,,,,,,,,,,,,,,,,
Eland  Pharmacy,27.971231,-26.652884,,ICPA,159 Olivier St,,,,,,,,,,,,,,,,,,,,
Sonlandpark Pharmacy,27.844935,-26.721607,,ICPA,74 Skilpad Road,,,,,,,,,,,,,,,,,,,,
Taxido Pharmacy,27.93374,-26.676271,,ICPA,"Zambezi Avenue, Shop 3",,,,,,,,,,,,,,,,,,,,
Elwierda Pharmacy,28.143793,-25.858532,,ICPA,68 - 13th Street,,,,,,,,,,,,,,,,,,,,
Rynepark Pharmacy,28.243313,-25.841466,,ICPA,452 Michells Street,,,,,,,,,,,,,,,,,,,,
Eastern Suburbs Medicine Supplies Pharmacy,28.161128,-26.188904,,ICPA,,,,,,,,,,,,,,,,,,,,,
Lily Pharmacy,28.186732,-26.174486,,ICPA,,,,,,,,,,,,,,,,,,,,,
Oak Avenue Pharmacy,28.205851,-26.188459,,ICPA,101 Oak Avenue,,,,,,,,,,,,,,,,,,,,
Phumula Pharmacy,28.197455,-26.314393,,ICPA,"Shop 7, Cnr Luthando & Ludlelo Street",,,,,,,,,,,,,,,,,,,,
Stanhope Pharmacy,28.123756,-26.19914,,ICPA,41 Geldenhuis Road,,,,,,,,,,,,,,,,,,,,
Thabong Good Health - Jubilee Pharmacy,28.270486,-25.404341,,ICPA,Cnr Jubilee & Harry Gwala Road,,,,,,,,,,,,,,,,,,,,
De Hollandsche Pharmacy,28.359129,-26.500322,,ICPA,Voortrekker Road,,,,,,,,,,,,,,,,,,,,
Nite-Doc Pharmacy,28.358661,-26.502093,,ICPA,54 Mertz Street,,,,,,,,,,,,,,,,,,,,
Hekpoort Village Pharmacy,27.612205,-25.890136,,ICPA, R563 Road,,,,,,,,,,,,,,,,,,,,
Tothill's Pharmacy,28.04585,-26.20307,,ICPA,94 Pritchard Street,,,,,,,,,,,,,,,,,,,,
Waverley Pharmacy,28.073221,-26.129733,,ICPA,410 Scott & Knox Street,,,,,,,,,,,,,,,,,,,,
Alberton Pharmacy,28.128058,-26.259151,,ICPA,50 Van Riebeeck Avenue,,,,,,,,,,,,,,,,,,,,
Ansfrere Pharmacy,27.894368,-26.156016,,ICPA,36 Anstruther Street,,,,,,,,,,,,,,,,,,,,
Bakone Pharmacy,27.863517,-26.204457,,ICPA,Amandla Rd,,,,,,,,,,,,,,,,,,,,
Bank City Pharmacy,28.039169,-26.203364,,ICPA,"Shop No.C2, FNB Bank City",,,,,,,,,,,,,,,,,,,,
Bertsham Pharmacy,28.014778,-26.24297,,ICPA,150 Harry Street,,,,,,,,,,,,,,,,,,,,
Booysens Pharmacy,28.13663,-25.710286,,ICPA,Cnr Bremer Street and Wilhelm St,,,,,,,,,,,,,,,,,,,,
Bracken City Pharmacy,28.097664,-26.315386,,ICPA,"Shop 5, Hennie Albert Rd",,,,,,,,,,,,,,,,,,,,
Bryanston Pharmacy,28.012685,-26.07377,,ICPA,277 Main Street,,,,,,,,,,,,,,,,,,,,
Carletonville Pharmacy,27.398423,-26.357797,,ICPA,20 Gold Street,,,,,,,,,,,,,,,,,,,,
Clinicross Alberton Pharmacy,28.121216,-26.273293,,ICPA,"69 Clinton Rd, New Redruth",,,,,,,,,,,,,,,,,,,,
Colony Pharmacy,28.02973,-26.122676,,ICPA,"Shop 1, 345 Jan Smuts Avenue",,,,,,,,,,,,,,,,,,,,
Crown-med Pharmacy,28.013203,-26.216379,,ICPA,1 Press Avenue,,,,,,,,,,,,,,,,,,,,
Dahya's Pharmacy,27.953174,-26.1876,,ICPA,21 Olywenhout St,,,,,,,,,,,,,,,,,,,,
Daxina Pharmacy,27.824021,-26.313462,,ICPA,Cnr Starling & Azalea,,,,,,,,,,,,,,,,,,,,
Dunvegan t/a Dowerglen Pharmacy,28.138185,-26.143869,,ICPA,"Shop 9, Dowerglen Plaza",,,,,,,,,,,,,,,,,,,,
El Corro Pharmacy,27.954426,-26.144523,,ICPA,130 Weltevreden Road,,,,,,,,,,,,,,,,,,,,
Galleon Pharmacy,28.033622,-26.124918,,ICPA,Shop 63,,,,,,,,,,,,,,,,,,,,
Glen Health Pharmacy,27.804704,-26.273525,,ICPA,Wild Chestnut St,,,,,,,,,,,,,,,,,,,,
Goldenmed Health and Home Pharmacy,27.65267,-26.321543,,ICPA,President Kruger Street,,,,,,,,,,,,,,,,,,,,
Greenside Pharmacy,28.012023,-26.147026,,ICPA,110 Greenway,,,,,,,,,,,,,,,,,,,,
Healthcare Helikon Pharmacy,0,0,,ICPA,Cormorant Street,,,,,,,,,,,,,,,,,,,,
Jacqueline  Pharmacy,28.116797,-26.28734,,ICPA,"Js Centre, 25 General Alberts Ave",,,,,,,,,,,,,,,,,,,,
Jeppe Subway Pharmacy,28.062098,-26.204649,,ICPA,292 Main Street,,,,,,,,,,,,,,,,,,,,
Jorissen Street Pharmacy,28.033868,-26.192573,,ICPA,23 Jorissen Street,,,,,,,,,,,,,,,,,,,,
Jozi Pharmacy,28.035945,-26.201749,,ICPA,Shop 9 West Street Parkade,,,,,,,,,,,,,,,,,,,,
Jukskeipark Pharmacy,27.983335,-26.033934,,ICPA,Cnr Robyn & Platina Street,,,,,,,,,,,,,,,,,,,,
Kalapeng Midrand Pharmacy,28.126538,-25.99828,,ICPA,"185, Midrand City",,,,,,,,,,,,,,,,,,,,
Kempton Place Pharmacy,28.230625,-26.106765,,ICPA,6 Kempton Place,,,,,,,,,,,,,,,,,,,,
Kenview Pharmacy,28.051325,-26.197587,,ICPA,102 Sophie de Bruyn St,,,,,,,,,,,,,,,,,,,,
Kibler park Pharmacy,28.009151,-26.323969,,ICPA,Stanmore Cresecent,,,,,,,,,,,,,,,,,,,,
Lancaster Health and Home Pharmacy,28.026145,-26.130114,,ICPA,99 Lancaster AVe,,,,,,,,,,,,,,,,,,,,
Laxmi Pharmacy,27.8394,-26.322688,,ICPA,"Shop 10, 171 Rose Avenue, Ext 3",,,,,,,,,,,,,,,,,,,,
Lenasia Pharmacy,27.827614,-26.320985,,ICPA,57 Gemsbok Avenue,,,,,,,,,,,,,,,,,,,,
Linksfield Pharmacy,28.09611,-26.15989,,ICPA,"Shop 7, 110 Linksfield Road",,,,,,,,,,,,,,,,,,,,
Lunar Pharmacy,28.126217,-26.260529,,ICPA,58 4th Ave,,,,,,,,,,,,,,,,,,,,
Manor Pharmacy,28.07362,-26.066579,,ICPA,"Shop 43, Cnr Kelvin & Bowling Avenue",,,,,,,,,,,,,,,,,,,,
Mays Chemist Pharmacy,28.000826,-26.176688,,ICPA,11 Main Road,,,,,,,,,,,,,,,,,,,,
Meadowland Family Pharmacy,27.899893,-26.220055,,ICPA,Shop No. 89,,,,,,,,,,,,,,,,,,,,
Medicare (Percelia) Pharmacy,28.095633,-26.148916,,ICPA,3 Birt Street,,,,,,,,,,,,,,,,,,,,
Medicare (Savoy) Pharmacy,28.085842,-26.130432,,ICPA,580 Louis Botha Avenue,,,,,,,,,,,,,,,,,,,,
Medicare 14th Avenue Pharmacy,27.944113,-26.150648,,ICPA,Shop 11 Fairlands Centre,,,,,,,,,,,,,,,,,,,,
Medicare Dainfern Pharmacy,28.011532,-25.993964,,ICPA,"Shop 6, Broadacres Drive",,,,,,,,,,,,,,,,,,,,
Medicare Fontainebleau Pharmacy,27.976153,-26.105836,,ICPA,"3, Fountains Centre",,,,,,,,,,,,,,,,,,,,
Medicare Parkmore Pharmacy,28.03658,-26.092278,,ICPA,"Parkmore Mews, 12th Street",,,,,,,,,,,,,,,,,,,,
Medicare Weltevreden Pharmacy,27.974121,-26.134183,,ICPA,251 Beyers Naude Drive,,,,,,,,,,,,,,,,,,,,
Medici Pharmacy,28.045954,-26.09945,,ICPA,"127, 10th Street",,,,,,,,,,,,,,,,,,,,
Megawatt Pharmacy,28.080305,-26.03306,,ICPA,Shop 2,,,,,,,,,,,,,,,,,,,,
Melrose Park Pharmacy,28.062109,-26.130731,,ICPA,6 Fort Street ,,,,,,,,,,,,,,,,,,,,
Melville Pharmacy,28.008612,-26.177583,,ICPA,2d Seventh Street,,,,,,,,,,,,,,,,,,,,
Mistamed Pharmacy,28.103948,-26.129207,,ICPA,21 Lyndhurst Place,,,,,,,,,,,,,,,,,,,,
Mulmed Pharmacy,28.061461,-26.293633,,ICPA,70 Hythe Ave,,,,,,,,,,,,,,,,,,,,
New Redruth Village Pharmacy,28.114266,-26.261292,,ICPA,"Shop 33A, Cnr St Austell & Michael Street",,,,,,,,,,,,,,,,,,,,
Nikita's Pharmacy,27.847826,-26.389492,,ICPA,114 Starling Road,,,,,,,,,,,,,,,,,,,,
Norwood Pharmacy,28.076595,-26.157661,,ICPA,74 Grant Avenue,,,,,,,,,,,,,,,,,,,,
Oakdene Pharmacy,28.058693,-26.266448,,ICPA,65 Main Comaro Crossing Value Mart,,,,,,,,,,,,,,,,,,,,
Park Central Pharmacy,28.04815,-26.197982,,ICPA,"Shop 41, Cnr Twist & Noord Street",,,,,,,,,,,,,,,,,,,,
Park Pharmacy,27.904599,-26.159464,,ICPA,Cnr Honeyball & Golf Club Terrace,,,,,,,,,,,,,,,,,,,,
Pharmacentre Kyalami Pharmacy,28.075895,-25.991547,,ICPA,"Shop AG 1-2, Kyalami Blvd, Kyalami Shopping Centre",,,,,,,,,,,,,,,,,,,,
Pharmex Pharmacy,28.07077,-26.13353,,ICPA,13-15 Scott Street,,,,,,,,,,,,,,,,,,,,
Phelang Crossing Pharmacy,27.987889,-26.269286,,ICPA,Shop 10 Cnr Columbine & John Masefield Avenue,,,,,,,,,,,,,,,,,,,,
Prema's Pharmacy,28.045824,-26.198062,,ICPA,Noord Street,,,,,,,,,,,,,,,,,,,,
Protea Glen Family Pharmacy,27.804368,-26.273769,,ICPA,32 Antrim Rd,,,,,,,,,,,,,,,,,,,,
Protea Health and Home Pharmacy,28.23838,-26.09919,,ICPA,Shop 1-2. 101 Commissioner Street,,,,,,,,,,,,,,,,,,,,
Protea Pharmacy,27.843298,-26.320699,,ICPA,"Shop 5, Protea Avenue",,,,,,,,,,,,,,,,,,,,
Rams - Alex Plaza Pharmacy,28.086331,-26.106893,,ICPA,"Shop21 A, ",,,,,,,,,,,,,,,,,,,,
Rapha Pharmacy,28.061897,-26.181185,,ICPA,45 Raleigh Street,,,,,,,,,,,,,,,,,,,,
Rox Pharmacy,28.011976,-26.203557,,ICPA,69 Church Street,,,,,,,,,,,,,,,,,,,,
Ruimsig Pharmacy,27.869642,-26.093969,,ICPA,"Shop 24, Doreen Road",,,,,,,,,,,,,,,,,,,,
Sanurama Pharmacy,27.825593,-26.318815,,ICPA,Shop B002,,,,,,,,,,,,,,,,,,,,
Sontonga Pharmacy,28.163064,-26.374774,,ICPA,Shop 24-26 ,,,,,,,,,,,,,,,,,,,,
Southrand Pharmacy,28.000826,-26.176688,,ICPA,220 Johannesburg Rd,,,,,,,,,,,,,,,,,,,,
Standard Pharmacy,28.03938,-26.209,,ICPA,3 Simmon Street,,,,,,,,,,,,,,,,,,,,
Station Bazaar Pharmacy,28.168079,-26.210911,,ICPA,"Shop 1, Railway Street",,,,,,,,,,,,,,,,,,,,
Sunninghill Square Pharmacy,28.062191,-26.032456,,ICPA,2156 Rivonia Rd,,,,,,,,,,,,,,,,,,,,
The Centre Pharmacy,28.05782,-26.15495,,ICPA,81 Central Street,,,,,,,,,,,,,,,,,,,,
Townsview Medicine Depot Pharmacy,28.05097,-26.25473,,ICPA,65 Main Street,,,,,,,,,,,,,,,,,,,,
Turf Pharmacy,0,0,,ICPA,107 High Street,,,,,,,,,,,,,,,,,,,,
Tyrone Avenue Pharmacy,28.026749,-26.16064,,ICPA,"Shop 1, 54 Tyrone Avenue",,,,,,,,,,,,,,,,,,,,
Valiant Pharmacy,28.114257,-26.201452,,ICPA,534 Jules Street,,,,,,,,,,,,,,,,,,,,
Victory Pharmacy,28.039444,-26.200313,,ICPA,34 Harrison Street,,,,,,,,,,,,,,,,,,,,
Weleda  (Pineslopes) Pharmacy,28.015965,-26.022654,,ICPA,Pineslopes Shopping Centre,,,,,,,,,,,,,,,,,,,,
Westonaria Health and Home Pharmacy,27.650537,-26.317808,,ICPA,8 Forbes Street,,,,,,,,,,,,,,,,,,,,
Birchgate Pharmacy,28.208347,-26.069467,,ICPA,85 Kwartel Road,,,,,,,,,,,,,,,,,,,,
De Wiekus Pharmacy,28.210637,-26.080961,,ICPA,De Wiekus Road,,,,,,,,,,,,,,,,,,,,
Isando Pharmacy,28.202633,-26.143526,,ICPA,3 Kram Street,,,,,,,,,,,,,,,,,,,,
Ivory Park  Pharmacy,28.205228,-25.980867,,ICPA,Kopanong Shopping Centre,,,,,,,,,,,,,,,,,,,,
Medi-park Pharmacy,28.218582,-26.069783,,ICPA,98 Elgin Rd & Boswell Street,,,,,,,,,,,,,,,,,,,,
Straightline Pharmacy,28.226879,-25.995939,,ICPA,222 Tlamatlama Section,,,,,,,,,,,,,,,,,,,,
Country Pharmacy,27.545589,-25.998919,,ICPA,Rustenburg Road,,,,,,,,,,,,,,,,,,,,
Krugersdorp Pharmacy,27.807696,-26.096322,,ICPA," No 19, Cnr Market & Human Streets",,,,,,,,,,,,,,,,,,,,
Monument Park Pharmacy,27.797248,-26.101125,,ICPA,"Shop 13, 244 Voortrekker Road",,,,,,,,,,,,,,,,,,,,
Noordheuwel Pharmacy,27.802691,-26.096452,,ICPA, Cnr Bell & Shannon Rds,,,,,,,,,,,,,,,,,,,,
Rant-en-dal Pharmacy,27.779717,-26.078725,,ICPA,44 Cecil Knight Street,,,,,,,,,,,,,,,,,,,,
Lyttelton Pharmacy,28.20597,-25.828745,,ICPA,100 Government Rd,,,,,,,,,,,,,,,,,,,,
Oregon Pharmacy,28.191783,-25.838328,,ICPA,"Highlands Centre, Cnr Rabie & Glover Str",,,,,,,,,,,,,,,,,,,,
Concordia Pharmacy,28.266948,-25.7677,,ICPA,426 Roderick Road,,,,,,,,,,,,,,,,,,,,
J van Rooyen Apteek,28.014149,-26.558576,,ICPA,17B Loch Street,,,,,,,,,,,,,,,,,,,,
Jaap van Reenen Pharmacy,28.016648,-26.558705,,ICPA,30 Loch Street,,,,,,,,,,,,,,,,,,,,
Minim Pharmacy,28.01435,-26.55775,,ICPA,18 Loch Street,,,,,,,,,,,,,,,,,,,,
Van der Walt Pharmacy,28.01659,-26.55966,,ICPA,31 Loch Street,,,,,,,,,,,,,,,,,,,,
Ferryvale Pharmacy,28.47978,-26.43058,,ICPA,25 Beverley Street,,,,,,,,,,,,,,,,,,,,
Wilropark Pharmacy,27.8479,-26.124901,,ICPA,21 Mimosa Street,,,,,,,,,,,,,,,,,,,,
Witpoortjie Pharmacy,27.834654,-26.133201,,ICPA,36 General Pienaar Avenue,,,,,,,,,,,,,,,,,,,,
La Montagne Pharmacy,28.318085,-25.746859,,ICPA,231 Albertus Street,,,,,,,,,,,,,,,,,,,,
Petervale Health and Home Pharmacy,28.050807,-26.035319,,ICPA,Shop G 8,,,,,,,,,,,,,,,,,,,,
Hammanskraal Pharmacy,28.28422,-25.404237,,ICPA,"Shop no. B04, Renbro Shopping Center",,,,,,,,,,,,,,,,,,,,
Alexandra Pharmacy,28.088524,-26.108731,,ICPA,68 1st Ave,,,,,,,,,,,,,,,,,,,,
Medicare Pharmacy - Boskruin,27.959394,-26.087048,,ICPA,Cnr Hawken & President Fouche Ave,,,,,,,,,,,,,,,,,,,,
Medicare Guardian Pharmacy,26.724516,-33.47518,,ICPA, Cnr Kelly and Kowie Streets,,,,,,,,,,,,,,,,,,,,
Docville Pharmacy,27.702978,-26.168266,,ICPA,103 Kennith Road,,,,,,,,,,,,,,,,,,,,
Rayton Pharmacy,28.529626,-25.745293,,ICPA,Treurnich St,,,,,,,,,,,,,,,,,,,,
Brug Pharmacy,28.214638,-25.722805,,ICPA,Frates Road,,,,,,,,,,,,,,,,,,,,
Annlin Pharmacy+ Clinic,28.198163,-25.682683,,ICPA,29 Jan Booysen Street,,,,,,,,,,,,,,,,,,,,
Doornpoort Pharmacy + Clinic,28.236035,-25.64832,,ICPA,481 Airport Road,,,,,,,,,,,,,,,,,,,,
Madelief Pharmacy + Clinic,28.155539,-25.66834,,ICPA,Shop 7 Cnr Daan De Wet Nel Dr & Bokmakierie Str,,,,,,,,,,,,,,,,,,,,
Montana Pharmacy + Clinic,28.272465,-25.681714,,ICPA,Sefako Makgatho Str & Breed Str,,,,,,,,,,,,,,,,,,,,
Wonderpark Pharmacy + Clinic,28.11289,-25.669739,,ICPA,Cnr Kamelia Str & Diffenbachia Road,,,,,,,,,,,,,,,,,,,,
Barclay Square Pharmacy + Clinic,28.204984,-25.757804,,ICPA,"Shop 16, 293 Rissik Street",,,,,,,,,,,,,,,,,,,,
Eloraigne Pharmacy + Clinic,28.160591,-25.841354,,ICPA,1033 Saxby Avenue,,,,,,,,,,,,,,,,,,,,
Eldo Park Pharmacy + Clinic,28.140084,-25.836056,,ICPA,"Shop 3, Willem Botha Street",,,,,,,,,,,,,,,,,,,,
Irene Pharmacy + Clinic,28.223781,-25.876711,,ICPA,"Shop 3, Main Road",,,,,,,,,,,,,,,,,,,,
Brooklyn,28.236117,-25.769601,,ICPA,158 Olivier St,,,,,,,,,,,,,,,,,,,,
Henda,28.279943,-25.841328,,ICPA,"Shop 1, Cnr De Villabois Mareuil Drive & Hesketh Drive",,,,,,,,,,,,,,,,,,,,
Moreleta Park + Clinic,28.288867,-25.819194,,ICPA,680 Rubenstein Drive,,,,,,,,,,,,,,,,,,,,
Olivewood + Clinic,28.295564,-25.829401,,ICPA,"Shop 6, Cnr De Villebois Mareuil Drive & Wekker Rd",,,,,,,,,,,,,,,,,,,,
24 hr Serene + Clinic,28.289489,-25.789706,,ICPA,474 Winifred Yell Street,,,,,,,,,,,,,,,,,,,,
Waterkloof Corner + Clinic,28.240412,-25.774795,,ICPA,"Shop 21, 299 Waterkloof Road",,,,,,,,,,,,,,,,,,,,
Wilgers + Clinic,28.321841,-25.757948,,ICPA,"Shop 17, 570 Rossouw Str",,,,,,,,,,,,,,,,,,,,
NigelÂ + Clinic,0,0,,ICPA,12A Hendrik Verwoerd Street,,,,,,,,,,,,,,,,,,,,
Hanrimed + Clinic,28.37234,-26.23362,,ICPA,371 Voortrekker Street,,,,,,,,,,,,,,,,,,,,
Docville + Clinic,27.702978,-26.168266,,ICPA,53 Homestead Ave,,,,,,,,,,,,,,,,,,,,
Randfontein VillageÂ + Clinic,27.704881,-26.178314,,ICPA,57 Main Road,,,,,,,,,,,,,,,,,,,,
Pharmacy at SPAR Dely Road,28.269511,-25.794186,,Spar Pharmacy,"Cnr Lois & Dely Road, Newlands, Pretoria",,,,,,,,,,,,,,,,,,,,
Pharmacy at SPAR Medisquare,28.298035,-25.807818,,Spar Pharmacy,"Shop 5, Moreleta Square Shopping Centre, Cnr Garsfontein & Rubenstein Street, Moreleta Park",,,,,,,,,,,,,,,,,,,,
Pharmacy at SPAR Noord,28.173867,-25.677536,,Spar Pharmacy,"Shop 4, De Jong Centre, 486 Rachel De Beer Street, Pretoria North ",,,,,,,,,,,,,,,,,,,,
Pharmacy at SPAR Oregon,28.191783,-25.838328,,Spar Pharmacy,"Highlands Centre, Cnr Rabie & Glover Street, Lyttleton",,,,,,,,,,,,,,,,,,,,
Pharmacy at SPAR Noordwyk,28.123605,-25.952175,,Spar Pharmacy,"Shop 1 Noordwyk Shopping Centre, 816 Lever Road, Noordwyk",,,,,,,,,,,,,,,,,,,,
Pharmacy at SPAR Bon Accord,28.203947,-25.628306,,Spar Pharmacy,"Bonnacord Center, 841 Lavender Rd, Onderstepoort, Pretoria, 0009",,,,,,,,,,,,,,,,,,,,
Pharmacy at Spar - Soshanguve,28.091558,-25.54957,,Spar Pharmacy,"Shop 40B, Soshanguve Crossing, Ruth First Road & Aubrey Matlala Street, Soshanguve",,,,,,,,,,,,,,,,,,,,
Pharmacy at SPAR Prokem,28.14348,-25.846544,,Spar Pharmacy,"1276 Willem Botha Avenue, Wierdapark, Centurion",,,,,,,,,,,,,,,,,,,,
Pharmacy at Spar Willow Way,28.316655,-25.765188,,Spar Pharmacy,"Willow Way Shopping Centre, Lynnwood Road, Pretoria",,,,,,,,,,,,,,,,,,,,
Pharmacy at SPAR Karen Park ,28.106966,-25.670556,,Spar Pharmacy,corner heinrich and madelief str Akasia,,,,,,,,,,,,,,,,,,,,
Pharmacy at SPAR Kilner Park,28.259799,-25.720185,,Spar Pharmacy,"22 LYNETTE STREET, KILNERPARK, GAUTENG",,,,,,,,,,,,,,,,,,,,
Pharmacy at SPAR Queenswood,28.243983,-25.732706,,Spar Pharmacy,"Queens Corner, Shop 1, Cnr Soutpansberg Road and Stead Avenue Queenswood, Pretoria 0186",,,,,,,,,,,,,,,,,,,,
Pharmacy at SPAR Clubview,28.174509,-25.83998,,Spar Pharmacy,"Cnr. Lyttelton & Harvard Streets, Clubview Corner, CLUBVIEW, Pretoria",,,,,,,,,,,,,,,,,,,,
Pharmacy at SPAR Jean Avenue,28.196918,-25.84996,,Spar Pharmacy,"Cnr. Jean & Lenchen Avenue, Centurion",,,,,,,,,,,,,,,,,,,,
Pharmacy at SPAR Elardus Park,28.259557,-25.826457,,Spar Pharmacy,"566 Barnard Str, Elardus Park, 0181",,,,,,,,,,,,,,,,,,,,
Pharmacy at Spar - Bertrams,28.06861,-26.19696,,Spar Pharmacy,"Shop 018 Spar Shopping Centre, 41 Bezuidenhout Street, Bertrams, Johannesburg, 2094",,,,,,,,,,,,,,,,,,,,
Pharmacy At Spar Florida Junction,27.923627,-26.176366,,Spar Pharmacy,"SHOP 7, FLORIDA JUNCTION SHOPPING CENTRE, 116 ONTDEKKERS ROAD, FLORIDA PARK, 1709",,,,,,,,,,,,,,,,,,,,
Pharmacy At Spar Northworld ,27.945693,-26.07803,,Spar Pharmacy,"Northwold Junction, Drysdale Rd, Northwold, Johannesburg, 2155",,,,,,,,,,,,,,,,,,,,
Pharmacy at SPAR Stoneridge,28.143904,-26.114978,,Spar Pharmacy,"SHOP U25, STONERIDGE CENTRE, 1 STONERIDGE DRIVE, GREENSTONE, EDENVALE, GAUTENG",,,,,,,,,,,,,,,,,,,,
Pharmacy at SPAR Evaton,27.869923,-26.530122,,Spar Pharmacy,"1745 Adams Rd, Sebokeng Unit 3, Evaton, 1985",,,,,,,,,,,,,,,,,,,,
Pharmacy at SPAR Sandringham,28.108531,-26.145097,,Spar Pharmacy,"70 GEORGE AVENUE, SANDRINGHAM, JOHANNESBURG, 2192",,,,,,,,,,,,,,,,,,,,
Pharmacy at SPAR Med-Leigh,28.241379,-26.190296,,Spar Pharmacy,"Shop 10 the Square, Rietfontein Road, Klipfontein 83-Ir, Boksburg, 1459",,,,,,,,,,,,,,,,,,,,
Pharmacy at SPAR Midrand,28.126538,-25.99828,,Spar Pharmacy,"1685 Old Pretoria Rd, Halfway House Estates, Midrand, 1685",,,,,,,,,,,,,,,,,,,,
Pharmacy at SPAR Leondale,28.179666,-26.302973,,Spar Pharmacy,"Wildebees Street, Roodekop, Germiston, 1401",,,,,,,,,,,,,,,,,,,,
Cowey Park Pharmacy,31.008917,-29.84063,,ICPA,107 Problem Mkhize Road,,,,,,,,,,,,,,,,,,,,
Montclair Pharmacy,30.962919,-29.924636,,ICPA,208 Keynon Howden Road,,,,,,,,,,,,,,,,,,,,
Meranti - Kharwastan Pharmacy,30.908403,-29.904442,,ICPA,10 Oak Ave,,,,,,,,,,,,,,,,,,,,
Mpop-Med Pharmacy,0,0,,ICPA,2691 Nelson Mandela Avenue,,,,,,,,,,,,,,,,,,,,
Siyaphila Pharmacy,30.878687,-30.004566,,ICPA,Echwebeni Street,,,,,,,,,,,,,,,,,,,,
CZA - Ixopo Pharmacy,30.062903,-30.149757,,ICPA,116 Main Road,,,,,,,,,,,,,,,,,,,,
Circle Park Pharmacy,30.870485,-29.773773,,ICPA,b5 Motala Road,,,,,,,,,,,,,,,,,,,,
Medical Centre Pharmacy,32.411375,-28.376477,,ICPA,St Lucia St,,,,,,,,,,,,,,,,,,,,
Armstrong Avenue Pharmacy,31.061128,-29.763139,,ICPA,"Shop 9, 36 Park Drive",,,,,,,,,,,,,,,,,,,,
Ashley Avenue Pharmacy,31.048646,-29.758513,,ICPA,47 Ashley Avenue,,,,,,,,,,,,,,,,,,,,
Austerville Pharmacy,30.983221,-29.940099,,ICPA,11D Clinic Road,,,,,,,,,,,,,,,,,,,,
Bergview Pharmacy,28.81179,-30.34502,,ICPA,"Pick n Pay Centre, Main Road",,,,,,,,,,,,,,,,,,,,
Bergville Pharmacy,29.34996,-28.72772,,ICPA,14 Tatham Road,,,,,,,,,,,,,,,,,,,,
Broadway Pharmacy,31.039237,-29.78454,,ICPA,5 Swapo Rd,,,,,,,,,,,,,,,,,,,,
Brookdale Pharmacy,31.003572,-29.684302,,ICPA,1454 Northern Drive,,,,,,,,,,,,,,,,,,,,
Careways Pharmacy, 	31.053904,-29.741703,,ICPA," 4 Village Way, Sunningdale, Umhlanga, 4051, South Africa",,,,,,,,,,,,,,,,,,,,
Chatscare Pharmacy,30.879819,-29.91322,,ICPA,"Shop 3, 13 Joyhurst Stree",,,,,,,,,,,,,,,,,,,,
City Rank Pharmacy,0,0,,ICPA,2 Terminus Street,,,,,,,,,,,,,,,,,,,,
Cosmed Pharmacy,30.3697,30.8646,,ICPA,"Shop 10A, Marine Drive",,,,,,,,,,,,,,,,,,,,
D-Med Pharmacy,31.001974,-29.704108,,ICPA,"Shop G13, 3 Anoromede Street",,,,,,,,,,,,,,,,,,,,
East Coast Pharmacy,31.2008,-29.5262,,ICPA,"Shop 34, Ballito Drive",,,,,,,,,,,,,,,,,,,,
Eastbury Pharmacy,31.020773,-29.696159,,ICPA,"Shop 2, 167 Grove End Drive",,,,,,,,,,,,,,,,,,,,
Effingham Pharmacy,31.01511,-29.76909,,ICPA,"Shop 2, 228 Effingham Road",,,,,,,,,,,,,,,,,,,,
Hashmed  Pharmacy,31.032536,-29.841425,,ICPA,"Shop 2, 37 Sol Harris Crescent",,,,,,,,,,,,,,,,,,,,
Hasmed Pharmacy,31.003275,-29.701468,,ICPA,"Shop 1, 16 Parthenon  Street",,,,,,,,,,,,,,,,,,,,
Havenside  Pharmacy,30.924854,-29.925793,,ICPA,"Shop 10, Kingsbury Way",,,,,,,,,,,,,,,,,,,,
Healthcare Pharmacy,28.320045,-25.768334,,ICPA,"Shop 2 & 3, Police Station Road",,,,,,,,,,,,,,,,,,,,
Hilltop Pharmacy,31.039195,-29.768764,,ICPA,183 Umhlanga Rocks Drive,,,,,,,,,,,,,,,,,,,,
Hilton Heights Pharmacy,31.03937,-29.859998,,ICPA,1 Gillespie Street,,,,,,,,,,,,,,,,,,,,
Island Circle  Pharmacy,31.006321,-29.76659,,ICPA,"35/37 Island Circle, Block 4, Suite 407",,,,,,,,,,,,,,,,,,,,
Jamaica Pharmacy,30.860745,-29.882854,,ICPA,66 Olympia Street,,,,,,,,,,,,,,,,,,,,
Kensington Pharmacy,28.107693,-26.189501,,ICPA,8A Broadway,,,,,,,,,,,,,,,,,,,,
Kharwastan Pharmacy,30.910242,-29.899573,,ICPA,"Shop 6, 2 Quail Street",,,,,,,,,,,,,,,,,,,,
Knightsway  Pharmacy,30.919858,-29.882769,,ICPA,14 Knightsway Road,,,,,,,,,,,,,,,,,,,,
Lagoon Pharmacy,30.885902,-30.050931,,ICPA,"Shop 8, 407 Kings Way",,,,,,,,,,,,,,,,,,,,
Lakehaven Pharmacy,30.975446,-29.790162,,ICPA,"Shop 12, 768 Inanda Rd",,,,,,,,,,,,,,,,,,,,
Lathi-Thaa Pharmacy,29.366947,-30.798905,,ICPA,Nolangeni Street,,,,,,,,,,,,,,,,,,,,
Linkhills Pharmacy,30.826727,-29.735137,,ICPA,"Shop 16, Inanda Road",,,,,,,,,,,,,,,,,,,,
Linmed Pharmacy,31.117795,-29.570863,,ICPA,352 Main Road,,,,,,,,,,,,,,,,,,,,
Main Road Pharmacy,30.923064,-29.900158,,ICPA,"Shop 2, 47 Chatsworth Main Road",,,,,,,,,,,,,,,,,,,,
Marine World Pharmacy,31.045852,-29.867257,,ICPA,"Shop D15, 1 King Shaka Avenue",,,,,,,,,,,,,,,,,,,,
Maxwell Centre Pharmacy Pharmacy,31.015333,-29.851281,,ICPA,71/73 Lorne Street,,,,,,,,,,,,,,,,,,,,
Medcare Pharmacy,31.015333,-29.851281,,ICPA,Latiff Heights,,,,,,,,,,,,,,,,,,,,
Medcrest Pharmacy,30.999698,-29.829434,,ICPA,122C  Crescent Street,,,,,,,,,,,,,,,,,,,,
Medfield Pharmacy,31.003696,-29.813669,,ICPA,277 Quarry Road East,,,,,,,,,,,,,,,,,,,,
Mediquick Pharmacy,30.999176,-29.838178,,ICPA,88 Overport Drive,,,,,,,,,,,,,,,,,,,,
Medisport Pharmacy,31.023433,-29.859196,,ICPA,"Shop 9, 320 Smith Street",,,,,,,,,,,,,,,,,,,,
Medport Pharmacy,30.38849,-29.59542,,ICPA,485 Longmarket Street,,,,,,,,,,,,,,,,,,,,
Medstop Pharmacy,30.799372,-30.203947,,ICPA,"Shop2, Moodley Spar",,,,,,,,,,,,,,,,,,,,
Meranti Medicine Depot Pharmacy,30.958698,-29.943891,,ICPA,Mobeni Heights,,,,,,,,,,,,,,,,,,,,
Migamed Pharmacy,30.214182,-31.048181,,ICPA,Shop 9,,,,,,,,,,,,,,,,,,,,
Milmed Pharmacy,31.032254,-29.854811,,ICPA,62 Prince Alfred Street,,,,,,,,,,,,,,,,,,,,
Motala's Pharmacy,31.014848,-29.855837,,ICPA,148 Victoria Street,,,,,,,,,,,,,,,,,,,,
Mount-med Pharmacy,31.038005,-29.724976,,ICPA,"102 Hillhead Drive, Shop 68",,,,,,,,,,,,,,,,,,,,
Murray Square Pharmacy,30.858715,-29.814784,,ICPA,"No2, 44 Old Main Road",,,,,,,,,,,,,,,,,,,,
Natraj Pharmacy,30.968698,-29.953544,,ICPA,Hamagiri Rd,,,,,,,,,,,,,,,,,,,,
Newkwa Pharmacy,30.968618,-29.781558,,ICPA,913 Inanda Road,,,,,,,,,,,,,,,,,,,,
Newlands City Pharmacy ,30.974105,-29.784332,,ICPA,"2A Shop 14, Marbleray Drive",,,,,,,,,,,,,,,,,,,,
Nightingale Pharmacy,30.896397,-29.910598,,ICPA,"Shop 40, 159 - 199 Florence Nightingale Drive",,,,,,,,,,,,,,,,,,,,
Northway Day Nite Pharmacy,28.10079,-26.07765,,ICPA,"Shop 5, 17 Northway Street",,,,,,,,,,,,,,,,,,,,
Nu West Pharmacy,30.955063,-29.781311,,ICPA,"Shop 5, 7 Loopwest Crescent",,,,,,,,,,,,,,,,,,,,
Nugaterite Pharmacy,31.043521,-29.6434,,ICPA,22/24 Russom Street,,,,,,,,,,,,,,,,,,,,
Omnimed Pharmacy,30.958721,-29.800892,,ICPA,559 Mountbatten Drive,,,,,,,,,,,,,,,,,,,,
Orient Pharmacy,31.00494,-29.70328,,ICPA,"Shop 1, 54 Pandora Street, ",,,,,,,,,,,,,,,,,,,,
Palm Centre Pharmacy,30.878436,-30.027743,,ICPA,112 Old Main Road,,,,,,,,,,,,,,,,,,,,
Paradise Junction Pharmacy,30.861819,-29.821485,,ICPA,"Shop 17/18, 174 Underwood Road",,,,,,,,,,,,,,,,,,,,
Park lane Pharmacy,31.025107,-29.858195,,ICPA,7 Eagle Blog West Street,,,,,,,,,,,,,,,,,,,,
Pasteur Pharmacy,30.792074,-27.765655,,ICPA,153 High street,,,,,,,,,,,,,,,,,,,,
Pather's Pharmacy,30.992013,-29.835611,,ICPA,358 Felix Dlamini Rd,,,,,,,,,,,,,,,,,,,,
Pelican Pharmacy,30.911092,-29.923504,,ICPA,262 Lenny Naidu Dr,,,,,,,,,,,,,,,,,,,,
Peoples Pharmacy,30.864884,-29.819652,,ICPA,2-4 Bamboo Lane,,,,,,,,,,,,,,,,,,,,
Pillmed Pharmacy,31.014615,-29.851819,,ICPA,"Shop 1 , 94 Beatrice Street",,,,,,,,,,,,,,,,,,,,
Pine Ridge Pharmacy,30.833177,-29.832541,,ICPA,15 Mariannridge Dr,,,,,,,,,,,,,,,,,,,,
Pointmed Medicine Depot Pharmacy,31.037603,-29.858692,,ICPA,"Shop 20 , 55 Gillespie Street",,,,,,,,,,,,,,,,,,,,
President  Pharmacy,30.963527,-29.924365,,ICPA,168 Wingate Road,,,,,,,,,,,,,,,,,,,,
Queensburgh Pharmacy,30.918829,-29.881529,,ICPA,6 Malvern Centre,,,,,,,,,,,,,,,,,,,,
R Med Pharmacy,31.021906,-29.784898,,ICPA,759 Chris Hani Road,,,,,,,,,,,,,,,,,,,,
Randeree's Pharmacy,31.01706,-29.855614,,ICPA,189 Dr Yusuf Dadoo Street,,,,,,,,,,,,,,,,,,,,
Randles Road Pharmacy,30.984911,-29.831473,,ICPA,468 Randles Road,,,,,,,,,,,,,,,,,,,,
Raphia Pharmacy,31.746668,-28.954207,,ICPA,16 Hely Hutchinson Street,,,,,,,,,,,,,,,,,,,,
Redberry Pharmacy,31.03549,-29.71552,,ICPA,"Suite 9B, 163-179 Redberry Rd,",,,,,,,,,,,,,,,,,,,,
Remedia Pharmacy,30.79502,-27.765594,,ICPA,215 Utrecht Street,,,,,,,,,,,,,,,,,,,,
Reservoir Hills Pharmacy,30.948378,-29.805698,,ICPA,300 Mount Batten Drive,,,,,,,,,,,,,,,,,,,,
Rinaldo Pharmacy,31.03776,-29.761289,,ICPA,160 Rinaldo Road,,,,,,,,,,,,,,,,,,,,
Scott Street Pharmacy,29.93429,-27.75563,,ICPA,48 Scott Street,,,,,,,,,,,,,,,,,,,,
Siyanakekela-Care Pharmacy,30.871961,-29.962221,,ICPA,Shop  M41A 50 Mangosuthu Highway,,,,,,,,,,,,,,,,,,,,
Solmed Pharmacy,30.985086,-29.834647,,ICPA,378 Randles Road,,,,,,,,,,,,,,,,,,,,
Sparkport - Chatsworth Pharmacy,30.883941,-29.915029,,ICPA,50 Tranquil St,,,,,,,,,,,,,,,,,,,,
Sparkport - City Pharmacy,31.017931,-29.860463,,ICPA,454 Anton Lembede Street,,,,,,,,,,,,,,,,,,,,
Sparkport - Musgrave Pharmacy,30.999344,-29.850469,,ICPA,77 Musgrave Road,,,,,,,,,,,,,,,,,,,,
Sparkport - Quality Street Pharmacy,30.989626,-29.937384,,ICPA,315 Quality Street,,,,,,,,,,,,,,,,,,,,
Sparkport - Umlazi Pharmacy,30.884076,-29.914106,,ICPA,"Shop 3, 50 Joyhurst Street",,,,,,,,,,,,,,,,,,,,
Stonebridge Pharmacy,31.017827,-29.720871,,ICPA,35 Shortbridge Pl,,,,,,,,,,,,,,,,,,,,
Sunford Pharmacy,31.013008,-29.697979,,ICPA,1 Sunford Drive,,,,,,,,,,,,,,,,,,,,
The Esplanade Pharmacy,31.024548,-29.860785,,ICPA,"4, 25 Guildhall Gardener Street",,,,,,,,,,,,,,,,,,,,
Todd Street Pharmacy,31.0479,-29.643874,,ICPA,Shop 2,,,,,,,,,,,,,,,,,,,,
Umhlatuzana Pharmacy,30.922111,-29.910759,,ICPA,"Shop 4 , 196 Chatsworth Main Road",,,,,,,,,,,,,,,,,,,,
Vaid's Pharmacy,31.014987,-29.85097,,ICPA,80 Ismail C Meer St,,,,,,,,,,,,,,,,,,,,
Van der Nest Pharmacy,30.796101,-27.765714,,ICPA,226 Utrecht Street,,,,,,,,,,,,,,,,,,,,
Westville North Pharmacy,30.936357,-29.849719,,ICPA,Shop 2,,,,,,,,,,,,,,,,,,,,
Westville Pharmacy,30.917625,-29.834959,,ICPA,46 Buckingham Terrace,,,,,,,,,,,,,,,,,,,,
Whitehouse Pharmacy,31.036972,-29.724694,,ICPA,Shop 41/43 Whitehouse shopping Centre,,,,,,,,,,,,,,,,,,,,
Willowvale Pharmacy,31.00013,-29.861116,,ICPA,Shop 89 Davenport Road,,,,,,,,,,,,,,,,,,,,
Wilmar Pharmacy,30.792723,-27.768048,,ICPA,187 Kerk Street,,,,,,,,,,,,,,,,,,,,
Windermere Pharmacy,31.022355,-29.820079,,ICPA,104 Goble Road,,,,,,,,,,,,,,,,,,,,
Woodmed Pharmacy,31.02657,-29.686842,,ICPA,"Shop 5, 152 Viewhaven Drive, Woodview",,,,,,,,,,,,,,,,,,,,
Yellowwoodpark Pharmacy,30.941586,-29.9191,,ICPA,5 Yellowwood Park,,,,,,,,,,,,,,,,,,,,
Sunningdale Pharmacy,31.052426,-29.742407,,ICPA,ILALA Dr,,,,,,,,,,,,,,,,,,,,
Aquarius Pharmacy,30.883359,-30.056618,,ICPA,"Shop 1, 16 Beach Road",,,,,,,,,,,,,,,,,,,,
Durban North Pharmacy,31.052433,-29.741021,,ICPA,"Shop 1, 35 Umhlanga Rocks Drive",,,,,,,,,,,,,,,,,,,,
Northlands Pharmacy,31.044437,-29.777493,,ICPA,10B Mackeurtan Avenue,,,,,,,,,,,,,,,,,,,,
Mount Edgecombe Pharmacy,31.054333,-29.717107,,ICPA,"Shop C7, 14 Flanders Drive",,,,,,,,,,,,,,,,,,,,
East Griqualand  Pharmacy,29.425502,-30.553227,,ICPA,"Shop 19, 43 Hope Street",,,,,,,,,,,,,,,,,,,,
Ladismith Pharmacy,21.267045,-33.493723,,ICPA,32 van Riebeeck Street,,,,,,,,,,,,,,,,,,,,
Uvongo Pharmacy,30.39357,-30.833308,,ICPA,5 Foster Road,,,,,,,,,,,,,,,,,,,,
Endumeni  Pharmacy,30.240173,-28.161091,,ICPA,shop 3 56 Smith Street,,,,,,,,,,,,,,,,,,,,
Franle Pharmacy,29.94275,-27.7355,,ICPA,Shop 4,,,,,,,,,,,,,,,,,,,,
Whetstone Pharmacy,30.989272,-29.706672,,ICPA,25 Featherstone Place,,,,,,,,,,,,,,,,,,,,
Allandale Pharmacy,30.41443,-29.56667,,ICPA,85 Plymouth Rd,,,,,,,,,,,,,,,,,,,,
City Central Pharmacy,30.379055,-29.60414,,ICPA,218 Langalibalele Street,,,,,,,,,,,,,,,,,,,,
Debi-Place Pharmacy,30.40145,-29.567515,,ICPA,12 Debi Place,,,,,,,,,,,,,,,,,,,,
Edemed Pharmacy,30.321898,-29.647253,,ICPA,49 Selby Msimang Road,,,,,,,,,,,,,,,,,,,,
Hayfields Pharmacy,30.408924,-29.624076,,ICPA,"Shop 8-12, 28 Blackburrow Road",,,,,,,,,,,,,,,,,,,,
Laager Pharmacy,30.37275,-29.60782,,ICPA,"Shop 5, 88 Church Street",,,,,,,,,,,,,,,,,,,,
Medikist Pharmacy,30.40756,-29.57323,,ICPA,"14 Manchester Road, Shop 10",,,,,,,,,,,,,,,,,,,,
Omega Pharmacy,30.40776,-29.562585,,ICPA,604 Chotamotala Rd,,,,,,,,,,,,,,,,,,,,
Scottsville Pharmacy,30.397978,-29.618003,,ICPA,64 Alan Paton Ave,,,,,,,,,,,,,,,,,,,,
Skymed Pharmacy,30.407904,-29.563525,,ICPA,582 Chota Motala Road,,,,,,,,,,,,,,,,,,,,
Southgate Med Depot Pharmacy,30.381522,-29.637897,,ICPA,"Shop 6, 19 Trelawney Road",,,,,,,,,,,,,,,,,,,,
Sparkport - Raisethorpe Pharmacy,30.4073,-29.564973,,ICPA,553 Chota Motala Road,,,,,,,,,,,,,,,,,,,,
Umtshezi Pharmacy,29.8779,-29.00427,,ICPA,130 Connor Street,,,,,,,,,,,,,,,,,,,,
Hillcrest  Pharmacy,30.772079,-29.788885,,ICPA,Cnr Old Main Road and Inavan Road,,,,,,,,,,,,,,,,,,,,
Hillcrest Medicine Disp Pharmacy,30.766122,-29.773914,,ICPA,Nkutu Road,,,,,,,,,,,,,,,,,,,,
Khwezelanathi Pharmacy,30.894359,-29.79547,,ICPA,"Shop 8, 992 Zazi Road",,,,,,,,,,,,,,,,,,,,
Pinelands Pharmacy,30.854158,-29.827716,,ICPA,27C Caversham Road,,,,,,,,,,,,,,,,,,,,
Shepmed Pharmacy,30.875743,-29.800168,,ICPA,Shop 2,,,,,,,,,,,,,,,,,,,,
Pennington Pharmacy,30.695792,-30.38556,,ICPA,38 Pennington Drive,,,,,,,,,,,,,,,,,,,,
City Gate Pharmacy,31.06655,-29.727507,,ICPA,"Shop G077, 1 Palm Boulevard",,,,,,,,,,,,,,,,,,,,
The Square Ridge Pharmacy,31.06422,-29.734964,,ICPA,"G14/15, The Square",,,,,,,,,,,,,,,,,,,,
Umqulusi Pharmacy,30.719732,-27.98867,,ICPA,A615 Nzima Street,,,,,,,,,,,,,,,,,,,,
Crystal Pharmacy,29.426569,-30.549638,,ICPA,83 Main Street,,,,,,,,,,,,,,,,,,,,
Medi-Park Pharmacy,31.896105,-28.760821,,ICPA,Shop 6 Central Park Centre,,,,,,,,,,,,,,,,,,,,
Alpha Pharmacy,30.383002,-29.591564,,ICPA,476 Church Street,,,,,,,,,,,,,,,,,,,,
Ballims Pharmacy,30.386159,-29.59572,,ICPA,450 Church Street,,,,,,,,,,,,,,,,,,,,
Baxter Pharmacy,30.38559,-29.59668,,ICPA,426 Church Street,,,,,,,,,,,,,,,,,,,,
Beatrice St Pharmacy,31.015444,-29.852102,,ICPA,Shop 2 77 Beatrice Street,,,,,,,,,,,,,,,,,,,,
Bhamjee's Pharmacy,30.272748,-29.871524,,ICPA,65 Shepstone Street,,,,,,,,,,,,,,,,,,,,
Burgerstreet Pharmacy,30.385666,-29.602469,,ICPA,33 Burger Street,,,,,,,,,,,,,,,,,,,,
B-Well Plaza Pharmacy,31.890493,-28.741201,,ICPA,Shop 106,,,,,,,,,,,,,,,,,,,,
Cambrian Pharmacy,30.060078,-28.013611,,ICPA,22 Newcastle Road,,,,,,,,,,,,,,,,,,,,
Central Park Pharmacy,31.025569,-29.859555,,ICPA,269 Smith Street,,,,,,,,,,,,,,,,,,,,
Clin-care Pharmacy,29.93518,-27.75475,,ICPA,Shop 10,,,,,,,,,,,,,,,,,,,,
Daynite Pharmacy,31.036127,-29.85678,,ICPA,"Shop No. 9A, Sea Point Building",,,,,,,,,,,,,,,,,,,,
Delta Pharmacy,30.37833,-29.6019,,ICPA,518 Church Street,,,,,,,,,,,,,,,,,,,,
Duzimed Medicine Depot Pharmacy,30.386703,-29.60222,,ICPA,352 Burger Street,,,,,,,,,,,,,,,,,,,,
Edwards Pharmacy,31.89115,-28.74309,,ICPA,10 Union Street,,,,,,,,,,,,,,,,,,,,
Eshowe Mall Pharmacy,31.46331,-28.89015,,ICPA,35 Osborne Rd,,,,,,,,,,,,,,,,,,,,
Fields Centre Pharmacy,30.834343,-29.793369,,ICPA,13 Old Main Rd,,,,,,,,,,,,,,,,,,,,
Five Ways Pharmacy,31.901965,-28.757848,,ICPA,Cnr Paul Avenue & Baines Street,,,,,,,,,,,,,,,,,,,,
Hilton Pharmacy,30.300887,-29.561992,,ICPA,"Shop 16A, Hilton Quarry",,,,,,,,,,,,,,,,,,,,
Howick Pharmacy,30.234384,-29.484634,,ICPA,Shop 11 The Falls Shop Ctr,,,,,,,,,,,,,,,,,,,,
Hutten park Pharmacy,29.928031,-27.740184,,ICPA,"Shop 2, Gemsbok Ave",,,,,,,,,,,,,,,,,,,,
In-Med Pharmacy,30.88064,-29.822092,,ICPA," Shop 3A, 174 Old Main Road",,,,,,,,,,,,,,,,,,,,
Kokstad Pharmacy,29.426556,-30.550784,,ICPA,58A Main Street,,,,,,,,,,,,,,,,,,,,
Ladysmith Pharmacy,29.82256,-28.58174,,ICPA,262 Murchison Street,,,,,,,,,,,,,,,,,,,,
Longbury Pharmacy,30.997844,-29.709083,,ICPA,80 Longbury Drive,,,,,,,,,,,,,,,,,,,,
Lower Tugela Pharmacy,31.290829,-29.339872,,ICPA,30 Chief Albert Luthuli Street,,,,,,,,,,,,,,,,,,,,
Maharaj's Pharmacy,30.877615,-29.888577,,ICPA,9 Everest Street,,,,,,,,,,,,,,,,,,,,
Main Pharmacy,30.858971,-29.81646,,ICPA,32 Hill Street,,,,,,,,,,,,,,,,,,,,
Medico Pharmacy,31.887297,-28.744191,,ICPA,6 Byrne Road,,,,,,,,,,,,,,,,,,,,
Medi-marl Pharmacy,31.114746,-29.570602,,ICPA,"shop 6, 236 Main Road ",,,,,,,,,,,,,,,,,,,,
Mosenngoa Pharmacy,31.892155,-28.776267,,ICPA,Shop 2 Ngwelezane Shopping Complex,,,,,,,,,,,,,,,,,,,,
Orient Medicine Depot Pharmacy,30.22893,-29.486919,,ICPA,Shop 19-21 Havard Street,,,,,,,,,,,,,,,,,,,,
Peoples Choice Pharmacy,29.427092,-30.554554,,ICPA,"Shop 5, Groom Street",,,,,,,,,,,,,,,,,,,,
Plaza Pharmacy,31.613046,-27.377406,,ICPA,New Republic Street,,,,,,,,,,,,,,,,,,,,
Rantsho (Ezakheni) Pharmacy,28.207281,-25.739407,,ICPA,Ezakheni Plaza,,,,,,,,,,,,,,,,,,,,
Rantsho (Mandeni) Pharmacy,31.410752,-29.15507,,ICPA,Mandeni Plaza,,,,,,,,,,,,,,,,,,,,
Scotts Street Pharmacy,29.93429,-27.75563,,ICPA,131 Scott Street,,,,,,,,,,,,,,,,,,,,
Solly's Pharmacy,31.293155,-29.340879,,ICPA,36 Hulett Street,,,,,,,,,,,,,,,,,,,,
Sparkport - Overport Pharmacy,30.985064,-29.834049,,ICPA,382-400 Randles Road,,,,,,,,,,,,,,,,,,,,
Sparkport - Warner Beach Pharmacy,30.864698,-30.086517,,ICPA,125 Kingsway Road,,,,,,,,,,,,,,,,,,,,
Stanger Pharmacy,31.292418,-29.338342,,ICPA,13 Chief Albert Luthuli Street ,,,,,,,,,,,,,,,,,,,,
The Country Pharmacy,30.800586,-30.203362,,ICPA,11 Bisset Street,,,,,,,,,,,,,,,,,,,,
The Dundee Trading Pharmacy,30.236554,-28.163365,,ICPA,43A Victoria Street,,,,,,,,,,,,,,,,,,,,
The Howick Village Pharmacy,30.218601,-29.477329,,ICPA,Howick Med Ctr,,,,,,,,,,,,,,,,,,,,
Thrive Pharmacy,30.820107,-29.793517,,ICPA,1 Natalia Terrace,,,,,,,,,,,,,,,,,,,,
TM Winn Pharmacy,30.3783,-29.6013,,ICPA,62 Chief Albert Luthuli Street,,,,,,,,,,,,,,,,,,,,
Ulundi Pharmacy,31.422356,-28.298692,,ICPA,Shop number 19 Ondini Plaza ,,,,,,,,,,,,,,,,,,,,
Umhlanga Medisport Pharmacy,31.085023,-29.726542,,ICPA,Chatwell Drive,,,,,,,,,,,,,,,,,,,,
Umhlatuze Pharmacy,32.052245,-28.754884,,ICPA,Shop 10,,,,,,,,,,,,,,,,,,,,
Vallabhs Pharmacy,30.66466,-30.30698,,ICPA,3 Main Road,,,,,,,,,,,,,,,,,,,,
Valu-Health Pharmacy,30.855966,-29.812921,,ICPA,"Shop 7-15, Josiah Gumede Road",,,,,,,,,,,,,,,,,,,,
Verulam Pharmacy,31.047649,-29.641896,,ICPA,62 Moss Street,,,,,,,,,,,,,,,,,,,,
Wick Street Pharmacy,31.047916,-29.64367,,ICPA,Shop 2 Wick street,,,,,,,,,,,,,,,,,,,,
Winterton Pharmacy,29.537551,-28.81356,,ICPA,23 Springfield Road,,,,,,,,,,,,,,,,,,,,
Pharmacy at SPAR Montcare,30.922908,-29.900807,,Spar Pharmacy,"Shop 2 Road 701, Chatsworth, Durban, 4092",,,,,,,,,,,,,,,,,,,,
Pharmacy at SPAR the Bluff,31.012677,-29.911533,,Spar Pharmacy,884 Bluff Road Fynnlands Bluff,,,,,,,,,,,,,,,,,,,,
Pharmacy At Spar Essenwood,32.066082,-28.755457,,Spar Pharmacy,43 Essenwood Way Richardsbay,,,,,,,,,,,,,,,,,,,,
Pharmacy At Spar Hammersdale,30.628367,-29.802144,,Spar Pharmacy,"Shop A 29, Hammarsdale Junction, 17156 Kunene Rd, Mpumalanga, Durban, 3701",,,,,,,,,,,,,,,,,,,,
Pharmacy At Spar Port Edward,30.213304,-31.04871,,Spar Pharmacy,3 Owen Ellis Drive Port Edward,,,,,,,,,,,,,,,,,,,,
Pharmacy At Spar Ramsgate,30.35321,-30.879396,,Spar Pharmacy,Shop 7 Ramsgate Boulevard Marine Drive Ramsgate,,,,,,,,,,,,,,,,,,,,
Pharmacy At Spar Shelly Beach,30.410398,-30.80752,,Spar Pharmacy,Shop 1 Shelly Boulevard Cnr of Main & East Street Shelly Beach,,,,,,,,,,,,,,,,,,,,
Pharmacy at Spar Stanger,31.287875,-29.340118,,Spar Pharmacy,Shop 11&12 125 Balcomb St. Stanger 4450,,,,,,,,,,,,,,,,,,,,
Pharmacy at SPAR Sunningdale,31.053904,-29.741703,,Spar Pharmacy,"Shop 3 & 4 Ilala Shopping Centre, Corner of Ilala and Umhlanga Rocks Drive",,,,,,,,,,,,,,,,,,,,
Pharmacy at Spar Brownsdrift,31.025136,-29.806863,,Spar Pharmacy,"11 Browns Drift, Umgeni Park, Durban North, 4051",,,,,,,,,,,,,,,,,,,,
Pharmacy at SPAR Bridge City,30.985967,-29.725204,,Spar Pharmacy,"Bridge City Shopping Centre, 14 Street 121666, Rockford, KwaMashu, 4359",,,,,,,,,,,,,,,,,,,,
Pharmacy at SPAR Merrivale,30.235245,-29.51594,,Spar Pharmacy,"13 Zeederberg Rd , Merrivale , KZN",,,,,,,,,,,,,,,,,,,,
Pharmacy at SPAR Winkle,30.856805,-30.095016,,Spar Pharmacy,"Shop 14a DSM Mall ,10 Winklespruit Rd , Winklespruit , KZN",,,,,,,,,,,,,,,,,,,,
Pelican Pharmacy,30.911042,-29.923406,,Spar Pharmacy,262 Lenny Naidu Rd Chatsworth KZN,,,,,,,,,,,,,,,,,,,,
Medstone Pharmacy,31.071358,-29.721071,,Spar Pharmacy,"Medstone Medical Centre , Ground Floor ,Umhlanga Ridge Blvd, Umhlanga, 4319",,,,,,,,,,,,,,,,,,,,
Reservoirhills Pharmacy,30.948442,-29.805672,,Spar Pharmacy,"Shop No. 2, 300 Mountbatten Dr, Reservoir Hills, Durban, 4091",,,,,,,,,,,,,,,,,,,,
Pharmacy at SPAR KwaMashu ,30.976946,-29.746813,,Spar Pharmacy,"Power Shopping Centre , 300 Malandela Rd, Kwa Mashu A, KwaMashu, 4360",,,,,,,,,,,,,,,,,,,,
Pharmacy at SPAR Mega City ,30.93945,-29.953461,,Spar Pharmacy,M8 Umlazi Mega City Umlazi,,,,,,,,,,,,,,,,,,,,
Pharmacy at Meerensee,32.100479,-28.781859,,Spar Pharmacy,"Shop 10 LAC Centre Marlin Mall Anglers Rd Meerensee , 3901",,,,,,,,,,,,,,,,,,,,
Pharmacy at Spar Pearls,31.08676,-29.724666,,Spar Pharmacy,"A1 The Pearls Shopping Centre , Aurora Dr , Umhlanga",,,,,,,,,,,,,,,,,,,,
Onverwacht Pharmacy,27.700313,-23.686632,,Pharmacy,Shop N Sunset Point Plaza,,,,,,,,,,,,,,,,,,,,
Koedoe Pharmacy,27.739688,-23.67742,,Pharmacy,48 Jan Lee Street,,,,,,,,,,,,,,,,,,,,
Libra Pharmacy,29.45121,-23.90299,,Pharmacy,94 Landros Street,,,,,,,,,,,,,,,,,,,,
Medicare Pharmacy - Polokwane,29.4471,-23.903289,,Pharmacy,12D Rissk Street,,,,,,,,,,,,,,,,,,,,
Botlokwa Pharmacy,29.388908,-23.85533,,Pharmacy,Shop 19 ,,,,,,,,,,,,,,,,,,,,
City Centre Pharmacy,29.445768,-23.901301,,Pharmacy,Bok Street,,,,,,,,,,,,,,,,,,,,
Cure-O-Pharm Pharmacy,29.46274,-23.9092,,Pharmacy,42 Thabo Mbeki Street,,,,,,,,,,,,,,,,,,,,
Da Silva Pharmacy,29.91081,-23.03174,,Pharmacy,144 Krogh Street,,,,,,,,,,,,,,,,,,,,
Ellisras Pharmacy,27.742908,-23.667286,,Pharmacy,10 Jacobus Street,,,,,,,,,,,,,,,,,,,,
Friendly Pharmacy,29.223361,-26.484479,,Pharmacy,"Shop 1, Trichardt Road",,,,,,,,,,,,,,,,,,,,
Gazamed Pharmacy,30.682154,-23.323198,,Pharmacy,"Shop 6, Main Road",,,,,,,,,,,,,,,,,,,,
Giyani Pharmacy,30.687139,-23.309039,,Pharmacy,Shop 3A,,,,,,,,,,,,,,,,,,,,
Phodzo Pharmacy (was Goloza Family),30.447156,-22.982407,,Pharmacy,Shop 2 Yufer Centre,,,,,,,,,,,,,,,,,,,,
Goloza Pharmacy,30.462542,-22.974106,,Pharmacy,Shop No 3 ,,,,,,,,,,,,,,,,,,,,
Gomolemo Pharmacy,27.624415,-23.656256,,Pharmacy,"Shop 6, Relebogile Street",,,,,,,,,,,,,,,,,,,,
Healthy-Health Pharmacy,30.483333,-22.95,,Pharmacy,"Shop 2, Post Street",,,,,,,,,,,,,,,,,,,,
Hubyeni  Pharmacy,30.053254,-23.156498,,Pharmacy,Shop 19,,,,,,,,,,,,,,,,,,,,
Kalapeng Mankweng Pharmacy,29.700807,-23.89041,,Pharmacy,"Shop 23 Twincity Makweng Shopping Centre, R71, Mankweng, Polokwane, 0727",,,,,,,,,,,,,,,,,,,,
Kamosa Pharmacy,29.76176,-24.90708,,Pharmacy,"Shop 3 Ramaila Complex, Phokoane Village, Nebo, Polokwane",,,,,,,,,,,,,,,,,,,,
Khanimamba Pharmacy,29.541493,-24.29964,,Pharmacy,"Shop 6 Northam Shopping Centre, Thabazimbi Road, Northam, Thabazimbi, 0360",,,,,,,,,,,,,,,,,,,,
Lebowakgomo Pharmacy,29.479233,-24.316958,,Pharmacy,Shop 4,,,,,,,,,,,,,,,,,,,,
Lebowakgomo Spar Pharmacy,27.71268,-23.67258,,Pharmacy,"Shop 25 Mall @ Lebo, Cnr R518 & R579, Lebowakgomo, Lebowakgomo-BA, Lepele-Nkumpi Rural, 0737",,,,,,,,,,,,,,,,,,,,
Legae Pharmacy,30.058579,-23.160009,,Pharmacy,Shop 4a Boxer Centre,,,,,,,,,,,,,,,,,,,,
Lemana Pharmacy,31.135381,-23.950523,,Pharmacy,Shop No 15 Elim Mall,,,,,,,,,,,,,,,,,,,,
Leon Thom Pharmacy,27.248427,-25.259512,,Pharmacy,Shop 29 Pick n Pay Shopping Centre,,,,,,,,,,,,,,,,,,,,
Lesego Pharmacy,30.16266,-23.82693,,Pharmacy,"Stand 938 Unit 3, 1401 Tlhantlhagane Street, Mogwase, Rustenburg, 0314",,,,,,,,,,,,,,,,,,,,
Lombards Pharmacy,30.46321,-22.983885,,Pharmacy,16 Danie Joubert Street,,,,,,,,,,,,,,,,,,,,
M&H  Pharmacy,30.69188,-23.002673,,Pharmacy,Shop B2,,,,,,,,,,,,,,,,,,,,
Malamed Pharmacy,29.90649,-23.03919,,Pharmacy,"937, Malamulele-A",,,,,,,,,,,,,,,,,,,,
Marius Bronn Pharmacy,31.136143,-23.947764,,Pharmacy,29 Songozwi Street,,,,,,,,,,,,,,,,,,,,
Marulani Pharmacy,27.700172,-23.689742,,Pharmacy,24 Palm Avenue,,,,,,,,,,,,,,,,,,,,
Matimba Pharmacy,27.410217,-24.58827,,Pharmacy,Dopperkiaat Street,,,,,,,,,,,,,,,,,,,,
Medhof Pharmacy,30.158905,-23.828115,,Pharmacy,66 van der Bijl Street,,,,,,,,,,,,,,,,,,,,
Mediplus Pharmacy,30.03367,-22.35524,,Pharmacy,"Shop 42A, Agatha Street",,,,,,,,,,,,,,,,,,,,
Messina Pharmacy,30.461276,-22.975998,,Pharmacy,Shop No 6 Score Complex,,,,,,,,,,,,,,,,,,,,
Mutakalo Pharmacy,31.030643,-23.927895,,Pharmacy,18 Mutsindo Mall,,,,,,,,,,,,,,,,,,,,
Namakgale Pharmacy,30.300303,-23.890452,,Pharmacy,"3469 Zone B, Namakgale, Phalaborwa, 1391",,,,,,,,,,,,,,,,,,,,
Nyeleti Pharmacy,30.187036,-22.899953,,Pharmacy,"House 647 A, Bankuna Avenue",,,,,,,,,,,,,,,,,,,,
Nzhelele Pharmacy,29.484695,-23.906662,,Pharmacy,"Shop 2,3,4,5",,,,,,,,,,,,,,,,,,,,
Phalukgale Pharmacy,29.45209,-23.90947,,Pharmacy,Nyala Ave,,,,,,,,,,,,,,,,,,,,
Pharmwell Japie Visser Pharmacy,29.012212,-24.184448,,Pharmacy,17 Grobler Street,,,,,,,,,,,,,,,,,,,,
Potgietersrus Farmabond Pharmacy,28.405312,-24.699538,,Pharmacy,75 Thabo Mbeki,,,,,,,,,,,,,,,,,,,,
Protea Nylstroom Pharmacy,30.456702,-22.976233,,Pharmacy,88 Nelson Mandela Drive,,,,,,,,,,,,,,,,,,,,
Sabina Pharmacy,30.858508,-22.838723,,Pharmacy,Shop A9,,,,,,,,,,,,,,,,,,,,
Saselamani Pharmacy,29.472045,-23.892472,,Pharmacy,"Shop No 3, Saselamani Shopping Centre",,,,,,,,,,,,,,,,,,,,
Temba City Pharmacy,30.45589,-22.97436,,Pharmacy,Cnr Outspan Dr & General Maritz St,,,,,,,,,,,,,,,,,,,,
Thulamela Pharmacy,30.326088,-24.667944,,Pharmacy,Shop A3 Capricorn Plaza,,,,,,,,,,,,,,,,,,,,
Tsusanang Pharmacy,30.1619,-23.82583,,Pharmacy,Shop 163,,,,,,,,,,,,,,,,,,,,
Tzaneen Pharmacy,28.294014,-24.887134,,Pharmacy,26 Danie Joubert Street,,,,,,,,,,,,,,,,,,,,
Van Heerden - Medlin Pharmacy,28.415365,-24.708022,,Pharmacy,Cnr Marx & Potgieter Street,,,,,,,,,,,,,,,,,,,,
Van Heerden - Nylstroom Checkers Pharmacy,28.408823,-24.697412,,Pharmacy,Shop 16 Nylstroom Checkers Centre,,,,,,,,,,,,,,,,,,,,
Van Heerden - Nylstroom Scriptsavers Pharmacy,27.398534,-24.588869,,Pharmacy,Cnr Thabo Mbeki & Limpopo Street,,,,,,,,,,,,,,,,,,,,
Van Heerden - Thabazimbi Pharmacy,30.158839,-23.823036,,Pharmacy,Shop 8 Pick 'n Pay Ctr,,,,,,,,,,,,,,,,,,,,
Van Heerden - Tzaneen Pharmacy,28.291713,-24.884891,,Pharmacy,Cnr R71 & Danie Joubert,,,,,,,,,,,,,,,,,,,,
Van Heerden - Warmbad Pharmacy,29.013881,-24.182408,,Pharmacy,25 Chris Hani Way,,,,,,,,,,,,,,,,,,,,
Watts Pharmacy,29.90854,-23.04074,,Pharmacy,The Crossing Mall,,,,,,,,,,,,,,,,,,,,
Weldons Pharmacy,31.283525,-22.942186,,Pharmacy,24 Songozwi St,,,,,,,,,,,,,,,,,,,,
Zamani Pharmacy,30.45928,-22.978859,,Pharmacy,Saselemani Punda Maria Road,,,,,,,,,,,,,,,,,,,,
Makhado Pharmacy,29.904656,-23.046241,,Pharmacy,Shop 18,,,,,,,,,,,,,,,,,,,,
Vuwani Pharmacy,30.13941,-23.696763,,Pharmacy,"Shop 6 Nesengani Complex, Stand 59",,,,,,,,,,,,,,,,,,,,
Modjadji Pharmacy,27.264364,-24.955415,,Pharmacy,"Plot 166, Cnr Botha & Boltman Street",,,,,,,,,,,,,,,,,,,,
Northam Pharmacy,29.649916,-24.258546,,Pharmacy,Botha Street,,,,,,,,,,,,,,,,,,,,
Bophelomed Pharmacy,29.012212,-24.184448,,Pharmacy,Shop 15 Stand 4 Unit B (A) Phasha Shopping Centre,,,,,,,,,,,,,,,,,,,,
Farmabond  (EDMS)BPK Pharmacy,29.009304,-24.179798,,Pharmacy,"75 Thabu Mbeki, Shop 17",,,,,,,,,,,,,,,,,,,,
Mokopane Pharmacy,30.295798,-23.888913,,Pharmacy,64 Nelson Mandela Drive,,,,,,,,,,,,,,,,,,,,
Ripfumelo Pharmacy,28.115194,-24.297154,,Pharmacy,"1295a Bankuna Street, Nkowankowa, Greater Tzaneen Rural, 0870",,,,,,,,,,,,,,,,,,,,
Vaalwater Pharmacy,30.426396,-23.004651,,Pharmacy,251 Sanddrif Road,,,,,,,,,,,,,,,,,,,,
Sibasa Family Pharmacy,28.713079,-24.520324,,Pharmacy,"Shop 1, Old Post Office Road",,,,,,,,,,,,,,,,,,,,
Bron ApteekÂ + Clinic,30.326088,-24.667944,,Pharmacy,50 Thabo Mbeki Street,,,,,,,,,,,,,,,,,,,,
Pharmacy at SPAR Burmed,30.184867,-22.899653,,Pharmacy,"SHOP 14, TWIN CITY CENTRE,DIRK WINTERBACH STREET BURGERSFORT",,,,,,,,,,,,,,,,,,,,
Pharmacy at SPAR Nzhelele,29.479233,-24.316958,,Pharmacy,"Shop 7 Nzhelele Shopping Centre, Nzhelele",,,,,,,,,,,,,,,,,,,,
Pharmacy at Spar Lebowakgomo,27.700449,-23.687104,,Pharmacy,"Shop 25 Mall @ Lebo, Cnr R518 & R579, Lebowakgomo, Lebowakgomo-BA, Lepele-Nkumpi Rural, 0737",,,,,,,,,,,,,,,,,,,,
Pharmacy at SPAR Onverwacht,29.48544,-23.91096,,Pharmacy,"Shop N Sunset Point Plaza, Cnr Joe Slovo & Drif Road, Onverwacht, Lephalale, 0557",,,,,,,,,,,,,,,,,,,,
Pharmacy at SPAR Flora Park ,29.913806,-23.041941,,Pharmacy,"297 Marshall St, Flora Park, Polokwane, 0699",,,,,,,,,,,,,,,,,,,,
Pharmacy At Spar Du Toit,27.6192,-23.65508,,Pharmacy,"Cnr Trichardt & Grobler Streets, Louis Trichardt",,,,,,,,,,,,,,,,,,,,
Pharmacy at SPAR Marula,29.445768,-23.901301,,Pharmacy,"SHOP 6, MARAPONG,SPAR CENTRE, MARAPONG, LIMPOPO",,,,,,,,,,,,,,,,,,,,
Pharmacy at SPAR City Centre,30.46321,-22.983885,,Pharmacy,"City Centre, Cnr Bok & Excelsior Street, Polokwane, Limpopo 0704    ",,,,,,,,,,,,,,,,,,,,
Pharmacy at SPAR Thavhani,29.095568,-26.420628,,Pharmacy,"Shop L 16 A, Thavhani Mall, Thohoyandou, Limpopo, 0950",,,,,,,,,,,,,,,,,,,,
Kinross Pharmacy,29.616591,-26.73239,,Pharmacy,20 Main Rd,,,,,,,,,,,,,,,,,,,,
Bosbok Pharmacy,29.077794,-25.188878,,Pharmacy,234 Steyn Street,,,,,,,,,,,,,,,,,,,,
Moutsiya Pharmacy,31.210952,-24.726031,,Pharmacy,573,,,,,,,,,,,,,,,,,,,,
Thulamahashe Pharmacy,31.055559,-24.844134,,Pharmacy,Thulamahashe Plaza,,,,,,,,,,,,,,,,,,,,
Bushbuckridge Pharmacy,29.233722,-25.885128,,Pharmacy,Main Road,,,,,,,,,,,,,,,,,,,,
Medi-Chem Pharmacy,29.39582,-25.17004,,Pharmacy,"c/o Beatty & OR Tambo Street, Witbank, Emalahleni, 1035",,,,,,,,,,,,,,,,,,,,
Tambotie Apteek,31.06134,-24.59516,,Pharmacy,10 Tautes Ave,,,,,,,,,,,,,,,,,,,,
Acornhoek Pharmacy,29.803397,-25.946709,,Pharmacy,Shop 3,,,,,,,,,,,,,,,,,,,,
Arnot Pharmacy,29.457497,-25.768547,,Pharmacy,"Rietkuil Business Centre, Cnr 1st Street & 11th Avenue, Rietkuil, 1097",,,,,,,,,,,,,,,,,,,,
Bambanani Pharmacy,30.326088,-24.667944,,Pharmacy,168 Cowen Ntuli Street,,,,,,,,,,,,,,,,,,,,
Burgersfort Pharmacy,30.33189,-24.68001,,Pharmacy,Shop 18,,,,,,,,,,,,,,,,,,,,
Burmed Pharmacy,30.97693,-25.46812,,Pharmacy,"Shop14, Burgersfort",,,,,,,,,,,,,,,,,,,,
Busstop Station Pharmacy,29.23662,-25.87968,,Pharmacy,22B Anderson Street ,,,,,,,,,,,,,,,,,,,,
Del Med Pharmacy,28.669901,-26.155099,,Pharmacy," 33 Geringer Street, De Judor",,,,,,,,,,,,,,,,,,,,
Delmas Pharmacy,30.459625,-25.097381,,Pharmacy,31 Sarel Cilliers Street,,,,,,,,,,,,,,,,,,,,
Downtown Lydenburg Pharmacy,30.119379,-26.070708,,Pharmacy,"Shop 10 Downtown Shopping Centre, 74 Voortrekker Road, Lydenburg, 1120",,,,,,,,,,,,,,,,,,,,
Du Preez Pharmacy,28.737128,-25.80998,,Pharmacy,28 Voortrekker Street,,,,,,,,,,,,,,,,,,,,
Erasmus Pharmacy,29.10928,-26.47025,,Pharmacy,Botha Street,,,,,,,,,,,,,,,,,,,,
Evander Pharmacy,29.98564,-26.52339,,Pharmacy,"Shoprite Checkers Centre, Bologna Rd, Evander, 2280",,,,,,,,,,,,,,,,,,,,
Fouries Pharmacy,28.801412,-25.010424,,Pharmacy,83 Church Street,,,,,,,,,,,,,,,,,,,,
Gaabo Motho Pharmacy,30.334902,-24.681367,,Pharmacy,"2829 Neu Halle Section, Marapyane, Hammanskraal",,,,,,,,,,,,,,,,,,,,
Greater Tubatse Pharmacy,29.3957,-25.16929,,Pharmacy,Limosa Centre,,,,,,,,,,,,,,,,,,,,
Groblersdal Pharmacy,30.32967,-24.67676,,Pharmacy,14 Kruger St,,,,,,,,,,,,,,,,,,,,
Hajees Pharmacy,30.8,-27,,Pharmacy,22 Dirk Winterbach St,,,,,,,,,,,,,,,,,,,,
Health Mart Pharmacy,29.717497,-26.161805,,Pharmacy,"Shop 6 Zain Centrum, 16 Zuid End Street, Piet Retief, 2380",,,,,,,,,,,,,,,,,,,,
Hendrina Pharmacy,28.587254,-26.660114,,Pharmacy,"32 Church Street, Hendrina, 1095",,,,,,,,,,,,,,,,,,,,
Hoeveld Pharmacy,30.451896,-25.09454,,Pharmacy,"18 Stuart St, Balfour, 2410",,,,,,,,,,,,,,,,,,,,
Horison Pharmacy,30.456277,-25.093322,,Pharmacy,32 Voortrekker Street,,,,,,,,,,,,,,,,,,,,
Jasmyn Pharmacy,30.455471,-25.095006,,Pharmacy,19 Viljoen Street,,,,,,,,,,,,,,,,,,,,
Joubert Pharmacy,29.462043,-26.456849,,Pharmacy,"Shop 8 Lydenburg Spar Centre, Cnr Voortrekker & Viljoen Street, Lydenburg, 1120",,,,,,,,,,,,,,,,,,,,
Kark Pharmacy,31.954602,-25.445913,,Pharmacy,44A Chris Hannie Street,,,,,,,,,,,,,,,,,,,,
Komati Pharmacy,31.015264,-25.329667,,Pharmacy,10 Rissik Street,,,,,,,,,,,,,,,,,,,,
Laeveld Pharmacy,29.109424,-26.472069,,Pharmacy,13 Chief Mgiyeni Khumalo Drive,,,,,,,,,,,,,,,,,,,,
Lastinda Pharmacy,28.68037,-26.150204,,Pharmacy,26 Lisbon Street,,,,,,,,,,,,,,,,,,,,
Leading Pharmacy,28.919505,-26.363481,,Pharmacy,"No 7, Fourth Street",,,,,,,,,,,,,,,,,,,,
Leandra Pharmacy,30.451641,-25.09358,,Pharmacy,"13 Norda St, Leslie, Leandra, 2265",,,,,,,,,,,,,,,,,,,,
Lydenburg Pharmacy,29.242452,-26.950605,,Pharmacy,56 Kantoor Street,,,,,,,,,,,,,,,,,,,,
Maximed Pharmacy,29.217827,-26.510751,,Pharmacy,"17 Princess Street, Standerton, 2430",,,,,,,,,,,,,,,,,,,,
Medico Medicine Depot Pharmacy,29.98805,-26.52284,,Pharmacy,Protea Street,,,,,,,,,,,,,,,,,,,,
Melrow Pharmacy,31.05468,-25.79077,,Pharmacy,24 De Klercq Street,,,,,,,,,,,,,,,,,,,,
MG Eksteen Pharmacy,29.455342,-25.763797,,Pharmacy,86 Crown Street,,,,,,,,,,,,,,,,,,,,
Middleburg Pharmacy,29.455342,-25.763797,,Pharmacy,15C Bhimy Damane Street,,,,,,,,,,,,,,,,,,,,
Moms Dagbreek Pharmacy,29.456486,-25.766392,,Pharmacy,9 O.R Thambo Street,,,,,,,,,,,,,,,,,,,,
Moms Ilanga Pharmacy,29.450675,-25.764678,,Pharmacy,"Shop No 3, SADC Street",,,,,,,,,,,,,,,,,,,,
Moms Kanonkop Pharmacy,29.479161,-25.744946,,Pharmacy,"105 Lilian Ngoyi St Kanonkop Lillian Ngoyi St, Kanonkop, Middelburg, 1055",,,,,,,,,,,,,,,,,,,,
Moms Witbank Pharmacy,29.233878,-25.899575,,Pharmacy,"Highveld Centre, Watermeyer St, Del Judor, Emalahleni, 1035",,,,,,,,,,,,,,,,,,,,
Mopani White River Pharmacy,31.016308,-25.329929,,Pharmacy,"Shop 20, Chief M Khumalo Drive",,,,,,,,,,,,,,,,,,,,
Nedmed Pharmacy,28.7445,-25.80422,,Pharmacy,20 Kruger Street,,,,,,,,,,,,,,,,,,,,
Nu Centre Pharmacy,29.244136,-26.955118,,Pharmacy,Shop 26,,,,,,,,,,,,,,,,,,,,
Olifants Pharmacy,29.455336,-25.761968,,Pharmacy,"12, Wonderpark, 29 Walter Sisulu St, Middelburg, 1050",,,,,,,,,,,,,,,,,,,,
Pharmacy at Spar Marble Hall Pharmacy,29.295896,-24.971253,,Pharmacy,"Shop No 2 Spar Shopping Centre, 2346 Main Road, Marble Hall, Marblehall, 0450",,,,,,,,,,,,,,,,,,,,
Piet Retief Pharmacy,30.803735,-27.007541,,Pharmacy,"27 Church St, Piet Retief, 2380",,,,,,,,,,,,,,,,,,,,
Plein Pharmacy,30.792458,-27.02446,,Pharmacy, 46B Mark Street,,,,,,,,,,,,,,,,,,,,
Protea Medi-wise Pharmacy,29.1824,-26.51121,,Pharmacy,shop 4,,,,,,,,,,,,,,,,,,,,
Rize-Med Pharmacy,31.016667,-25.316667,,Pharmacy,"Shop 14 Dayizenza Mall, R538, White River, 1240",,,,,,,,,,,,,,,,,,,,
Russells Pharmacy,30.991675,-25.472772,,Pharmacy,Shop 31,,,,,,,,,,,,,,,,,,,,
Sanbonani Pharmacy,29.399488,-25.168329,,Pharmacy,"4 Voortrekker St, Groblersdal, 0470",,,,,,,,,,,,,,,,,,,,
Scholtz Pharmacy,29.39754,-25.16713,,Pharmacy,3 Hereferd Street,,,,,,,,,,,,,,,,,,,,
Steelpoort Pharmacy,30.121006,-24.869229,,Pharmacy,"Business Centre, Rhodium Street, Steelpoort, 1133",,,,,,,,,,,,,,,,,,,,
Sukuma (Maverick Trading) Pharmacy,30.97586,-25.47264,,Pharmacy,41 Brown Street,,,,,,,,,,,,,,,,,,,,
Thabong Good Health - Emoyeni Pharmacy,31.004204,-25.498136,,Pharmacy,"75 Emoyeni Mall, Jupiter Street, Mbombela(Nelspruit), 1201",,,,,,,,,,,,,,,,,,,,
Thakanyane Kwagga Pharmacy,28.629249,-25.46026,,Pharmacy,"Shop 43, Moloto Road",,,,,,,,,,,,,,,,,,,,
Transvalia Pharmacy,29.183785,-26.505219,,Pharmacy,"Shop 21, Lurgi Square",,,,,,,,,,,,,,,,,,,,
Vallei Apteek Groblersdal Pharmacy,29.39078,-25.17524,,Pharmacy,"1A Chris Wiid St, Groblersdal, 0470",,,,,,,,,,,,,,,,,,,,
Van Biljon Pharmacy,30.04156,-25.694962,,Pharmacy,23 Fitzgerald Street,,,,,,,,,,,,,,,,,,,,
Van den Burg Pharmacy,30.9777,-25.46902,,Pharmacy,22 Bester Street,,,,,,,,,,,,,,,,,,,,
Van Heerden - Nelspruit Sonpark Pharmacy,30.968842,-25.478647,,Pharmacy,Piet Retief- Madiba Drive,,,,,,,,,,,,,,,,,,,,
Van Heerden - Nelspruit West End Pharmacy,30.972154,-25.493844,,Pharmacy,"Dr Enos Mabuza Dr, Sonheuwel, Nelspruit, 1201",,,,,,,,,,,,,,,,,,,,
Van Heerden - Sabie Pharmacy,30.786713,-25.095218,,Pharmacy,Hoofstraat 97,,,,,,,,,,,,,,,,,,,,
Mopani  - Ilanga Pharmacy,30.957635,-25.469217,,Pharmacy,"Shop LG01, Cnr Flamboyant & Bitterbessie Street",,,,,,,,,,,,,,,,,,,,
Mopani Pharmacy,30.967492,-25.437203,,Pharmacy,Shop 27,,,,,,,,,,,,,,,,,,,,
Pharmacy @ Spar Plaza Pharmacy,30.97926,-25.46759,,Pharmacy,"7 Henshall St, Nelspruit 312-Jt Henshall St, Nelspruit 312-Jt, Nelspruit",,,,,,,,,,,,,,,,,,,,
Driefontein Pharmacy,29.204793,-26.521754,,Pharmacy,"29 Pieter Wenning St, Secunda, 2302",,,,,,,,,,,,,,,,,,,,
Protea Medi-wise Depot Pharmacy,29.199982,-26.513463,,Pharmacy,4 Charl Cilliers Street,,,,,,,,,,,,,,,,,,,,
Trichardt Pharmacy,29.228775,-26.488509,,Pharmacy,"20 Barney Molokwane, Trichardt, Secunda, 2302",,,,,,,,,,,,,,,,,,,,
Ogies Pharmacy,29.05721,-26.04731,,Pharmacy,"17 Van Riebeeck Street, Ogies, 2230",,,,,,,,,,,,,,,,,,,,
Parkmed Pharmacy,29.242784,-25.876347,,Pharmacy,64 Mandela Drive,,,,,,,,,,,,,,,,,,,,
Laeveld + Clinic,31.015264,-25.329667,,Pharmacy,13 Chief Mgiyeni Khumalo Drive,,,,,,,,,,,,,,,,,,,,
Tasbet,29.237273,-25.924686,,Pharmacy,Cnr Boekenhout & Springbok STr,,,,,,,,,,,,,,,,,,,,
Eastdene,29.48013,-25.774822,,Pharmacy,"Shop 14, Cnr Cowen Ntuli & Verdoorn Str",,,,,,,,,,,,,,,,,,,,
Pharmacy at SPAR Whiteriver Mall ,31.021204,-25.326834,,Pharmacy,"SHOP 8 WHITERIVER MALL , WHITERIVER 1074",,,,,,,,,,,,,,,,,,,,
Pharmacy at SPAR Elukwatini,30.79251,-26.039105,,Pharmacy,"Elukwatini Crossing Shopping Centre, Shop 14, Elukwatini, Elukwatini-C, Albert Luthuli Rural, 1190",,,,,,,,,,,,,,,,,,,,
Pharmacy at SPAR Malelane,31.507584,-25.496888,,Pharmacy,"SHOP 12, INKWAZI SHOPPING CENTRE, MALELANE",,,,,,,,,,,,,,,,,,,,
Pharmacy at SPAR Plaza,30.979133,-25.468439,,Pharmacy,"SHOP 48, NELSPRUIT PLAZA, CNR HENSHALL AND BESTER STR",,,,,,,,,,,,,,,,,,,,
Pharmacy at SPAR Groblersdal,29.394643,-25.164917,,Pharmacy,"Shop 14, Game Centre, Cnr Grobler Ave & Barlow street, Groblersdal",,,,,,,,,,,,,,,,,,,,
Pharmacy at SPAR Marble Hall,29.295896,-24.971253,,Pharmacy,"Shop 2, Spar Centre, Main road, Marble hall",,,,,,,,,,,,,,,,,,,,
Ons Pharmacy,18.844107,-29.242307,,Pharmacy,"Shop 11, Havelock Avenue",,,,,,,,,,,,,,,,,,,,
Christiana Pharmacy,25.165477,-27.914404,,Pharmacy,10A Pretorius Street,,,,,,,,,,,,,,,,,,,,
De Aar Pharmacy,24.012341,-30.651059,,Pharmacy,17 Main Street,,,,,,,,,,,,,,,,,,,,
Douglas Pharmacy,23.773858,-29.051892,,Pharmacy,Barkley Street,,,,,,,,,,,,,,,,,,,,
Hopetown Pharmacy,24.08323,-29.62218,,Pharmacy,Church St,,,,,,,,,,,,,,,,,,,,
Jan Kemp Pharmacy,24.834164,-27.924189,,Pharmacy,Grens Street,,,,,,,,,,,,,,,,,,,,
Kakamas Pharmacy,20.619947,-28.772298,,Pharmacy,Voortrekker Street,,,,,,,,,,,,,,,,,,,,
Kathu  Pharmacy,23.046544,-27.696319,,Pharmacy,1421 Rietbok St,,,,,,,,,,,,,,,,,,,,
Libra Pharmacy,24.749644,-28.743956,,Pharmacy,108 Long Street,,,,,,,,,,,,,,,,,,,,
Assembly Pharmacy,24.76605,-28.72851,,Pharmacy,137 Transvaal Road,,,,,,,,,,,,,,,,,,,,
Citi-Kem Pharmacy,24.76039,-28.737036,,Pharmacy,16 Pniel Road,,,,,,,,,,,,,,,,,,,,
Hartswater Pharmacy,24.813338,-27.754073,,Pharmacy,16 DF Malan Street,,,,,,,,,,,,,,,,,,,,
Kimberley Pharmacy,24.76412,-28.73869,,Pharmacy,16 Market Square,,,,,,,,,,,,,,,,,,,,
Kim-Kem Apteek,24.772172,-28.749837,,Pharmacy,Memorial Road,,,,,,,,,,,,,,,,,,,,
Oryx Pharmacy,21.24852,-28.45469,,Pharmacy,62 Mark Street,,,,,,,,,,,,,,,,,,,,
Piet Muller Pharmacy,24.76522,-28.73848,,Pharmacy,52 Market Square,,,,,,,,,,,,,,,,,,,,
Zest Pharmacy,24.7695,-28.7232,,Pharmacy,5 Fig Street,,,,,,,,,,,,,,,,,,,,
Kalahari Pharmacy,23.433623,-27.462658,,Pharmacy,"CNR VOORTREKKER & BEARE STREET, KURUMAN, Kuruman, 8460",,,,,,,,,,,,,,,,,,,,
Palmae Pharmacy,23.439061,-27.463026,,Pharmacy,Frylinck Street,,,,,,,,,,,,,,,,,,,,
Lime Acres Pharmacy,23.525232,-28.355511,,Pharmacy,Jade Street,,,,,,,,,,,,,,,,,,,,
Crystal Pharmacy,24.75073,-28.728578,,Pharmacy,8 Popham Cl,,,,,,,,,,,,,,,,,,,,
Six Pharmacy,21.247398,-28.456276,,Pharmacy,45 Scott Street,,,,,,,,,,,,,,,,,,,,
Upington Pharmacy,21.247094,-28.457566,,Pharmacy,33 Schroder Street,,,,,,,,,,,,,,,,,,,,
Pro-Med Pharmacy,23.108419,-28.309277,,Pharmacy,Progress Building,,,,,,,,,,,,,,,,,,,,
Medi-Dal Pharmacy,21.259986,-34.090615,,Pharmacy,Cnr Dickson & Barry Street,,,,,,,,,,,,,,,,,,,,
Nuweveld Pharmacy,22.582664,-32.347659,,Pharmacy,47 Donkin Street,,,,,,,,,,,,,,,,,,,,
Durbell Blomtuin Pharmacy                                   ,18.649418,-33.884345,,Pharmacy,Suikerbossie Street,,,,,,,,,,,,,,,,,,,,
Bonnievale Pharmacy,20.101417,-33.939926,,Pharmacy,93B Main Road,,,,,,,,,,,,,,,,,,,,
Apteek Ceres,19.312366,-33.369284,,Pharmacy,104 Voortrekker Road,,,,,,,,,,,,,,,,,,,,
Sederkem Apteek                                   ,18.893161,-32.175541,,Pharmacy,Augsberg Ave,,,,,,,,,,,,,,,,,,,,
Darling Pharmacy & Medicine Depot,18.379522,-33.375603,,Pharmacy,18B Main Way,,,,,,,,,,,,,,,,,,,,
Hex-Kem Apteek                                    ,19.665078,-33.476327,,Pharmacy,41 Voortrekker Road,,,,,,,,,,,,,,,,,,,,
Franschhoek Pharmacy,19.117721,-33.908829,,Pharmacy,62 A Hugenot Street,,,,,,,,,,,,,,,,,,,,
Medical Centre Pharmacy,22.457319,-33.957938,,Pharmacy,"Cnr York Street & Gloucester Lane, George, 6529",,,,,,,,,,,,,,,,,,,,
Riverside Pharmacy - George,22.451206,-33.956755,,Pharmacy,7 Herrie Street,,,,,,,,,,,,,,,,,,,,
E Coetzee Pharmacy,22.454139,-33.962725,,Pharmacy,72 York Street,,,,,,,,,,,,,,,,,,,,
Geneva Pharmacy & Medicine Depot,22.488747,-33.960238,,Pharmacy,106 Stander Street,,,,,,,,,,,,,,,,,,,,
King George Pharmacy                              ,22.441455,-33.977353,,Pharmacy,1 York Street,,,,,,,,,,,,,,,,,,,,
Loerie Pharmacy                                   ,22.467823,-33.942563,,Pharmacy,6-4th Avenue,,,,,,,,,,,,,,,,,,,,
Morris Pharmacy,22.457996,-33.959047,,Pharmacy,92 Hibernia Street,,,,,,,,,,,,,,,,,,,,
Pharma Warehouse Pharmacy - George,22.432642,-33.95075,,Pharmacy,"Shop No 7b Heather Park Centre, 1 Witfontein Road, Heather Park, George, 6529",,,,,,,,,,,,,,,,,,,,
Protea Pharmacy,22.455541,-33.960386,,Pharmacy,92 York Street,,,,,,,,,,,,,,,,,,,,
Ress & Van Zyl Pharmacy,22.458087,-33.959865,,Pharmacy,83 Hibernia street,,,,,,,,,,,,,,,,,,,,
Grabouw Pharmacy                                  ,18.986371,-34.158334,,Pharmacy,38 Main Road,,,,,,,,,,,,,,,,,,,,
Grootbrak Apteek CC,22.214718,-34.048221,,Pharmacy,49 Long Street,,,,,,,,,,,,,,,,,,,,
Hartenbos Apteek                                  ,22.111461,-34.12459,,Pharmacy,"Cnr Kaap De Goedehoop & Majuba Avenue, Hartenbos, Mossel Bay, 6520",,,,,,,,,,,,,,,,,,,,
Heidelberg Pharmacy,20.958081,-34.090564,,Pharmacy,33 Fourie street,,,,,,,,,,,,,,,,,,,,
Alex Grant Pharmacy,19.241886,-34.420424,,Pharmacy,66 Main Road,,,,,,,,,,,,,,,,,,,,
Hermanus Apteek                                   ,19.242722,-34.419228,,Pharmacy,145 Main Road,,,,,,,,,,,,,,,,,,,,
Graceland Pharmacy,18.671738,-34.047882,,Pharmacy,"Sop 6, Walter Sisulu Rd",,,,,,,,,,,,,,,,,,,,
Albertyn Pharmacy,19.034578,-34.33956,,Pharmacy," Shop 2,  Main Road",,,,,,,,,,,,,,,,,,,,
Kleinmond Kliniek Pharmacy,19.032715,-34.340237,,Pharmacy,"25 Main Rd, Kleinmond, 7195",,,,,,,,,,,,,,,,,,,,
The Knysna Central Pharmacy                       ,23.048678,-34.035744,,Pharmacy,19 Main Street,,,,,,,,,,,,,,,,,,,,
Knysna Kem Pharmacy,23.049682,-34.032702,,Pharmacy,"Shop 41, Long Street",,,,,,,,,,,,,,,,,,,,
Village Pharmacy                                  ,23.04496,-34.03514,,Pharmacy,43 Main Street,,,,,,,,,,,,,,,,,,,,
Lambertsbaai Pharmacy,18.306278,-32.093961,,Pharmacy,"Shop 2, Main Street",,,,,,,,,,,,,,,,,,,,
Langebaan Pharmacy                                ,18.033733,-33.090573,,Pharmacy,Oostewal Street,,,,,,,,,,,,,,,,,,,,
Geard Pharmacy,18.728675,-33.460875,,Pharmacy,Voortrekker Road,,,,,,,,,,,,,,,,,,,,
Swartland Pharmacy,18.729053,-33.462836,,Pharmacy,Shop 20,,,,,,,,,,,,,,,,,,,,
Montagu Pharmacy                                  ,20.125206,-33.785858,,Pharmacy,"57 Bath St, Bergsig, Montagu, 6720",,,,,,,,,,,,,,,,,,,,
Danabay Medicine Depot,22.051091,-34.193022,,Pharmacy,13 Malva Road,,,,,,,,,,,,,,,,,,,,
Fanie`s Apteek & Medisyne Depot                   ,22.143128,-34.182334,,Pharmacy,93 Marsh Street,,,,,,,,,,,,,,,,,,,,
Fraaikem Pharmacy,22.149857,-34.079682,,Pharmacy,Spar Centre,,,,,,,,,,,,,,,,,,,,
Mosskem Apteek                                    ,22.109792,-34.124479,,Pharmacy,Kompanje Avenue,,,,,,,,,,,,,,,,,,,,
Webb And Savoy Pharmacy                           ,18.472067,-33.949835,,Pharmacy,34 Main Road,,,,,,,,,,,,,,,,,,,,
Onrus Pharmacy                                    ,19.164357,-34.407559,,Pharmacy,"88 Main Rd, Onrus River, Onrus, 7201",,,,,,,,,,,,,,,,,,,,
Watson & Brink Pharmacy,22.205045,-33.590845,,Pharmacy,73 High Street,,,,,,,,,,,,,,,,,,,,
Sentra-Kem Apteek                                 ,18.96172,-33.74409,,Pharmacy,154A Main Street,,,,,,,,,,,,,,,,,,,,
Piketberg Pharmacy,18.757371,-32.906708,,Pharmacy,21 Hoof Street,,,,,,,,,,,,,,,,,,,,
Salmarz Pharmacy,18.489236,-33.942907,,Pharmacy,"Ground Floor, Alexandra Road",,,,,,,,,,,,,,,,,,,,
Plettenberg Bay Medicine Depot,23.370566,-34.055327,,Pharmacy,"No12 , High Street",,,,,,,,,,,,,,,,,,,,
Robberg Pharmacy                                  ,23.371873,-34.062844,,Pharmacy,"Shop 2 Beacon Island Centre, Beacon Island Crescent, Plettenberg Bay, 6600",,,,,,,,,,,,,,,,,,,,
Porterville Apteek                                ,18.993246,-33.011229,,Pharmacy,41 Voortrekker Road,,,,,,,,,,,,,,,,,,,,
Stipp Pharmacy,19.913183,-34.150486,,Pharmacy,"36 Main Rd, Riviersonderend, 7250",,,,,,,,,,,,,,,,,,,,
Robertson Pharmacy,19.881781,-33.803601,,Pharmacy,68 Church Street,,,,,,,,,,,,,,,,,,,,
Wynland Apteek                                    ,19.880762,-33.801846,,Pharmacy,Van Reenen Street,,,,,,,,,,,,,,,,,,,,
Sedgefield Pharmacy                               ,22.801379,-34.014404,,Pharmacy,"Shop 1, Main Street, ",,,,,,,,,,,,,,,,,,,,
Die Boord Pharmacy,18.851295,-33.944185,,Pharmacy,"Shop 14, Saffraam Road ",,,,,,,,,,,,,,,,,,,,
Medi-Health Pharmacy                              ,18.859291,-33.938436,,Pharmacy,"Shop 4, Cnr Dorp & Meul Street",,,,,,,,,,,,,,,,,,,,
Stelkor Kampus Pharmacy,18.859858,-33.939744,,Pharmacy,8 de Beer Street,,,,,,,,,,,,,,,,,,,,
Stelkor Pharmacy,18.859858,-33.939744,,Pharmacy,34 Piet Retief Street,,,,,,,,,,,,,,,,,,,,
Simonsrust Pharmacy,18.878114,-33.926363,,Pharmacy,C/o Cluver & Helshoogte Road,,,,,,,,,,,,,,,,,,,,
Pharma-Kem Pharmacy,18.829454,-34.115986,,Pharmacy,40 Fagan Street ,,,,,,,,,,,,,,,,,,,,
Vitacare Greenways Pharmacy,18.836626,-34.122866,,Pharmacy,"Shop 10, Southside Shopping Centre, Gordon's Bay Road, STRAND",,,,,,,,,,,,,,,,,,,,
Struisbaai Pharmacy                               ,20.052455,-34.801704,,Pharmacy,15 Malvern Drive ,,,,,,,,,,,,,,,,,,,,
Protea Pharmacy                                   ,22.45598,-33.960492,,Pharmacy,140 Voortrekker Street,,,,,,,,,,,,,,,,,,,,
Swellendam Pharmacy                               ,20.44342,-34.020351,,Pharmacy,45 Voortrekker Street,,,,,,,,,,,,,,,,,,,,
Kruger Pharmacy,19.291188,-33.990925,,Pharmacy,36 Main Road,,,,,,,,,,,,,,,,,,,,
Distrik Pharmacy,17.997126,-32.906768,,Pharmacy,35 Main Road,,,,,,,,,,,,,,,,,,,,
Weskem Apteek                                     ,17.988901,-32.906524,,Pharmacy,Main Road,,,,,,,,,,,,,,,,,,,,
Medkem Pharmacy,18.506913,-31.665758,,Pharmacy,"De Keur Centre, 27 Kerk Rd, Vredendal, 8160",,,,,,,,,,,,,,,,,,,,
Vredendal Pharmacy,18.507962,-31.673669,,Pharmacy,"23 Kerk St, Vredendal, 8160",,,,,,,,,,,,,,,,,,,,
Durbell Capegate Pharmacy,18.634983,-33.87405,,Pharmacy,,,,,,,,,,,,,,,,,,,,,
Durbell Sanlamhof Pharmacy,18.660451,-33.908741,,Pharmacy,4 strand Road,,,,,,,,,,,,,,,,,,,,
Durbell Oudehof Pharmacy,18.612723,-33.858677,,Pharmacy,,,,,,,,,,,,,,,,,,,,,
Durbell Panorama Pharmacy,18.581942,-33.883602,,Pharmacy,,,,,,,,,,,,,,,,,,,,,
Durbell Palm Grove Pharmacy,18.647794,-33.833622,,Pharmacy,,,,,,,,,,,,,,,,,,,,,
Medicare Pharmacy                                 ,18.476931,-34.057321,,Pharmacy,Retreat Road,,,,,,,,,,,,,,,,,,,,
Sunningdale Pharmacy                              ,18.50471,-33.82245,,Pharmacy,1 Merlot Avenue,,,,,,,,,,,,,,,,,,,,
M A L Tothills Pharmacy,18.422662,-33.920023,,Pharmacy,18 Lower Burg Street,,,,,,,,,,,,,,,,,,,,
Vitacare Pharmacy Rylands (Unikem),18.54301,-33.969781,,Pharmacy,Klipfontein Road,,,,,,,,,,,,,,,,,,,,
Vitacare Pharmacy - Penlyn,18.522308,-33.988239,,Pharmacy,Bellmore Avenue,,,,,,,,,,,,,,,,,,,,
Anchor Pharmacy                                   ,22.937506,-30.559482,,Pharmacy,28 Lawrence Road,,,,,,,,,,,,,,,,,,,,
Arun Place Pharmacy,18.863771,-34.093119,,Pharmacy,Schaapenberg Road,,,,,,,,,,,,,,,,,,,,
Ascot Pharmacy                                    ,23.04186,-34.036086,,Pharmacy,Knysna Road,,,,,,,,,,,,,,,,,,,,
Athlone Pharmacy                                  ,18.50539,-33.961744,,Pharmacy,29 Old Klipfontein Road,,,,,,,,,,,,,,,,,,,,
Atlantic View Pharmacy,18.439439,-33.729148,,Pharmacy,"Shop 2 , 6th Avenue",,,,,,,,,,,,,,,,,,,,
Atlantis Pharmacy                                 ,18.493998,-33.563562,,Pharmacy,Shop 7,,,,,,,,,,,,,,,,,,,,
Bantry Bay Pharmacy                               ,18.35014,-34.0425,,Pharmacy,29 Victoria Road,,,,,,,,,,,,,,,,,,,,
Barr`s Pharmacy                                   ,18.421795,-33.920699,,Pharmacy,58 Strand Street,,,,,,,,,,,,,,,,,,,,
Baykem Pharmacy,18.856584,-34.14625,,Pharmacy,"24, Village Walk Centre, Faure Marine Dr, Gordons Bay Central, Cape Town",,,,,,,,,,,,,,,,,,,,
Bel-Air Pharmacy,18.647704,-33.947804,,Pharmacy,"Shop 50, Cnr Stellenbosch Rd & Belhar Drive",,,,,,,,,,,,,,,,,,,,
Bel-Kem Pharmacy                                  ,18.689457,-33.921772,,Pharmacy,Amandel Road,,,,,,,,,,,,,,,,,,,,
Blackburn`s Pharmacy                              ,18.480972,-34.030552,,Pharmacy,153 Victoria Road,,,,,,,,,,,,,,,,,,,,
Blooms Chemists                                   ,18.997439,-33.642424,,Pharmacy,3 Kloof Street,,,,,,,,,,,,,,,,,,,,
B M C Pharmacy                                    ,18.64792,-33.94538,,Pharmacy,"70 Belhar Drive, Belhar Ext 20, 7493",,,,,,,,,,,,,,,,,,,,
Bonteheuwel Pharmacy                              ,18.546181,-33.953838,,Pharmacy,488 Bonteheuwel Avenue,,,,,,,,,,,,,,,,,,,,
Braude's Pharmacy,18.503395,-33.96204,,Pharmacy,31 Lawrence Road,,,,,,,,,,,,,,,,,,,,
Brightkem Pharmacy,22.937506,-30.559482,,Pharmacy,50 Brighton Road,,,,,,,,,,,,,,,,,,,,
Cape Town Station Pharmacy                        ,18.42461,-33.92028,,Pharmacy,"Unit 4, Adderley Street",,,,,,,,,,,,,,,,,,,,
Caras Pharmacy                                    ,18.542725,-33.979039,,Pharmacy,129 Comet Road,,,,,,,,,,,,,,,,,,,,
Chavda Pharmacy,18.547981,-33.970535,,Pharmacy,"4 Pluto Road, Surrey Estate, Cape Town",,,,,,,,,,,,,,,,,,,,
Chemcare Pharmacy,18.61873,-34.03894,,Pharmacy,37 Korfbal Street,,,,,,,,,,,,,,,,,,,,
Chemcare Pharmacy - Church Way,18.57121,-34.07304,,Pharmacy,6 Church Way,,,,,,,,,,,,,,,,,,,,
Chinn`s Corner Pharmacy                           ,18.4196,-33.93345,,Pharmacy,169 Buitenkant Street,,,,,,,,,,,,,,,,,,,,
Circle Apteek                                     ,18.419862,-33.922029,,Pharmacy,Main Road,,,,,,,,,,,,,,,,,,,,
City-Kem Pharmacy                                 ,18.48188,-33.92343,,Pharmacy,161B Voortrekker Road,,,,,,,,,,,,,,,,,,,,
Netcare Christiaan Barnard Memorial Pharmacy,18.417918,-33.921926,,Pharmacy,181 Longmarket Street,,,,,,,,,,,,,,,,,,,,
Constantia Pharmacy,18.42937,-34.03471,,Pharmacy,"Shop 25, Constantia Road",,,,,,,,,,,,,,,,,,,,
Culemborg Pharmacy                                ,18.428458,-33.917382,,Pharmacy,Heerengracht Street,,,,,,,,,,,,,,,,,,,,
Cylnor Pharmacy,18.832891,-34.062613,,Pharmacy,Old Stellenbosch Road,,,,,,,,,,,,,,,,,,,,
Eikendal Pharmacy                                 ,18.562911,-33.909801,,Pharmacy,247 Voortrekker Road,,,,,,,,,,,,,,,,,,,,
C A Faull Pharmacy                                ,18.5554,-33.91094,,Pharmacy,169 Voortrekker Road,,,,,,,,,,,,,,,,,,,,
Fir-Kem Pharmacy                                  ,18.525518,-33.980626,,Pharmacy,111 Repulse Road,,,,,,,,,,,,,,,,,,,,
Forest Glade Sunkem Pharmacy                      ,18.457471,-34.066399,,Pharmacy,"Shop 5, Tokai Rd",,,,,,,,,,,,,,,,,,,,
Gatesville Pharmacy                               ,22.937506,-30.559482,,Pharmacy,76 Flat Road,,,,,,,,,,,,,,,,,,,,
Goedehoop Pharmacy,22.937506,-30.559482,,Pharmacy,10 Broadway Road,,,,,,,,,,,,,,,,,,,,
Heldervue Pharmacy                                ,18.820986,-34.061766,,Pharmacy,Heldervue ,,,,,,,,,,,,,,,,,,,,
Hypermed Pharmacy                                 ,22.937506,-30.559482,,Pharmacy,Cnr York & Main Road,,,,,,,,,,,,,,,,,,,,
Jafmed Pharmacy,18.509752,-34.01682,,Pharmacy,328 Ottery Road,,,,,,,,,,,,,,,,,,,,
Kem-Park Pharmacy                                 ,18.506,-34.014661,,Pharmacy,Ottery Road,,,,,,,,,,,,,,,,,,,,
Kemtique Pharmacy                                 ,18.559543,-33.878105,,Pharmacy,102 Monte Vista Boulevard,,,,,,,,,,,,,,,,,,,,
Kenmed Pharmacy                                   ,27.99938,-26.13843,,Pharmacy,90 5th Avenue,,,,,,,,,,,,,,,,,,,,
Kenridge Pharmacy                                 ,18.633869,-33.861605,,Pharmacy,"IPIC Kendridge Centre, Door De Kraal Ave, Kenridge, Cape Town, 7550",,,,,,,,,,,,,,,,,,,,
Khayelitsha Pharmacy,18.665797,-34.023849,,Pharmacy,"Site B, Sulani Road",,,,,,,,,,,,,,,,,,,,
Klein Panorama Pharmacy,18.571328,-33.88403,,Pharmacy,"President Swart St, Panorama, Parow, 7500",,,,,,,,,,,,,,,,,,,,
Vitacare Pharmacy - Kromboom,18.501682,-33.973315,,Pharmacy,Kromboom Street,,,,,,,,,,,,,,,,,,,,
Lakeside Pharmacy                                 ,18.467744,-34.104472,,Pharmacy,62 Main Road,,,,,,,,,,,,,,,,,,,,
Lentegeur Pharmacy                                ,18.614238,-34.047193,,Pharmacy,Merrydale Road,,,,,,,,,,,,,,,,,,,,
Lifestyle Pharmacy                                ,18.459002,-34.064609,,Pharmacy,"Shop17, Main Road",,,,,,,,,,,,,,,,,,,,
Lite Kem Pharmacy                                 ,18.42271,-33.92441,,Pharmacy,24 Darling Street,,,,,,,,,,,,,,,,,,,,
Meadowridge Pharmacy,18.44652,-34.04198,,Pharmacy,Shop 15/16 Firgrove Way,,,,,,,,,,,,,,,,,,,,
Medi-Kem Pharmacy                                 ,18.514941,-33.968386,,Pharmacy,77 Belgravia Road,,,,,,,,,,,,,,,,,,,,
Medi-Place Pharmacy                               ,18.454639,-33.931114,,Pharmacy,187 Victoria Road,,,,,,,,,,,,,,,,,,,,
Medi-Plein Pharmacy,18.65128,-33.82626,,Pharmacy,8A Plein Street,,,,,,,,,,,,,,,,,,,,
Merlot Pharmacy                                   ,18.504974,-33.822633,,Pharmacy,Shop 1 Merlot Avenue,,,,,,,,,,,,,,,,,,,,
Minikem Pharmacy - Goodwood                       ,18.552325,-33.910304,,Pharmacy,187 Voortrekker Road,,,,,,,,,,,,,,,,,,,,
M-Kem Medicine City,18.634201,-33.886651,,Pharmacy,Durban Road,,,,,,,,,,,,,,,,,,,,
Monument Pharmacy                                 ,18.33246,-33.05792,,Pharmacy,75 Voortrekker Road,,,,,,,,,,,,,,,,,,,,
Newlands Pharmacy                                 ,18.464793,-33.971558,,Pharmacy,"Shop 3, Dean Street Arcade",,,,,,,,,,,,,,,,,,,,
Noyes Pharmacy,18.46882,-33.995674,,Pharmacy,Cnr Mains Ave & Main Road,,,,,,,,,,,,,,,,,,,,
Nu-Pharmacy Cavendish Square                      ,18.463796,-33.980358,,Pharmacy,G42 Cavendish Square,,,,,,,,,,,,,,,,,,,,
Nu Crane Pharmacy Mitchell's Plain,18.614594,-34.028389,,Pharmacy,"Suite 1, Promenade Med Centre, Lentegeur",,,,,,,,,,,,,,,,,,,,
Nu-Crane Pharmacy                                 ,18.566122,-33.909258,,Pharmacy,281 Voortrekker Road,,,,,,,,,,,,,,,,,,,,
Nu-Kem Pharmacy                                   ,18.621271,-34.049445,,Pharmacy,18 Symphony Walk,,,,,,,,,,,,,,,,,,,,
Olsen`s Pharmacy                                  ,18.41856,-33.923251,,Pharmacy,129 Long Street,,,,,,,,,,,,,,,,,,,,
Panorama Pharmacy,18.576799,-33.884176,,Pharmacy,"Hendrik Verwoerd Drive, Panorama, Parow, 7500",,,,,,,,,,,,,,,,,,,,
Parow Family Pharmacy,18.551138,-33.911983,,Pharmacy,C/o Jan van Riebeeck & Voortrekker Road,,,,,,,,,,,,,,,,,,,,
Petrie`s Pharmacy                                 ,18.38611,-33.91969,,Pharmacy,13 Regent Road,,,,,,,,,,,,,,,,,,,,
Pharmacy City Pharmacy                            ,18.560877,-33.890907,,Pharmacy,Shop 35 ,,,,,,,,,,,,,,,,,,,,
Reddam Pharmacy                                   ,18.431871,-34.073096,,Pharmacy,,,,,,,,,,,,,,,,,,,,,
Reo Pharmacy                                      ,18.565606,-33.916838,,Pharmacy,Cnr Halt & Epping Ave,,,,,,,,,,,,,,,,,,,,
Rondebosch East Pharmacy,18.499916,-33.973361,,Pharmacy,88 Kroomboom Road,,,,,,,,,,,,,,,,,,,,
Rossiers Pharmacy                                 ,18.5122,-33.90839,,Pharmacy,"Shop 12, ",,,,,,,,,,,,,,,,,,,,
Rustenburg Pharmacy                               ,18.471126,-33.958852,,Pharmacy,23 Main Road,,,,,,,,,,,,,,,,,,,,
Seaside Pharmacy,18.47782,-33.82231,,Pharmacy,Shop 4 Blouberg Road,,,,,,,,,,,,,,,,,,,,
Sentinel Dispensary                               ,18.349332,-34.036707,,Pharmacy,Victoria Avenue,,,,,,,,,,,,,,,,,,,,
Silverglades Pharmacy                             ,18.420869,-34.132511,,Pharmacy,Valleyland Centre,,,,,,,,,,,,,,,,,,,,
Simon's Town Pharmacy,18.42051,-33.92319,,Pharmacy,102 St Georges Street,,,,,,,,,,,,,,,,,,,,
Stellenberg Pharmacy                              ,18.660023,-33.867464,,Pharmacy,Cnr Reiger & Haarlem Rds,,,,,,,,,,,,,,,,,,,,
Steps To Health Pharmacy                          ,18.460871,-34.033993,,Pharmacy,85 Boundry Road,,,,,,,,,,,,,,,,,,,,
Sun Valley No 2 Pharmacy                          ,18.389338,-34.124213,,Pharmacy,Shop G68 Longbeach Mall,,,,,,,,,,,,,,,,,,,,
Sunset Pharmacy,18.997439,-33.642424,,Pharmacy,3 Kloof Street,,,,,,,,,,,,,,,,,,,,
Symphony Pharmacy                                 ,18.621271,-34.049445,,Pharmacy,"Shop F2, Symphony Walk",,,,,,,,,,,,,,,,,,,,
David Bloom Pharmacy                              ,18.434779,-34.061808,,Pharmacy,Tokai Road,,,,,,,,,,,,,,,,,,,,
Southern Suburbs Pharmacy                         ,18.482975,-33.977552,,Pharmacy,56 Belvedere Road,,,,,,,,,,,,,,,,,,,,
Vigne Pharmacy,18.465016,-33.977683,,Pharmacy,35 Main Rd,,,,,,,,,,,,,,,,,,,,
Koeberg Pharmacy,18.58826,-33.90604,,Pharmacy,216 Voortrekker Road,,,,,,,,,,,,,,,,,,,,
Vitacare Pharmacy - Plattekloof                   ,22.937506,-30.559482,,Pharmacy,"Shop 2 , Olienhout Drive",,,,,,,,,,,,,,,,,,,,
Vitacare Pharmacy - Rondebosch                    ,18.470375,-33.962216,,Pharmacy,"Shop 15, Riverside Centre, Main Rd, Rondebosch, Cape Town, 7700",,,,,,,,,,,,,,,,,,,,
Vitacare Pharmacy - Lansdowne,18.512505,-33.998816,,Pharmacy,650 Lansdowne Road,,,,,,,,,,,,,,,,,,,,
Warrens Pharmacy,18.468194,-34.104773,,Pharmacy,71 Main Road,,,,,,,,,,,,,,,,,,,,
The Waterfront Pharmacy                           ,18.419815,-33.903607,,Pharmacy,"Shop 139 ,Victoria Wharf",,,,,,,,,,,,,,,,,,,,
Waterstone Pharmacy,18.822811,-34.070028,,Pharmacy,Shop 7,,,,,,,,,,,,,,,,,,,,
Wavecrest Pharmacy                                ,18.548543,-34.071615,,Pharmacy,Cnr Benguela & Wavecrest,,,,,,,,,,,,,,,,,,,,
Welgelegen Apteek,18.702861,-33.704139,,Pharmacy,Malmesbury Road,,,,,,,,,,,,,,,,,,,,
West-Care Pharmacy                                ,18.575314,-33.929314,,Pharmacy,306 Halt Road,,,,,,,,,,,,,,,,,,,,
Westgate Pharmacy,23.04496,-34.03514,,Pharmacy,Shop 81,,,,,,,,,,,,,,,,,,,,
Westport Pharmacy                                 ,18.475272,-33.803916,,Pharmacy,Shop 19 Sanddown Road,,,,,,,,,,,,,,,,,,,,
Wheelers Pharmacy,18.359005,-34.042673,,Pharmacy,Main Road,,,,,,,,,,,,,,,,,,,,
Witzen Pharmacy,19.315352,-33.366754,,Pharmacy,"25 Pick N Pay Cntr, 125 Voortrekker Str, Ceres",,,,,,,,,,,,,,,,,,,,
Wynberg Pharmacy                                  ,18.468892,-34.008467,,Pharmacy,222 Main Road,,,,,,,,,,,,,,,,,,,,
P Zetler Pharmacy,18.41562,-33.934065,,Pharmacy,12 Mill Street,,,,,,,,,,,,,,,,,,,,
Drakenstein Pharmacy,18.979288,-33.730016,,Pharmacy,"55 JAN VAN RIEBEECK ROAD, PAARL 7646",,,,,,,,,,,,,,,,,,,,
Gys Smit Pharmacy                                 ,18.965329,-33.730089,,Pharmacy,Fabriek Street,,,,,,,,,,,,,,,,,,,,
Paarl Noord Pharmacy,18.961139,-33.704185,,Pharmacy,555A Main Road,,,,,,,,,,,,,,,,,,,,
Roodeberg Apteek                                  ,18.962615,-33.744005,,Pharmacy,175 Main Road,,,,,,,,,,,,,,,,,,,,
McCaughey Pharmacy,25.586261,-32.718929,,Pharmacy,52 Nojoli Street,,,,,,,,,,,,,,,,,,,,
Durbell Tyger Valley Pharmacy,18.634983,-33.87405,,Pharmacy,Shop 553 ,,,,,,,,,,,,,,,,,,,,
Durban Street Pharmacy                            ,19.44241,-33.649457,,Pharmacy,126 B Durban Street,,,,,,,,,,,,,,,,,,,,
Fairbairn Pharmacy,19.450173,-33.644387,,Pharmacy,64A Fairbairn Street,,,,,,,,,,,,,,,,,,,,
Medi Kem Pharmacy,19.450368,-33.64123,,Pharmacy,"26A, Hoog Street",,,,,,,,,,,,,,,,,,,,
Narotam Pharmacy                                  ,19.443702,-33.646581,,Pharmacy,60 Adderley Street,,,,,,,,,,,,,,,,,,,,
Ascot Pharmacy at SPAR,18.494914,-33.884603,,Pharmacy,"42 Koeberg Road, Milnerton",,,,,,,,,,,,,,,,,,,,
Caledon Apteek/Pharmacy at SPAR Caledon,19.426902,-34.231791,,Pharmacy,"LILIAN LAING BUILDING, PRINS ALFRED ROAD, CALEDON 7230",,,,,,,,,,,,,,,,,,,,
Pharmacy at SPAR Cape Quarter ,18.418106,-33.91554,,Pharmacy,"27 Somerset road, green point",,,,,,,,,,,,,,,,,,,,
Citrusdal Apteek/ Pharmacy at SPAR Citrusdal,19.013163,-32.593367,,Pharmacy,"46 Voortrekker St, Citrusdal, 7340",,,,,,,,,,,,,,,,,,,,
Pharmacy at SPAR Cylnor,18.834064,-34.063592,,Pharmacy,"Cylnor centre, old stellenbosch road, somerset west",,,,,,,,,,,,,,,,,,,,
Geard Pharmacy at SPAR/Pharmacy at SPAR Geard,18.728675,-33.460875,,Pharmacy,69 Voortrekker Road Malmesbury,,,,,,,,,,,,,,,,,,,,
Medikem Pharmacy at SPAR,19.450368,-33.64123,,Pharmacy,"26a High Street, Worcester",,,,,,,,,,,,,,,,,,,,
Mosskem Pharmacy at SPAR,22.110343,-34.123953,,Pharmacy,"SPAR Centre, cnr Kompanje and Onderbos Ave, Hartenbos",,,,,,,,,,,,,,,,,,,,
Pharmacy at Spar Cape Gate,18.693295,-33.850706,,Pharmacy,"Cape Gate Superspar.Okavango Road, Kraaifontein ",,,,,,,,,,,,,,,,,,,,
Pharmacy at Spar Aurora,18.630986,-33.833365,,Pharmacy,"Aurora Shopping centre, Cnr Aurora and Berton Roads, Durbanville, 7550",,,,,,,,,,,,,,,,,,,,
Bergvliet Pharmacy at SPAR,18.461998,-34.050307,,Pharmacy,"Harry Goemans Centre, 151 Main Road, Bergvliet",,,,,,,,,,,,,,,,,,,,
Pharmacy at Spar Laaiplek,18.154958,-32.770969,,Pharmacy,"1 Jameson Road, Laaiplek",,,,,,,,,,,,,,,,,,,,
Pharmacy at Spar Sonstraal,18.675623,-33.836335,,Pharmacy,"Cnr Langeberg Road & Verdi Boulevard, Durbanville, Cape Town, 7550",,,,,,,,,,,,,,,,,,,,
Pharmacy at SPAR Uitzicht,18.69447,-33.816093,,Pharmacy,"Shop 5, Vatican & Sicily Street, Uitzicht, Cape Town, 7570",,,,,,,,,,,,,,,,,,,,
Pharmacy at Spar Welgevonden,18.858521,-33.901975,,Pharmacy,"Welgevonden Boulevard, Cloetesville, Stellenbosch, 7600",,,,,,,,,,,,,,,,,,,,
Simon's Town Pharmacy at SPAR,18.432122,-34.193491,,Pharmacy,"102 St Georges Street, Simon's Town",,,,,,,,,,,,,,,,,,,,
Vredendal Pharmacy at SPAR,18.506727,-31.666188,,Pharmacy,"1 Pastorie St, Vredendal, 8160",,,,,,,,,,,,,,,,,,,,
Kloof street Pharmacy/Pharmacy at SPAR Kloof Street,18.41244,-33.92813,,Pharmacy,"Shop 3, 1st Floor Lifestyle On Kloof, 50 Kloof street, Cape Town, 8001",,,,,,,,,,,,,,,,,,,,
Damdoryn Pharmacy,27.8306,-25.725606,,Pharmacy,Corner of R512 and R104,,,,,,,,,,,,,,,,,,,,
Flamwood Pharmacy,26.675001,-26.848136,,Pharmacy,Sentral Ave,,,,,,,,,,,,,,,,,,,,
Pieter Nel Pharmacy,26.677722,-26.839224,,Pharmacy,"Shop 5, Cnr Tom Street and Buffelsdoorn Road",,,,,,,,,,,,,,,,,,,,
Sammel & Walker Pharmacy,26.67691,-26.83973,,Pharmacy,85 Buffelsdoorn Road,,,,,,,,,,,,,,,,,,,,
Waldorf Pharmacy,26.665906,-26.866688,,Pharmacy,25 Pretoria Street,,,,,,,,,,,,,,,,,,,,
Lichtenburg (PTY)LTD Pharmacy,26.158039,-26.149953,,Pharmacy,43 Gerrit Maritz Street,,,,,,,,,,,,,,,,,,,,
Linkmed Pharmacy,26.161707,-26.150199,,Pharmacy,33 Gerrit Maritz St,,,,,,,,,,,,,,,,,,,,
Prime Pharm Pharmacy,26.160162,-26.146944,,Pharmacy,36 Dr Nelson Mandela Dr,,,,,,,,,,,,,,,,,,,,
Eras  Pharmacy,25.644738,-25.860482,,Pharmacy,30 Nelson Mandela Drive,,,,,,,,,,,,,,,,,,,,
Itsoseng Pharmacy,25.88175,-26.08291,,Pharmacy,17 Pearl Street,,,,,,,,,,,,,,,,,,,,
Stoddarts Pharmacy,25.64441,-25.86757,,Pharmacy,11A Main Street,,,,,,,,,,,,,,,,,,,,
Molemo Good Health Pharmacy,28.049173,-25.47871,,Pharmacy,"6458 Somafco Cres, Winterveld, 0198",,,,,,,,,,,,,,,,,,,,
Molemo Pharmacy,25.603501,-25.839483,,Pharmacy,Shop 62 Megacity complex,,,,,,,,,,,,,,,,,,,,
Krishna medi Pharmacy,27.778213,-25.638612,,Pharmacy,20 De Wits Ave,,,,,,,,,,,,,,,,,,,,
Le Roux Pharmacy,27.782408,-25.632474,,Pharmacy,14 Van Velden Street,,,,,,,,,,,,,,,,,,,,
Mountain Lake Pharmacy,27.857937,-25.777102,,Pharmacy,Mountain Lake Road,,,,,,,,,,,,,,,,,,,,
Van Rensburg Pharmacy,27.780225,-25.629247,,Pharmacy,1A Hendrik Verwoerd Ave,,,,,,,,,,,,,,,,,,,,
De Villiers Health  and Home Pharmacy,27.394936,-26.357401,,Pharmacy,Shop10-11,,,,,,,,,,,,,,,,,,,,
Kampus Apteek,27.093279,-26.691576,,Pharmacy,Meyer St,,,,,,,,,,,,,,,,,,,,
La Sante Pharmacy,27.09497,-26.69247,,Pharmacy,Cachetpark,,,,,,,,,,,,,,,,,,,,
Medirex Potch Pharmacy,27.09656,-26.71097,,Pharmacy,26 Lombaard Street,,,,,,,,,,,,,,,,,,,,
Mooirivier Pharmacy,27.096983,-26.71397,,Pharmacy,199 Walter Sisulu Ln,,,,,,,,,,,,,,,,,,,,
Olien Pharmacy,28.12123,-26.26921,,Pharmacy,1  Tambo Avenue ,,,,,,,,,,,,,,,,,,,,
Potch Pharmacy,27.102473,-26.713136,,Pharmacy,Shp 51 ,,,,,,,,,,,,,,,,,,,,
Andre Pharmacy,27.24006,-25.6667,,Pharmacy,"Shop 1 Pick `n Pay Centre, Cnr Nelson Mandela Street & President Mbeki Drive",,,,,,,,,,,,,,,,,,,,
Biblio Plaza Pharmacy,27.238255,-25.668478,,Pharmacy,Cnr President Mbeki & Nelson Mandela Drive,,,,,,,,,,,,,,,,,,,,
Ibiza  Pharmacy,27.194594,-25.643725,,Pharmacy,"Shop 62, Tlou Street",,,,,,,,,,,,,,,,,,,,
Kalapeng Bapong Pharmacy,27.655642,-25.721422,,Pharmacy,"Shop 8, Key Rona Shopping Centre",,,,,,,,,,,,,,,,,,,,
Kgabo Pharmacy - Tlhabane,27.215746,-25.639368,,Pharmacy,"Shop 29, Monareng Street",,,,,,,,,,,,,,,,,,,,
Kgoaredi Pharmacy (Rustenburg),27.255854,-25.654448,,Pharmacy,"Shop 2, Church Street",,,,,,,,,,,,,,,,,,,,
Kloof Pharmacy,27.241038,-25.670686,,Pharmacy,56 Nelson Mandela Street,,,,,,,,,,,,,,,,,,,,
Mega Square Pharmacy,27.239949,-25.676947,,Pharmacy,Mega Square,,,,,,,,,,,,,,,,,,,,
Mogwase Pharmacy,27.236449,-25.273374,,Pharmacy,Shop 23,,,,,,,,,,,,,,,,,,,,
Nissens Pharmacy,27.241273,-25.666418,,Pharmacy,118 B Mbeki Drive,,,,,,,,,,,,,,,,,,,,
Rantsho (Tlhabane) Pharmacy,27.22184,-25.64556,,Pharmacy,1095 Makheni St,,,,,,,,,,,,,,,,,,,,
Thabong Good Health - Moruleng Pharmacy,27.175707,-25.155077,,Pharmacy,Main Hospital Road,,,,,,,,,,,,,,,,,,,,
Toka Pharmacy,27.242624,-25.669645,,Pharmacy,"Shop 10B, Fatima Bhayat Street",,,,,,,,,,,,,,,,,,,,
Tuine Pharmacy,27.224932,-25.694402,,Pharmacy,Cnr Safari & Arend Street,,,,,,,,,,,,,,,,,,,,
Ventersdorp Pharmacy,26.826363,-26.31731,,Pharmacy,52 Carmichael Street,,,,,,,,,,,,,,,,,,,,
Atomic Pharmacy,26.667531,-26.977766,,Pharmacy,54 Flecker Ave,,,,,,,,,,,,,,,,,,,,
Ottosdal Pharmacy,25.999546,-26.811557,,Pharmacy,88A Voortrekker Street,,,,,,,,,,,,,,,,,,,,
Wilgerpark Pharmacy,27.102051,-26.710095,,Pharmacy,15 Piet Uys Street,,,,,,,,,,,,,,,,,,,,
Cordell Pharmacy,22.937506,-30.559482,,Pharmacy,Cnr Buiten & Olivier Street,,,,,,,,,,,,,,,,,,,,
Nieuwoudt Pharmacy,25.327932,-27.191484,,Pharmacy,Buiten Street,,,,,,,,,,,,,,,,,,,,
Schweizer Pharmacy,25.328795,-27.19289,,Pharmacy,32D Schweizer Street,,,,,,,,,,,,,,,,,,,,
Deka Pharmacy,26.775178,-26.843435,,Pharmacy,Shop 3 Civic Centre,,,,,,,,,,,,,,,,,,,,
Vryburg Pharmacy,24.727247,-26.959228,,Pharmacy,19 De Kock Street,,,,,,,,,,,,,,,,,,,,
J A Erasmus  Apteek,25.982655,-27.198504,,Pharmacy,Piet Retief Street,,,,,,,,,,,,,,,,,,,,
Tambotie Pharmacy,26.07777,-25.5459,,Pharmacy,23 Church Street,,,,,,,,,,,,,,,,,,,,
Maranatha Pharmacy,26.078564,-25.545157,,Pharmacy,32 Church Street,,,,,,,,,,,,,,,,,,,,
Zeerust Pharmacy,26.08253,-25.54573,,Pharmacy,Coetzee St,,,,,,,,,,,,,,,,,,,,
Brits Mall + Clinic,27.80232,-25.650328,,Pharmacy,Cnr Hendrik Verwoerd Ave & Maple Riudge Rd,,,,,,,,,,,,,,,,,,,,
Nel 2 + Clinic,22.937506,-30.559482,,Pharmacy,"Shop 10, 26 De Witts Ave",,,,,,,,,,,,,,,,,,,,
Nel 3 + Clinic,27.840646,-26.703863,,Pharmacy,20 Carel De Wet St,,,,,,,,,,,,,,,,,,,,
Biblio Plaza + Clinic,27.238255,-25.668478,,Pharmacy,300 President Mbeki Dr,,,,,,,,,,,,,,,,,,,,
Nissens + Clinic,27.241273,-25.666418,,Pharmacy,118B President Mbeki Dr,,,,,,,,,,,,,,,,,,,,
Ridder Street,27.25418,-25.65719,,Pharmacy,38 Ridder St,,,,,,,,,,,,,,,,,,,,
Mooinooi + Clinic,27.556839,-25.750611,,Pharmacy,"Shop 13, Cnr Wilkinson & Lonrho Dr",,,,,,,,,,,,,,,,,,,,
Ifafi Pharmacy,27.900849,-25.738079,,Pharmacy,"Shop 3 Silverside Centre, 1 Die Ou Wapad Street, Ifafi, Hartbeespoort, 0260",,,,,,,,,,,,,,,,,,,,
Schoemansville + Clinic,27.872565,-25.729321,,Pharmacy,Cnr Monica & Devalera Str,,,,,,,,,,,,,,,,,,,,
Pharmacy at Spar Panorama,27.794498,-25.622762,,Pharmacy,"Shop 3 Panorama Shopping Centre, 47 Carel De Wet Avenue, Brits",,,,,,,,,,,,,,,,,,,,
Pharmacy at Spar - Lautz Ln,26.655685,-26.836576,,Pharmacy,"40 LAUTZ AVENUE, FLIMIEDA, KLERKSDORP, 2571",,,,,,,,,,,,,,,,,,,,
Pharmacy at SPAR - Foro,27.213736,-25.64077,,Pharmacy,"Shop no 3602, Foro Spar Complex, Monareng Street, Tlhabane , Rustenburg",,,,,,,,,,,,,,,,,,,,
Pharmacy at SPAR Manuka,27.20523,-25.6819,,Pharmacy,"Manuka Avenue 127, Shop 1, Geelhoutpark Extention 6, Rustenburg, 0300",,,,,,,,,,,,,,,,,,,,
Pharmacy at SPAR Meiringspark,26.638261,-26.862552,,Pharmacy,"1 Wilco Street, Meiringspark, Klerksdorp, North West, 2570",,,,,,,,,,,,,,,,,,,,
Amanzimtoti Pharmacy,30.870198,-30.065339,,Dischem Brances,"Shop G25, Galleria Shopping Centre, Cnr. Mosskolnic & N2, Umbogintwini, Amanzimtoti,   4126.     K.Z.N.",,,,,,,,,,,,,,,,,,,,
Athol Oaklands Pharmacy,28.06508,-26.12986,,Dischem Brances,"Shop 1, Bluebird Shopping Centre, Cnr. Athol Oaklands & Main Road, Birnam, 2196.  G.P.",,,,,,,,,,,,,,,,,,,,
Ballito Pharmacy,31.212412,-29.527816,,Dischem Brances,"Shop G1, Ballito Junction, Leonora Drive, Ballito, 4420.    K.Z.N.",,,,,,,,,,,,,,,,,,,,
Ballito Lifestyle Pharmacy,31.20016,-29.526512,,Dischem Brances,"Shop 65, Ballito Lifestyle Centre, Douglas Crowe Drive, Cnr P398 & P445 Main Road, Ballito, KZN",,,,,,,,,,,,,,,,,,,,
Bayside Pharmacy,18.489359,-33.82281,,Dischem Brances,"Shop E2-E3, Bayside Shopping Centre, Corner Blouberg & West Coast Road, Tableview,  7441.   Western Cape",,,,,,,,,,,,,,,,,,,,
Baywest Mall Pharmacy,25.460136,-33.951804,,Dischem Brances,"Shop LG05, Baywest Mall, 100 Baywest Boulevard, Hunters Treat, Port Elizabeth, 6017.",,,,,,,,,,,,,,,,,,,,
Bedford Square,28.12555,-26.189013,,Dischem Brances,"Shop G6&7, Bedford Square, Cnr. Van der Linde & Smith Roads, Bedford Gardens, Bedfordview,  2007.     Gauteng",,,,,,,,,,,,,,,,,,,,
Benmore Pharmacy,28.04947,-26.09998,,Dischem Brances,"Shop G14, Benmore Gardens Shopping Centre, Cnr Grayston & Benmore, Sandton,   2010.      G.P.",,,,,,,,,,,,,,,,,,,,
Bloemfontein Pharmacy,26.234101,-29.071595,,Dischem Brances,"Shop 68, Northridge Mall, Eeufees Road, Helicon Heights, Bloemfontein,  9300.    Free State",,,,,,,,,,,,,,,,,,,,
Blue Route Pharmacy,18.453186,-34.06459,,Dischem Brances,"Shop F206, Blue Route Mall, 16 Tokai Road, Tokai, 7945.  Western Cape",,,,,,,,,,,,,,,,,,,,
Boksburg North Pharmacy,28.249434,-26.178909,,Dischem Brances,"Shop11, Northrand Road Centre, Cnr Fire Station & Northrand Road, Eveleigh Ext 2, Boksburg North,  1461.   G.P.",,,,,,,,,,,,,,,,,,,,
Bracken Gardens Pharmacy,28.098754,-26.327648,,Dischem Brances,"119 Hennie Alberts Street, Bracken Gardens Shopping Centre, Cnr Delphinium Street, Alberton,  1449.  G.P. South",,,,,,,,,,,,,,,,,,,,
Brooklyn Mall Pharmacy,28.234856,-25.771151,,Dischem Brances,"Shop 14A, Brooklyn Mall, 338 Bronkhorst St, New Muckleneuk, Brooklyn,  0181.   Pretoria West",,,,,,,,,,,,,,,,,,,,
Canal Walk Pharmacy,18.511299,-33.891939,,Dischem Brances,"Shop 41, Canal Walk Shopping Centre, Century City, 7441.  Western Cape",,,,,,,,,,,,,,,,,,,,
Cape Gate Pharmacy,18.697788,-33.853836,,Dischem Brances,"Shop L49, Cape Gate Shopping Precinct Centre, Cnr Okavango & De Bron Road, Brackenfell, Cape Town.",,,,,,,,,,,,,,,,,,,,
Cape Road Pharmacy,25.57214,-33.94941,,Dischem Brances,"289 Cape Road, Corner 2nd Avenue & Cape Road, Newton Park, 6045, Port Elizabeth.",,,,,,,,,,,,,,,,,,,,
Carlswald Pharmacy,28.11557,-25.97895,,Dischem Brances,"Shop 39, Carlswald Lifestyle Centre, Corner Lever  & New Road, Midrand,  1685.    G.P.",,,,,,,,,,,,,,,,,,,,
Carnival Mall Pharmacy,28.318186,-26.251778,,Dischem Brances,"Shop 161, Carnival Mall, Corner Airport & Heidelberg Rd, Delpark, Brakpan, 1541.   G.P.     ",,,,,,,,,,,,,,,,,,,,
Central Park Pharmacy,18.511828,-33.887522,,Dischem Brances,"Building No.5, Intercare Day Hospital, 3 Park Close, Central Park, Century City,  W.Cape. ",,,,,,,,,,,,,,,,,,,,
Centurion Lake Mall Pharmac,28.186327,-25.85478,,Dischem Brances,"Shop 207F, Centurion Lake Mall, Heuwel Ave, Centurion,   0157.    Pretoria",,,,,,,,,,,,,,,,,,,,
Claremont Cape Pharmacy,18.464904,-33.9804,,Dischem Brances,"Shop G1, Standard Bank Galleria, Claremont, 7708.   Western Cape   ",,,,,,,,,,,,,,,,,,,,
Clearwater Mall Pharmacy,27.903013,-26.12681,,Dischem Brances,"Shop 32, Clearwater mall,Cnr Hendrik Potgieter & Christiaan De Wet, Strubensvalley, 1724.   G.P.",,,,,,,,,,,,,,,,,,,,
Cornubia Pharmacy,31.054815,-29.71114,,Dischem Brances,"Shop U70, Cornubia Regional Shopping Centre, Cnr Dube East Road & Cornubia Boulevard, Umhlanga, KZN.",,,,,,,,,,,,,,,,,,,,
Cradlestone Pharmacy,27.837724,-26.060235,,Dischem Brances,"Shop U47, Cradlestone Mall, Corner Furrow and Hendrik Potgieter Road, Roodekrans, 1724. Gauteng",,,,,,,,,,,,,,,,,,,,
Cresta Pharmacy,27.974238,-26.131705,,Dischem Brances,"Shop BL04, Cresta Regional Shopping Centre, Corner Beyers Naude Drive and Weltevreden Road, Extension 4, Cresta, Randburg, 2195.   G.P.",,,,,,,,,,,,,,,,,,,,
Dainfern Square Pharmacy,28.014193,-25.992883,,Dischem Brances,"Shop 27, Dainfern Square, Cnr.William Nicol Drive and Broadacres Avenue, Fourways, Gauteng.",,,,,,,,,,,,,,,,,,,,
East Rand Mall Pharmacy,28.24033,-26.181204,,Dischem Brances,"Shop L30-36, East Rand Mall, Corner Rietfontein & Northrand Rd, Boksburg,1459.   G.P.",,,,,,,,,,,,,,,,,,,,
Farramere Pharmacy,28.304586,-26.162482,,Dischem Brances,"Shop 62, Ground Floor, Farramere Square, 18 Kei Road, Farramere, Benoni, 1501.   G.P.",,,,,,,,,,,,,,,,,,,,
Festival Mall Pharmacy,28.222822,-26.102078,,Dischem Brances,"Shop 5, Festival Mall, Corner C.R. Swart Drive And Kelvin Street, Ester Park, 1620, Kempton.    G.P.         ",,,,,,,,,,,,,,,,,,,,
Fourways Mall Pharmacy,28.00728,-26.018063,,Dischem Brances,"Shop G107, Fourways Mall, Cnr William Nicol & Witkoppen, Fourways,   2055.    G.P.",,,,,,,,,,,,,,,,,,,,
Gateway Pharmacy,31.065795,-29.726092,,Dischem Brances,"Shop F62-40, Gateway Theater Of shopping, No1 Palm Boulevard, Umhlanga Ridge, K.Z.N.",,,,,,,,,,,,,,,,,,,,
Gandhi Square Pharmacy,28.044369,-26.206678,,Dischem Brances,"Shop 503, Gandhi Square,112 Main Street, Cnr Eloff & Main Street, JHB CBD.                                                       ",,,,,,,,,,,,,,,,,,,,
George Pharmacy,22.501859,-33.988031,,Dischem Brances,"Shop 122, Garden Route Mall, Cnr. N2 & Knysna Rd. George,  6529.    Western Cape",,,,,,,,,,,,,,,,,,,,
Glen Acres Pharmacy,28.251329,-26.078315,,Dischem Brances,"Shop 1-7, Glen Acres Shopping Centre, Corner Dann and Monument Road, Glen Marais, Ext.31, 1630, Kempton Park.   G.P.   ",,,,,,,,,,,,,,,,,,,,
Glenfair Pharmacy,28.281692,-25.765646,,Dischem Brances,"Shop 109, Glenfair Shopping Centre, Cnr Lynnwood & Daventry Road, Lynnwood Manor, 0081.   Pretoria East",,,,,,,,,,,,,,,,,,,,
Glen Lucia Pharmacy,31.064575,-29.753835,,Dischem Brances,"Shop 109, La Lucia Mall, 90 William Campbell Dr, La Lucia, 4051.   Durban   K.Z.N.",,,,,,,,,,,,,,,,,,,,
Greenstone Pharmacy,28.138259,-26.121652,,Dischem Brances,"Shop L79, Greenstone Shopping Centre, Corner Modderfontein Rd & Van Riebeek Ave, Edenvale, 1609.    G.P. ",,,,,,,,,,,,,,,,,,,,
Greenvalley Pharmacy,28.156158,-26.118127,,Dischem Brances,"Shop 3, Green Valley Shopping Centre, Corner Greenstone & Stoneridge Drive, Greenstone Hills, Ext. 31, G.P.",,,,,,,,,,,,,,,,,,,,
Hartbeespoort Pharmacy,27.887044,-25.730219,,Dischem Brances,"Shop 124, Village Mall @ Hartbeespoortdam, Cnr. R511 & Tielman Street, Schoemansville, Hartbeespoort.   N.W. Province",,,,,,,,,,,,,,,,,,,,
Hazeldean Pharmacy,28.354382,-25.785135,,Dischem Brances,"Shop 32, Ground Floor,  Hazeldean Square, cnr. Silverlakes & Graham Road, Hazeldean, 0054.   Pretoria East",,,,,,,,,,,,,,,,,,,,
Heidelberg Mall Pharmacy,28.370181,-26.494275,,Dischem Brances,"Shop 10, Heidelberg Mall, 7 Makapan Street, Heidelberg, Gauteng.",,,,,,,,,,,,,,,,,,,,
Hemmingway Pharmacy,27.896118,-32.969859,,Dischem Brances,"Shop UG49, Hemmingway Shopping Mall, Cnr.Western Services Ave. & Two Rivers Drive,  5247.   East London",,,,,,,,,,,,,,,,,,,,
Hermanus Pharmacy,19.208026,-34.415772,,Dischem Brances,"Shop 72, Whale Coast Village Mall, R43, Sandbaai,Western Cape.                                                                       ",,,,,,,,,,,,,,,,,,,,
Highveld Mall Pharmacy,29.261738,-25.886173,,Dischem Brances,"Shop 208, Highveld Mall, Cnr. Mandela & N4, Emalahleni,( Witbank)  1038.   Mpumalanga",,,,,,,,,,,,,,,,,,,,
Hillcrest Pharmacy,30.763067,-29.781405,,Dischem Brances,"Shop 1 OK, Hillcrest Corner Shopping Centre, Cnr Old Main Rd & Hospital Rd, Hilcrest, 3610.  Durban   K.Z.N.",,,,,,,,,,,,,,,,,,,,
Jean Avenue Pharmacy,28.185234,-25.841002,,Dischem Brances,"Shop 33, Jean Avenue Village Mall, Corner Jean Avenue & Rabie Street, Centurion, 0157, Pretoria, G.P.      ",,,,,,,,,,,,,,,,,,,,
Jefferys Bay Pharmacy,24.899235,-34.03165,,Dischem Brances,"Shop G59, Fountain Mall, Cnr. Saint Frances Street & R102, Fountains Estate, Jeffrey's Bay,   6330.   Eastern Cape",,,,,,,,,,,,,,,,,,,,
Jubilee Mall Pharmacy,28.270027,-25.405671,,Dischem Brances,"Shop 44 & 45A, Jubilee Mall, Cnr Harry Quala & Jubilee Road, Hammanskraal.  G.P",,,,,,,,,,,,,,,,,,,,
Kalahari Mall Pharmacy,21.25573,-28.44592,,Dischem Brances,"Shop 80, Corner Dr. Nelson Mandela Drive & Van Riebeek Street, Upington.",,,,,,,,,,,,,,,,,,,,
Killarney Mall Pharmacy,28.053705,-26.166003,,Dischem Brances,"Shop 0045, Killarney Mall, 60 Riviera Road, Killarney, 2193, Gauteng.",,,,,,,,,,,,,,,,,,,,
Klerksdorp Pharmacy,26.67844,-26.84542,,Dischem Brances,"Shop 23, Flamwood Walk Shopping Centre, 1 Brother Patrick Lane, Klerksdorp, 2571.      N.W.Province     ",,,,,,,,,,,,,,,,,,,,
Krugerdorp Pharmacy,27.776586,-26.097969,,Dischem Brances,"Shop 30, President Square Shopping Centre, Cnr Pretoria & Market St, Krugerdorp, 1739.    Gauteng",,,,,,,,,,,,,,,,,,,,
Langenhoven Park Pharmacy,26.163531,-29.093791,,Dischem Brances,"Shop 7, @ The Park Shopping Centre, Cnr Bankovs Boulevard and Dirk Opperman Street, Langenhoven Park, 9301, Bloemfontein.",,,,,,,,,,,,,,,,,,,,
Liberty Promenade Pharmacy,18.616246,-34.039938,,Dischem Brances,"Shop 27 & 28, Liberty Promenade Shopping Centre, AZ Berman Drive, Mitchells Plain, Cape Town.",,,,,,,,,,,,,,,,,,,,
Loch Logan Pharmacy,26.211169,-29.115267,,Dischem Brances,"Shop F2, Loch Logan Water Front, 105-107 Henry Street, Westdene, Bloemfontein,  9301.     Free State",,,,,,,,,,,,,,,,,,,,
Loftus Park Pharmacy,28.223318,-25.751292,,Dischem Brances,"Shop B03, Cnr. Kirkness & Park Street, Pretoria.",,,,,,,,,,,,,,,,,,,,
Lynnwood Rd. Pharmacy,28.242613,-25.758361,,Dischem Brances,"Shop 35, Hillcrest Boulevard, Corner Lynnwood & Duxbury Rd, Hatfield, 0083.    Pretoria",,,,,,,,,,,,,,,,,,,,
Mall@55 Pharmacy,28.106073,-25.884333,,Dischem Brances,"Shop 37, Mall@55, Cnr R55 & Marais Road, Manovani, Centurion, G.P.",,,,,,,,,,,,,,,,,,,,
Mall Of Africa Pharmacy,28.107072,-26.015131,,Dischem Brances,"Shop 1086C, Mall Of Africa, Cnr Karkloof And Mawa Crescent, Jukskei View, Midrand, Gauteng.",,,,,,,,,,,,,,,,,,,,
Mall Of The South Pharmacy,28.057767,-26.314569,,Dischem Brances,"Shop G058, Mall Of The South Shopping Centre, Cnr Swartkoppies Road And Kliprivier Road, Aspen Hills, Gauteng.",,,,,,,,,,,,,,,,,,,,
Maponya Mall Pharmacy,27.898768,-26.261031,,Dischem Brances,"Shop 158-162, Maponya Mall, Chris Hani Road, Klipspruit, Ext 5, Soweto, 1809, G.P.",,,,,,,,,,,,,,,,,,,,
Meadowdale Pharmacy,28.1678,-26.159488,,Dischem Brances,"Shop 51, Meadowdale Mall, Cnr Edenvale Road & N12 Highway, Germiston, GP",,,,,,,,,,,,,,,,,,,,
Melville Pharmacy,28.004728,-26.181984,,Dischem Brances,"Shop 22, Campus Square, Cnr Kingsway Avenue & University Road, Melville, GP.                                         ",,,,,,,,,,,,,,,,,,,,
Menlyn  Park Pharmacy,28.276229,-25.78182,,Dischem Brances,"Shop G191&1192, Menlyn Shopping Centre, Cnr Atterbury & Lois Avenue, Menlo Park, Pretoria, G.P.",,,,,,,,,,,,,,,,,,,,
Middelburg Pharmacy,29.458671,-25.805358,,Dischem Brances,"Shop 116, Middelburg Mall, Corner Tswelopele Avenue and Fontein Street, Middelburg, 1050. Mpumalanga. ",,,,,,,,,,,,,,,,,,,,
Midlands Mall Pharmacy,30.37452,-29.58103,,Dischem Brances,"Shop 219, Liberty Midlands Mall, 50 Sanctuary Road, Chase Valley, Pietermaritzburg, 3201.     K.Z.N.",,,,,,,,,,,,,,,,,,,,
Mondeor Pharmacy,28.010142,-26.276854,,Dischem Brances,"Cnr Columbine Ave. & Royalpark Drive, Mondeor,   2091.    Gauteng South",,,,,,,,,,,,,,,,,,,,
Morningside Pharmacy,28.063114,-26.0797,,Dischem Brances,"Shop 61, 200 Rivonia Road Medical Centre, Morningside, Sandton, GP.                                                         ",,,,,,,,,,,,,,,,,,,,
Mosselbaai Mall Pharmacy,22.116112,-34.185005,,Dischem Brances,"Shop 11&12, Mosselbaai Mall, Corner Louis Fourie Road and Melkhout Street, Heiderand, Mossel Bay, 6506.  W.Cape",,,,,,,,,,,,,,,,,,,,
Mutual Park Pharmacy,18.510765,-33.923556,,Dischem Brances,"Shop 15, West End Mall, Mutual Park, Jan Smuts Drive, Pinelands, 7405, Western Cape",,,,,,,,,,,,,,,,,,,,
Nelspruit Pharmacy,30.9675,-25.43725,,Dischem Brances,"Shop 17, The Grove, Riverside Lifestyle Centre, 20 Weir St, Cnr of Gorge & R40 White River Rd, Riverside, 1226, Nelspruit.  M.P.",,,,,,,,,,,,,,,,,,,,
Newcastle Pharmacy,29.9339,-27.745342,,Dischem Brances,"Shop 7, Newcastle Corner, Cnr Memel Road & Allen Street, Newcastle, KZN.                                                    Opening Date: 01/12/2017",,,,,,,,,,,,,,,,,,,,
New Market Mall Pharmacy,28.125571,-26.277327,,Dischem Brances,"Shop 9&10, New Market Mall Shopping Centre, Cnr Swartkoppies And Heidelberg Road, Alberton,  G.P.",,,,,,,,,,,,,,,,,,,,
Nicolway Pharmacy,28.020364,-26.052844,,Dischem Brances,"Shop L32, Nicolway Shopping Centre, Corner Wedge Link Road West & William Nicol Drive, Bryanston, 2191,  Gauteng.",,,,,,,,,,,,,,,,,,,,
Noordhoek Pharmacy,18.389026,-34.121237,,Dischem Brances,"Shop 15, Sun Valley Mall, Cnr Ou Kaapse Weg And Noordhoek Main Road, Sunnydale, Cape Town.",,,,,,,,,,,,,,,,,,,,
North Cape Mall Pharmacy,24.759276,-28.759208,,Dischem Brances,"62 Memorial Rd, North Cape Mall, Royldene, Kimberley,  8301.  Northern Cape ",,,,,,,,,,,,,,,,,,,,
Northgate Pharmacy,27.948617,-26.06297,,Dischem Brances,"Shop 307, Northgate Shopping Centre, Cnr Witkoppen & Olievenhout, North Riding, 2162       Gauteng North",,,,,,,,,,,,,,,,,,,,
Norwood Pharmacy,28.078482,-26.147086,,Dischem Brances,"Shop 10A, Norwood Hypermarket, Cnr 6th Avenue & Hamlin Street, Norwood,  2192.       Gauteng",,,,,,,,,,,,,,,,,,,,
Olympus Pharmacy,28.322627,-25.795928,,Dischem Brances,"Cnr Hans Strydom & Haymeadow, Faerie Glen, 0043.     Pretora East.",,,,,,,,,,,,,,,,,,,,
Overport Pharmacy,30.999863,-29.837336,,Dischem Brances,"Shop 14, The Atrium, ( Overport Shopping Centre ) 430 Ridge Road, ( Peter Mokaba ) Overport, 4091, Durban,     K.Z.N.                                                                            ",,,,,,,,,,,,,,,,,,,,
Paarl Mall Pharmacy,18.96879,-33.765024,,Dischem Brances,"Shop 95, Paarl Mall, Crn Cecilla & New Viel Road, Paarl, 7646.     Western Cape",,,,,,,,,,,,,,,,,,,,
Park Meadows Pharmacy,28.113886,-26.184156,,Dischem Brances,"Shop 62, Park Meadows Shopping Centre, Cnr Alum & Cumberland Rd, Kensington,  2094,     Gauteng East",,,,,,,,,,,,,,,,,,,,
Park Station Pharmacy,28.041739,-26.197136,,Dischem Brances,"Shop M9, Park Station, M1(A) Western Concourse, Rissik Street, Johannesburg, 2000, Gauteng.    ",,,,,,,,,,,,,,,,,,,,
Pinecrest Pharmacy,30.858278,-29.811601,,Dischem Brances,"Shop 301A, 17 Kings Road, Pinetown, KZN.",,,,,,,,,,,,,,,,,,,,
Platinum Park Pharmacy,29.472566,-23.889875,,Dischem Brances,"Shop 8, Platinum Park Shopping Centre, 8 Watermelon Street, Bendor Park, Polokwane, 0699.",,,,,,,,,,,,,,,,,,,,
Polokwane North Pharmacy,29.508942,-23.875886,,Dischem Brances,"Shop L73, Mall Of The North, Cnr. R81 & Modjajis kloof Rd, Bendor, 0699, Polokwane.     Limpopo",,,,,,,,,,,,,,,,,,,,
Potchefstroom Pharmacy,27.105164,-26.712529,,Dischem Brances,"Shop 93-95, Mooirivier Mall, Cnr. Govan Mbeki & Nelson Mandela Ave.  Potchefstroom,  2520.    N.W. Province",,,,,,,,,,,,,,,,,,,,
Randfontein Pharmacy,27.694362,-26.172307,,Dischem Brances,"Shop 23, Tambotie Mall, Cnr Lazar Avenue & Malan Street, Randfontein,  G.P.",,,,,,,,,,,,,,,,,,,,
Randridge Pharmacy,27.940183,-26.101805,,Dischem Brances,"Shop 101-2-3, Randridge Mall,  John Vorster Road,(off Beyers Naude) Randpark Ridge, 2156.     Gauteng North",,,,,,,,,,,,,,,,,,,,
Raslouw Pharmacy,28.136559,-25.869119,,Dischem Brances,"Shop 11, Raslouw Lifestyle Centre, Cnr. Rooihuiskraal & Hendrik Verwoerd Drive, Centurion, 0149     Pretoria",,,,,,,,,,,,,,,,,,,,
Richards Bay Pharmacy,32.048895,-28.755513,,Dischem Brances,"Shop U068, Boardwalk Inkwazi, Kruger Rand Rd, Richards Bay, 3900.        K.Z.N.",,,,,,,,,,,,,,,,,,,,
Roodepoort Pharmacy,27.850841,-26.130421,,Dischem Brances,"Shop 20, Princess Crossing Shopping Centre, 54 Ontdekkers Rd, Roodepoort, 1724.      Gauteng West",,,,,,,,,,,,,,,,,,,,
Rosebank Pharmacy,28.04234,-26.14516,,Dischem Brances,"Shop 327-328, Rosebank Mall, 51 Bath Avenue, Rosebank, 2196. Gauteng",,,,,,,,,,,,,,,,,,,,
Rustenburg Pharmacy,27.251558,-25.707375,,Dischem Brances,"Shop 1, Waterfall Mall Value Centre, Augrabies Avenue, Waterfall Park, Rustenburg,  0299.     N.W.Province",,,,,,,,,,,,,,,,,,,,
Rynfield Terrace Pharmacy,28.349454,-26.135803,,Dischem Brances,"Shop 27, Rynfield Terrace Shopping Centre, Cnr Pretoria and Vlei Road, Rynfield, Benoni, G.P.",,,,,,,,,,,,,,,,,,,,
Sandton City Pharmacy,28.053138,-26.10826,,Dischem Brances,"Shop L01, Corner Rivonia Road & 5th Street, Sandhurst Ext. 3, Sandton City.      ",,,,,,,,,,,,,,,,,,,,
Savannah Mall Pharmacy,29.48759,-23.90423,,Dischem Brances,"Shop 65, Savannah Mall, Cnr. Grimm & Thabo Mbeki Street, Polokwane, 0700.    Limpopo ",,,,,,,,,,,,,,,,,,,,
Sea Point Pharmacy,18.383193,-33.92089,,Dischem Brances,"Shop Retail 6, The Galleria, 76 Regent Road, Sea Point, Cape Town.      Western Cape               ",,,,,,,,,,,,,,,,,,,,
Secunda Pharmacy,29.183489,-26.510065,,Dischem Brances,"Shop UG35, Secunda Regional Mall, Corner PDP Kruger Road and Oliver Tambo Drive, Secunda, 2302.  MP   ",,,,,,,,,,,,,,,,,,,,
Somerset Mall Pharmacy,18.822853,-34.080045,,Dischem Brances,"Shop 310, Somerset Mall, Cnr R44 & N2, Somerset West, 7130.   Western Cape",,,,,,,,,,,,,,,,,,,,
Soshanguve Pharmacy,28.089727,-25.550165,,Dischem Brances,"Shop 15, Soshanguve Crossing, Cnr Ruth First Road & Aubrey Matlala Street, Soshanguve, 0152, Pretoria North.",,,,,,,,,,,,,,,,,,,,
South Coast Mall Pharmacy,30.405687,-30.797736,,Dischem Brances,"Shop 62, South Coast Mall, Izotsha Road, Shelly Beach, South Coast, KZN.",,,,,,,,,,,,,,,,,,,,
Southgate Pharmacy,27.979254,-26.267817,,Dischem Brances,"Shop U251, Southgate Mall, Corner Rifle Range Road and Columbine Avenue, Mondeor, 2091, Gauteng.  ",,,,,,,,,,,,,,,,,,,,
Springs Mall Pharmacy,28.465958,-26.262796,,Dischem Brances,"Shop L45, Springs Mall Centre, Casseldale Ext. 4, Springs, G.P.",,,,,,,,,,,,,,,,,,,,
Strubensvalley Pharmacy,27.897307,-26.116036,,Dischem Brances,"Shop 7, Retail Crossing Shopping Centre, Cnr Hendrik Potgieter & Nic Diedrichs Boulevard, Wilgeheuwel Ext 12, 1735.      G.P.",,,,,,,,,,,,,,,,,,,,
Sunninghill Pharmacy,28.061928,-26.029922,,Dischem Brances,"Shop 4, Chilli On Top Centre, Cnr Rivonia and Leeuwkop Road, Sunninghill, Sandton, Gauteng.                          ",,,,,,,,,,,,,,,,,,,,
Swakopmund,14.600491,-22.646743,,Dischem Brances,"Shop 3116, Platzammeer Shopping Centre, Erf 71 Hollam's Bird Island, Vineta North, Swakopmund, Namibia.",,,,,,,,,,,,,,,,,,,,
Table Bay Mall Pharmacy,18.478032,-33.787001,,Dischem Brances,"Shop G100, Table Bay Mall, Cnr R27 & Berkshire Boulevard, Blouberg, Cape Town.",,,,,,,,,,,,,,,,,,,,
The Bluff Pharmacy,31.003788,-29.924327,,Dischem Brances,"Shop 58, Bluff Towers, 318 Tara Road, Bluff, 4052, Durban, KZN",,,,,,,,,,,,,,,,,,,,
The Club Pharmacy,28.257093,-25.778377,,Dischem Brances,"Cnr Pinaster Ave. & 18th Street, Hazelwood, Pretoria.       ",,,,,,,,,,,,,,,,,,,,
The Glen Pharmacy,28.04834,-26.268344,,Dischem Brances,"Shop GU14, The Glen Shopping Centre, Cnr Orpen & Letaba St, Oakdene, 2091.         Gauteng South",,,,,,,,,,,,,,,,,,,,
The Grove Mall Pharmacy,17.09409,-22.619398,,Dischem Brances,"Shop 228, The Grove Mall Of Namibia, Chasie Street, Klein Kuppe, Windhoek, Namibia.",,,,,,,,,,,,,,,,,,,,
The Local Choice Pharmacy,29.45176,-23.90897,,Dischem Brances,"Shop 1, 62 Market Street, Polokwane.",,,,,,,,,,,,,,,,,,,,
The Local Choice Pharmacy,28.359882,-26.502393,,Dischem Brances,"Shop G37, Jordaan & Voortrekker Street, Heidelberg.                                              ",,,,,,,,,,,,,,,,,,,,
The Pavilion Pharmacy,30.936801,-29.848458,,Dischem Brances,"Shop 105/106, The Pavilion Shopping Centre, 5 Jack Martens Drive, Westville, 3629,  KZN.",,,,,,,,,,,,,,,,,,,,
Three Rivers Pharmacy,27.969363,-26.660658,,Dischem Brances,"Shop 13, Riverwalk Shopping Centre, 7 Nile Drive, 3 Rivers,Vereeniging, 1929.          Gauteng South                            ",,,,,,,,,,,,,,,,,,,,
Tygervalley Pharmacy,18.63144,-33.870599,,Dischem Brances,"Shop G63, Willowbridge Shopping Centre, Carl Cronje Rd, Tygervalley, 7530,   Western Cape.",,,,,,,,,,,,,,,,,,,,
Vaal Mall Pharmacy,27.823112,-26.709689,,Dischem Brances,"Shop 67, Vaal Mall Shopping Centre, Cnr Rossine Boulevard & Barrage Rd, ( R42) Vanderbijl Park, 1902.         Gauteng South",,,,,,,,,,,,,,,,,,,,
Valley View Pharmacy,27.804952,-26.08192,,Dischem Brances,"Shop 2, Valley View Retail Centre, Cnr Robert Broom Drive & Van Oord Street, Noordheuwel, Ext 17, Krugerdorp.",,,,,,,,,,,,,,,,,,,,
Vanderbijlpark Pharmacy,27.886435,-26.698745,,Dischem Brances,"Shop 23, President Square Vaal, Corner Ascot on Vaal and Playfair Boulevard, Vanderbijlpark, 1911, Gauteng.",,,,,,,,,,,,,,,,,,,,
Verdi Pharmacy,27.978878,-26.139539,,Dischem Brances,"Shop 15, Verdi Shopping Centre, Corner Beyers Naude & Vincent Drive, Risidale, 2091.      Gauteng North",,,,,,,,,,,,,,,,,,,,
Victory Park Pharmacy,28.008584,-26.138245,,Dischem Brances,"Shop G12, Victory Park Shopping Centre, Cnr 2nd Avenue & Rustenburg Road, Victory Park,  2195.       Gauteng",,,,,,,,,,,,,,,,,,,,
Walmer Park Pharmacy,25.558862,-33.980471,,Dischem Brances,"Shop 104, Walmer Park Shopping Centre, Main Rd, Walmer, 6070.    Port Elizabeth",,,,,,,,,,,,,,,,,,,,
Walvis Bay & Dunes Mall Phamacy,14.524639,-22.938959,,Dischem Brances,"Shop 47A & 47B Dunes Mall, Cnr M36 & 18th Road, Walvis Bay, 9000, Namibia.",,,,,,,,,,,,,,,,,,,,
Watercrest Mall Pharmacy,30.814485,-29.748728,,Dischem Brances,"Shop LG45, Watercrest Mall, 141 Inanda Road, Waterfall, Durban, 3610, KZN.         ",,,,,,,,,,,,,,,,,,,,
Westgate Pharmacy,27.868637,-26.140402,,Dischem Brances,"Shop 165-167A-169-171-173 Westgate Shopping Centre, Entrance No.6, 120 Ontdekkers Rd, Roodepoort, 1725. Gauteng West ",,,,,,,,,,,,,,,,,,,,
Westville Pharmacy,30.961079,-29.828861,,Dischem Brances,"Shop L58, Westwood Mall,16 Lincoln Terrace, Westville, 3629.    Durban     K.Z.N.",,,,,,,,,,,,,,,,,,,,
Wonderboom Junction Pharmacy,28.188677,-25.685287,,Dischem Brances,"Shop G13, Wonderboom Junction, Annlin West, 0182. Tshwane North.  ( Pretoria )",,,,,,,,,,,,,,,,,,,,
Wonderpark Pharmacy,28.11289,-25.669739,,Dischem Brances,"Shop 514, Wonderpark Shopping Centre, Corner Old Brits Road & Heinrich Avenue, Karenpark, 0182, Pretoria. ",,,,,,,,,,,,,,,,,,,,
Woodlands Pharmacy,28.31476,-25.82441,,Dischem Brances,"Shop 267, Woodlands Boulevard, Cnr Garsfontein Rd & De Villabois Maruil Dr, Pretorius Park, Ext 3, 0081,  Pretoria East.  G.P.",,,,,,,,,,,,,,,,,,,,
Woodmead Pharmacy,28.092869,-26.051283,,Dischem Brances,"Shop 10, Woodmead Retail Park, Woodmead Drive, 2196.     Gauteng",,,,,,,,,,,,,,,,,,,,
Worcester Pharmacy,19.43455,-33.63179,,Dischem Brances,"Shop 55, Mountain Mill Shopping Centre, 13 Mountain Mill Drive, Worcester, 6850,  Western Cape.",,,,,,,,,,,,,,,,,,,,
Zevenwacht Mall Pharmacy,18.695812,-33.948498,,Dischem Brances,"Shop 44, Zevenwacht Village Centre, Cnr van Riebeeck and Polkadraai Road, kuilsrivier, 7580, Western Cape.",,,,,,,,,,,,,,,,,,,,
Dis-Chem Direct Courier Pharmacy,28.128196,-26.017413,,Dischem Brances,"23 Stag Road, Glen Austin, 1685, Midrand,  G.P. ",,,,,,,,,,,,,,,,,,,,
CJ Distribution Centre,28.129555,-26.015842,,Dischem Brances,"Cnr. R101 & Le-Roux Road, Glen Austin, 1685, Midrand, G.P.  ( Dis-Chem Head Office: 23 Stag Rd, Glen Austin, 1685, Midrand. )",,,,,,,,,,,,,,,,,,,,
CJ Distribution Centre  Belville,18.671936,-33.894371,,Dischem Brances,"6 La Belle Road, Stikland, Bellville,  7530,  W. Cape.",,,,,,,,,,,,,,,,,,,,
